address;postcode;state;country;property_valuation
060 Morning Avenue;2016;New South Wales;Australia;10
6 Meadow Vale Court;2153;New South Wales;Australia;10
0 Holy Cross Court;4211;QLD;Australia;9
17979 Del Mar Point;2448;New South Wales;Australia;4
9 Oakridge Court;3216;VIC;Australia;9
4 Delaware Trail;2210;New South Wales;Australia;9
49 Londonderry Lane;2650;New South Wales;Australia;4
97736 7th Trail;2023;New South Wales;Australia;12
93405 Ludington Park;3044;VIC;Australia;8
44339 Golden Leaf Alley;4557;QLD;Australia;4
2 Sutherland Street;3799;VIC;Australia;6
9 Mcbride Trail;2760;New South Wales;Australia;8
9861 New Castle Avenue;2428;New South Wales;Australia;9
52 Moland Street;3331;VIC;Australia;4
82391 Kensington Lane;3058;VIC;Australia;9
092 2nd Alley;2135;New South Wales;Australia;12
59 Spaight Circle;2233;New South Wales;Australia;9
032 Bartelt Crossing;2444;New South Wales;Australia;8
18 Jenna Center;2650;New South Wales;Australia;7
3 Cordelia Plaza;2153;New South Wales;Australia;10
28 5th Center;4413;QLD;Australia;3
52 Carey Alley;4740;QLD;Australia;5
96 Texas Plaza;3218;VIC;Australia;7
48 Eagan Avenue;4868;QLD;Australia;4
9 Buell Park;4116;QLD;Australia;7
02663 Buell Parkway;2519;New South Wales;Australia;11
2294 Pleasure Place;2135;New South Wales;Australia;12
2951 Petterle Place;2756;New South Wales;Australia;9
63 Lukken Drive;2170;New South Wales;Australia;9
833 Luster Way;4005;QLD;Australia;8
34 Russell Plaza;4127;QLD;Australia;6
78 Del Sol Hill;2535;New South Wales;Australia;8
54 Sage Plaza;4726;QLD;Australia;1
90 Lawn Parkway;4805;QLD;Australia;4
38726 Ilene Crossing;2212;New South Wales;Australia;10
3496 Brown Drive;2207;New South Wales;Australia;8
7188 Cody Way;3350;VIC;Australia;9
1 Claremont Park;3931;VIC;Australia;10
60 Eagan Circle;4018;QLD;Australia;8
89314 Eagle Crest Center;4670;QLD;Australia;2
2028 Lakewood Place;2480;New South Wales;Australia;3
70875 Hudson Point;3212;VIC;Australia;6
543 Killdeer Park;2322;New South Wales;Australia;4
22125 Ramsey Drive;3198;VIC;Australia;9
3107 Calypso Terrace;2210;New South Wales;Australia;9
957 Veith Junction;2047;New South Wales;Australia;10
4853 Gulseth Avenue;4503;QLD;Australia;5
9 Michigan Terrace;2145;New South Wales;Australia;8
62 Steensland Road;4350;QLD;Australia;3
6 Homewood Avenue;2142;New South Wales;Australia;8
15 Almo Lane;2029;New South Wales;Australia;10
690 Glacier Hill Circle;2127;New South Wales;Australia;10
89787 Village Green Terrace;4280;QLD;Australia;6
18 Elgar Park;2166;New South Wales;Australia;9
413 Mayer Street;2046;New South Wales;Australia;9
39 3rd Drive;2026;New South Wales;Australia;10
44516 Katie Parkway;2765;New South Wales;Australia;7
41 Schurz Center;2749;New South Wales;Australia;8
68150 Boyd Road;2745;New South Wales;Australia;9
11474 Westend Hill;3752;VIC;Australia;8
308 Jana Crossing;2153;New South Wales;Australia;10
163 Straubel Trail;2217;New South Wales;Australia;10
68294 Clarendon Crossing;2230;New South Wales;Australia;10
486 Mariners Cove Plaza;3046;VIC;Australia;7
0322 Dryden Court;3183;VIC;Australia;7
9 Bonner Road;2070;New South Wales;Australia;12
07041 Briar Crest Lane;2213;New South Wales;Australia;10
29466 Hanson Pass;4208;QLD;Australia;6
0212 Forest Run Trail;2774;New South Wales;Australia;8
33055 Menomonie Parkway;4133;QLD;Australia;8
4763 Merchant Avenue;2756;New South Wales;Australia;8
439 Ridgeway Court;4213;QLD;Australia;9
2 Clyde Gallagher Lane;4170;QLD;Australia;5
97455 Loeprich Lane;2153;New South Wales;Australia;9
9527 Ridgeway Street;2073;New South Wales;Australia;10
7 Jackson Point;3561;VIC;Australia;1
74 Anniversary Junction;2330;New South Wales;Australia;6
2083 Spaight Court;3977;VIC;Australia;8
2796 Caliangt Circle;2204;New South Wales;Australia;12
96061 Ludington Place;2086;New South Wales;Australia;11
5037 Merchant Crossing;2226;New South Wales;Australia;11
289 Haas Street;2075;New South Wales;Australia;11
4423 Bartelt Parkway;2038;New South Wales;Australia;12
5 Grim Center;2069;New South Wales;Australia;12
73042 Roth Crossing;2100;New South Wales;Australia;11
171 Fordem Junction;2233;New South Wales;Australia;10
2640 Manley Point;2166;New South Wales;Australia;9
3 Hintze Pass;3133;VIC;Australia;10
2 Mcbride Road;3070;VIC;Australia;10
67234 Transport Hill;2777;New South Wales;Australia;7
72 Dorton Crossing;3133;VIC;Australia;10
6 Heffernan Center;2125;New South Wales;Australia;11
6088 Roxbury Hill;2766;New South Wales;Australia;8
105 Shelley Alley;2209;New South Wales;Australia;10
079 Merry Park;2160;New South Wales;Australia;9
8722 Summit Alley;2065;New South Wales;Australia;12
9554 Artisan Pass;2150;New South Wales;Australia;10
55850 Butterfield Road;2168;New South Wales;Australia;9
68 Little Fleur Crossing;2046;New South Wales;Australia;12
85688 New Castle Crossing;4171;QLD;Australia;10
8611 Loomis Lane;2155;New South Wales;Australia;10
7909 Pierstorff Crossing;2517;New South Wales;Australia;9
01 Muir Parkway;2096;New South Wales;Australia;12
0410 Division Junction;2750;New South Wales;Australia;8
41 Service Lane;2217;New South Wales;Australia;11
5 Moose Road;3977;VIC;Australia;8
7342 Fieldstone Junction;2093;New South Wales;Australia;12
0 David Terrace;3204;VIC;Australia;11
15239 Northwestern Point;4300;QLD;Australia;4
60 Oneill Street;2170;New South Wales;Australia;9
8194 Sachtjen Drive;3844;VIC;Australia;1
0349 Farmco Terrace;2168;New South Wales;Australia;8
185 Pennsylvania Way;4226;QLD;Australia;6
432 Longview Circle;3192;VIC;Australia;10
5814 Bunker Hill Street;3070;VIC;Australia;7
7 Carberry Crossing;2485;New South Wales;Australia;2
53 Talisman Trail;2097;New South Wales;Australia;9
5 Prairie Rose Road;4817;QLD;Australia;2
84 Florence Parkway;2516;New South Wales;Australia;8
739 Elmside Way;3074;VIC;Australia;8
684 Northport Circle;2213;New South Wales;Australia;10
8 Hagan Hill;4508;QLD;Australia;4
0 Pearson Crossing;4405;QLD;Australia;1
10918 Merry Way;2452;New South Wales;Australia;5
97 Coolidge Trail;2142;New South Wales;Australia;9
58 Helena Hill;2205;New South Wales;Australia;7
352 Forster Place;4132;QLD;Australia;3
12306 Lawn Street;2145;New South Wales;Australia;8
19392 7th Trail;4744;QLD;Australia;1
1605 Northfield Junction;2158;New South Wales;Australia;11
9674 Graceland Junction;3201;VIC;Australia;6
638 Thackeray Junction;4178;QLD;Australia;3
869 Forster Circle;2112;New South Wales;Australia;10
0 Golden Leaf Crossing;2033;New South Wales;Australia;9
215 Lindbergh Trail;4401;QLD;Australia;1
829 Washington Crossing;3186;VIC;Australia;9
585 Loomis Court;2097;New South Wales;Australia;11
68063 Blue Bill Park Center;3058;VIC;Australia;9
15673 Farmco Point;4017;QLD;Australia;6
22 Oxford Junction;2315;New South Wales;Australia;3
7245 Cottonwood Center;2285;New South Wales;Australia;5
20382 Spohn Alley;2219;New South Wales;Australia;11
12375 Cambridge Pass;2065;New South Wales;Australia;11
03 Granby Parkway;3216;VIC;Australia;8
939 Coleman Pass;4509;QLD;Australia;7
69914 Bowman Place;2330;NSW;Australia;7
34457 Springview Street;2759;NSW;Australia;9
992 Old Shore Trail;2069;NSW;Australia;12
453 Sheridan Street;2747;NSW;Australia;8
8 Mccormick Crossing;2227;NSW;Australia;8
63344 Holmberg Crossing;2025;NSW;Australia;10
9 Huxley Circle;3191;VIC;Australia;11
0 Hazelcrest Road;3025;VIC;Australia;8
2 Continental Plaza;2263;NSW;Australia;6
80 Duke Terrace;2233;NSW;Australia;10
860 Hintze Lane;2154;NSW;Australia;11
3723 Bunker Hill Circle;2065;NSW;Australia;10
5 Corry Court;2119;NSW;Australia;10
65105 Sommers Pass;3016;VIC;Australia;10
2054 Sommers Pass;4113;QLD;Australia;4
22371 Miller Trail;2032;NSW;Australia;10
35807 Oneill Way;4300;QLD;Australia;4
75612 Clarendon Junction;4352;QLD;Australia;6
16 Golf View Center;3020;VIC;Australia;6
93 Iowa Junction;2116;NSW;Australia;9
48 Cascade Terrace;3057;VIC;Australia;8
13950 Jackson Avenue;2099;NSW;Australia;11
35386 Mockingbird Road;3749;VIC;Australia;4
2 Randy Point;2766;NSW;Australia;8
6898 Redwing Park;2148;NSW;Australia;9
52273 Bay Place;3145;VIC;Australia;11
272 Montana Avenue;2021;NSW;Australia;8
82520 Mifflin Drive;2333;NSW;Australia;5
8 Dixon Parkway;2783;NSW;Australia;7
4 Dayton Terrace;2280;NSW;Australia;9
216 Barnett Junction;4120;QLD;Australia;8
8256 Annamark Court;3638;VIC;Australia;1
83012 Dapin Lane;4300;QLD;Australia;4
8 Haas Park;2074;NSW;Australia;10
50 Meadow Ridge Way;2880;NSW;Australia;1
3567 Northfield Lane;2430;NSW;Australia;5
0059 Brentwood Road;4560;QLD;Australia;7
0274 Oneill Alley;2088;NSW;Australia;10
4179 Carioca Terrace;2220;NSW;Australia;11
59265 Sullivan Junction;3031;VIC;Australia;4
7 Warbler Point;2250;NSW;Australia;9
3 Buell Park;2261;NSW;Australia;7
0 Bay Center;3196;VIC;Australia;6
10878 Waywood Way;4352;QLD;Australia;7
362 Mayer Terrace;4680;QLD;Australia;5
43 Upham Crossing;3143;VIC;Australia;9
0 Superior Drive;2747;NSW;Australia;8
8890 Golden Leaf Street;2063;NSW;Australia;12
5484 Hagan Crossing;3021;VIC;Australia;7
7451 Jana Lane;2138;NSW;Australia;8
7 Havey Point;4005;QLD;Australia;2
32 Steensland Plaza;2233;NSW;Australia;9
107 Elmside Parkway;4811;QLD;Australia;5
2 Gina Junction;2085;NSW;Australia;11
4 Londonderry Lane;3084;VIC;Australia;10
39716 Vera Junction;3170;VIC;Australia;9
183 Ronald Regan Street;2066;NSW;Australia;9
2 Thierer Road;4113;QLD;Australia;8
056 Stone Corner Alley;4078;QLD;Australia;7
528 Mandrake Crossing;2222;NSW;Australia;11
19969 5th Parkway;3152;VIC;Australia;9
78 Rockefeller Park;2159;NSW;Australia;10
417 Transport Trail;4503;QLD;Australia;4
6327 Lunder Crossing;4655;QLD;Australia;4
811 Tony Road;4220;QLD;Australia;9
0 Northport Court;4012;QLD;Australia;3
231 Havey Court;2153;NSW;Australia;10
603 Kenwood Avenue;2070;NSW;Australia;11
09040 Myrtle Parkway;2015;NSW;Australia;8
05241 Shelley Park;2776;NSW;Australia;8
7 Pankratz Point;3011;VIC;Australia;8
51 Crescent Oaks Parkway;2761;NSW;Australia;8
49 Emmet Junction;2015;NSW;Australia;11
78 Surrey Place;2502;NSW;Australia;7
6236 Summerview Terrace;2110;NSW;Australia;12
682 Sheridan Avenue;2566;NSW;Australia;9
04139 Delladonna Place;2519;NSW;Australia;7
2 Scott Circle;2506;NSW;Australia;9
92253 Kensington Drive;2209;NSW;Australia;7
93 Westend Terrace;2116;NSW;Australia;10
4 5th Point;2075;NSW;Australia;11
11667 Blackbird Street;2226;NSW;Australia;10
0 Sommers Circle;2145;NSW;Australia;9
2 Northridge Street;2508;NSW;Australia;10
816 Spohn Center;2036;NSW;Australia;10
98 Service Court;2018;NSW;Australia;8
6 Morning Park;3666;VIC;Australia;2
4263 Hanson Place;2021;NSW;Australia;11
6159 Katie Street;2750;NSW;Australia;8
95 Eliot Street;4514;QLD;Australia;3
0 Westend Park;2525;NSW;Australia;9
39988 Porter Pass;4152;QLD;Australia;7
0796 Melody Park;2200;NSW;Australia;9
2914 Vahlen Lane;2250;NSW;Australia;8
65 Kinsman Trail;3023;VIC;Australia;6
07227 Hoard Terrace;3500;VIC;Australia;1
25503 Evergreen Drive;4300;QLD;Australia;5
2 2nd Plaza;2283;NSW;Australia;4
122 Melrose Drive;2102;NSW;Australia;10
37024 Anniversary Place;2204;NSW;Australia;11
91141 Huxley Parkway;2040;NSW;Australia;10
04 Fallview Trail;2749;NSW;Australia;8
8029 Gulseth Center;2304;NSW;Australia;7
77248 Columbus Drive;2340;NSW;Australia;7
0850 Schmedeman Drive;3580;VIC;Australia;1
131 Northfield Parkway;3355;VIC;Australia;2
5130 Manley Court;2287;NSW;Australia;7
879 Coolidge Point;2324;NSW;Australia;5
6759 Nevada Point;2323;NSW;Australia;6
8208 Parkside Point;2320;NSW;Australia;6
15 Straubel Way;4680;QLD;Australia;2
7 Eastlawn Street;2346;NSW;Australia;1
42067 Duke Terrace;2031;NSW;Australia;10
50 Everett Way;2064;NSW;Australia;9
454 Green Ridge Avenue;2176;NSW;Australia;10
19220 Evergreen Crossing;3195;VIC;Australia;9
109 Tomscot Avenue;2010;NSW;Australia;10
48 Arizona Drive;2768;NSW;Australia;10
92 Lyons Place;2752;NSW;Australia;9
47 Jana Junction;3802;VIC;Australia;7
90173 Oneill Place;3071;VIC;Australia;10
6262 Elgar Avenue;4735;QLD;Australia;2
5668 Corscot Circle;2065;NSW;Australia;12
8 Texas Plaza;3081;VIC;Australia;9
32062 Oak Terrace;3205;VIC;Australia;8
07158 Roth Pass;2165;NSW;Australia;4
370 Portage Parkway;3125;VIC;Australia;8
19795 Bultman Circle;4214;QLD;Australia;8
3 Corscot Crossing;2030;NSW;Australia;12
34 Kim Center;2036;NSW;Australia;11
8 Starling Pass;2767;NSW;Australia;8
36 Vidon Parkway;2798;NSW;Australia;6
8 Riverside Place;4211;QLD;Australia;5
28604 Bellgrove Circle;4508;QLD;Australia;6
2 Cottonwood Road;2032;NSW;Australia;11
58 Parkside Hill;2117;NSW;Australia;12
747 Thackeray Circle;4551;QLD;Australia;7
5583 Prairie Rose Trail;2765;NSW;Australia;8
071 Cardinal Point;3064;VIC;Australia;7
7169 North Lane;2023;NSW;Australia;9
6923 Tennessee Circle;2766;NSW;Australia;9
8207 Cascade Court;3810;VIC;Australia;5
2 Brentwood Place;4151;QLD;Australia;8
00 5th Lane;2830;NSW;Australia;2
807 Beilfuss Crossing;3030;VIC;Australia;7
76 Graedel Street;4812;QLD;Australia;6
29886 Crownhardt Crossing;2141;NSW;Australia;8
1 Drewry Junction;3810;VIC;Australia;7
83 Brickson Park Drive;3029;VIC;Australia;8
95 Almo Junction;2173;NSW;Australia;9
08 Golf View Plaza;3199;VIC;Australia;9
6170 Buena Vista Way;2320;NSW;Australia;7
0 Orin Place;4506;QLD;Australia;7
20924 Banding Crossing;2516;NSW;Australia;9
91193 Petterle Road;2035;NSW;Australia;11
01459 Fremont Place;2747;NSW;Australia;4
58 Spenser Circle;3030;VIC;Australia;3
93 Lawn Park;3152;VIC;Australia;9
5982 Mosinee Avenue;3340;VIC;Australia;5
37006 Hoard Circle;3182;VIC;Australia;7
06 Corry Pass;2450;NSW;Australia;9
099 Nova Plaza;2227;NSW;Australia;10
252 Mockingbird Plaza;2216;NSW;Australia;10
990 Kensington Park;3796;VIC;Australia;8
706 Anniversary Alley;3064;VIC;Australia;3
52 Corben Place;3197;VIC;Australia;10
4270 Loeprich Lane;3064;VIC;Australia;7
2 Clyde Gallagher Drive;2232;NSW;Australia;10
671 American Ash Way;2365;NSW;Australia;2
93 American Ash Avenue;2747;NSW;Australia;8
1108 Nevada Junction;4701;QLD;Australia;2
41 Spaight Road;4503;QLD;Australia;5
5 Schurz Place;4350;QLD;Australia;6
82 8th Alley;4210;QLD;Australia;9
84 Lawn Way;2223;NSW;Australia;9
0 Coolidge Avenue;4122;QLD;Australia;8
0 Graceland Plaza;2515;NSW;Australia;10
8717 Mandrake Place;4214;QLD;Australia;8
2 Thierer Lane;3437;VIC;Australia;8
19507 Red Cloud Park;3338;VIC;Australia;4
3 Golf Course Avenue;2203;NSW;Australia;9
042 Bunker Hill Avenue;2088;NSW;Australia;8
45793 Nancy Plaza;4226;QLD;Australia;8
314 Northland Plaza;4213;QLD;Australia;5
3093 Mockingbird Place;3356;VIC;Australia;2
82 Mcbride Trail;3223;VIC;Australia;6
24044 Bonner Hill;3032;VIC;Australia;8
1 Rowland Circle;3105;VIC;Australia;10
7 Arapahoe Pass;3101;VIC;Australia;12
7905 Spaight Alley;2763;NSW;Australia;8
8 Grayhawk Circle;2089;NSW;Australia;10
3 Lyons Road;2759;NSW;Australia;8
72419 Eagan Road;2040;NSW;Australia;10
6860 Green Ridge Avenue;2126;NSW;Australia;11
85 Straubel Park;2147;NSW;Australia;9
08 Ronald Regan Plaza;2251;NSW;Australia;9
44621 Linden Drive;2155;NSW;Australia;10
3 Moulton Lane;2153;NSW;Australia;9
7633 Mayer Plaza;2768;NSW;Australia;10
98 Westerfield Trail;3127;VIC;Australia;11
1826 Hazelcrest Park;3087;VIC;Australia;9
98 Sutteridge Point;3131;VIC;Australia;10
6 Sunbrook Center;4350;QLD;Australia;6
143 Elka Circle;3134;VIC;Australia;9
0293 Porter Crossing;2830;NSW;Australia;5
7447 Nevada Park;2193;NSW;Australia;8
7 Park Meadow Drive;4055;QLD;Australia;3
780 Carberry Place;3199;VIC;Australia;9
5337 Dennis Pass;2170;NSW;Australia;9
7 Debs Point;2322;NSW;Australia;4
708 Russell Parkway;2530;NSW;Australia;7
66286 Homewood Alley;2075;NSW;Australia;11
8728 Express Way;2340;NSW;Australia;7
93583 Moland Way;2066;NSW;Australia;12
18264 Maryland Way;4217;QLD;Australia;9
411 Homewood Lane;4020;QLD;Australia;5
8 Mariners Cove Drive;2096;NSW;Australia;10
279 Jenna Circle;2179;NSW;Australia;12
382 Maywood Parkway;4127;QLD;Australia;6
6085 Petterle Circle;3130;VIC;Australia;10
06324 Michigan Trail;4570;QLD;Australia;4
92808 Mallard Terrace;3215;VIC;Australia;4
841 Anderson Drive;3101;VIC;Australia;8
67884 Fair Oaks Parkway;3931;VIC;Australia;9
1823 Judy Center;3165;VIC;Australia;10
953 Eliot Crossing;2166;NSW;Australia;9
90761 Shasta Pass;3936;VIC;Australia;7
259 Barnett Crossing;2265;NSW;Australia;5
0 Brown Trail;2203;NSW;Australia;9
3467 Prairie Rose Lane;3034;VIC;Australia;7
24 Scoville Parkway;4670;QLD;Australia;1
010 Namekagon Parkway;2062;NSW;Australia;12
99826 Steensland Avenue;2162;NSW;Australia;5
28809 Mesta Pass;4170;QLD;Australia;8
201 Randy Parkway;3033;VIC;Australia;7
58211 Surrey Crossing;2170;NSW;Australia;9
720 Menomonie Avenue;2749;NSW;Australia;8
4604 Cordelia Drive;2144;NSW;Australia;10
3788 Service Trail;3805;VIC;Australia;8
8 Holy Cross Center;2047;NSW;Australia;9
740 Calypso Drive;2100;NSW;Australia;10
9457 Arizona Plaza;2642;NSW;Australia;2
75 Bartillon Street;3228;VIC;Australia;8
7 Reinke Junction;2145;NSW;Australia;10
7343 Washington Road;2287;NSW;Australia;5
3 Valley Edge Trail;3444;VIC;Australia;7
32 Farragut Avenue;2076;NSW;Australia;11
5 Florence Hill;4124;QLD;Australia;7
095 Prairieview Circle;3191;VIC;Australia;12
47226 Algoma Place;4305;QLD;Australia;3
564 Northview Junction;3195;VIC;Australia;11
5359 Alpine Hill;2579;NSW;Australia;5
586 Miller Parkway;2835;NSW;Australia;1
32571 Dixon Center;3337;VIC;Australia;3
333 Bunting Crossing;2536;NSW;Australia;4
1 Red Cloud Street;2770;NSW;Australia;8
07 New Castle Circle;2646;NSW;Australia;1
78152 Harper Parkway;2756;NSW;Australia;8
981 West Way;3133;VIC;Australia;10
8 Monterey Plaza;2066;NSW;Australia;9
25 Graceland Way;2750;NSW;Australia;8
41605 Mitchell Street;2750;NSW;Australia;8
42 Upham Pass;4558;QLD;Australia;3
17 Sunfield Road;2211;NSW;Australia;9
84549 Jenifer Crossing;2570;NSW;Australia;8
5449 Jenna Road;2170;NSW;Australia;9
05 Butternut Crossing;4552;QLD;Australia;4
7427 Fuller Trail;3082;VIC;Australia;8
713 Eastwood Terrace;2360;NSW;Australia;1
7526 Artisan Parkway;4223;QLD;Australia;8
3 Oriole Place;3183;VIC;Australia;7
690 Hanson Center;2330;NSW;Australia;3
509 Fisk Hill;2031;NSW;Australia;11
27 Petterle Center;4370;QLD;Australia;2
3 Annamark Avenue;3150;VIC;Australia;11
311 Dapin Point;2549;NSW;Australia;3
15082 Crest Line Plaza;3040;VIC;Australia;8
1 Carey Pass;2065;NSW;Australia;11
8 Moland Pass;2065;NSW;Australia;10
25386 Fallview Place;2340;NSW;Australia;3
8078 Talisman Trail;4209;QLD;Australia;7
6920 Dwight Circle;4173;QLD;Australia;7
9 Lukken Parkway;2065;NSW;Australia;10
09 Graceland Junction;3204;VIC;Australia;2
155 Basil Junction;2210;NSW;Australia;10
4284 Surrey Circle;2068;NSW;Australia;12
4 Almo Plaza;2085;NSW;Australia;10
91 Porter Pass;3064;VIC;Australia;7
007 Gerald Place;3074;VIC;Australia;4
8788 Armistice Trail;3806;VIC;Australia;8
1693 Artisan Hill;2259;NSW;Australia;6
532 Emmet Way;2260;NSW;Australia;8
3 Sutteridge Park;4074;QLD;Australia;6
25522 Mosinee Point;4215;QLD;Australia;7
421 Bobwhite Road;2160;NSW;Australia;6
41 Ronald Regan Center;3008;VIC;Australia;5
3 Loomis Crossing;2217;NSW;Australia;9
93 Jana Junction;2213;NSW;Australia;10
528 Buell Crossing;2748;NSW;Australia;10
261 Northport Lane;2567;NSW;Australia;7
98 Scott Parkway;2096;NSW;Australia;10
8385 Lien Drive;3192;Victoria;Australia;10
24919 Artisan Court;3015;Victoria;Australia;8
37093 Manitowish Center;2170;NSW;Australia;10
9 Monterey Point;4221;QLD;Australia;10
6 Mariners Cove Center;2233;NSW;Australia;10
572 Gerald Trail;2145;NSW;Australia;7
7 Farmco Trail;2759;NSW;Australia;9
19964 Nancy Drive;3121;Victoria;Australia;8
57 Columbus Road;4870;QLD;Australia;5
455 Hooker Lane;3337;Victoria;Australia;2
0777 Farwell Pass;2118;NSW;Australia;10
23 Glacier Hill Avenue;2259;NSW;Australia;6
8750 Lakewood Gardens Park;2760;NSW;Australia;7
0619 Dorton Plaza;3150;Victoria;Australia;11
3469 Service Road;2770;NSW;Australia;5
9 Dahle Place;2763;NSW;Australia;9
8 Dayton Park;2050;NSW;Australia;9
091 Farragut Crossing;3058;Victoria;Australia;9
70488 Logan Court;2074;NSW;Australia;12
0 Golf Lane;2120;NSW;Australia;11
663 Bellgrove Parkway;3812;Victoria;Australia;8
9907 Morningstar Pass;2147;NSW;Australia;9
29 South Point;3111;Victoria;Australia;9
91 Eagle Crest Circle;2567;NSW;Australia;9
781 Dorton Avenue;3012;Victoria;Australia;10
47 Dwight Road;4217;QLD;Australia;8
6674 Russell Center;2197;NSW;Australia;9
84041 Holy Cross Circle;2142;NSW;Australia;8
340 Northview Circle;2340;NSW;Australia;4
74011 Manufacturers Street;2320;NSW;Australia;6
30991 Macpherson Parkway;2155;NSW;Australia;9
40504 Tennyson Drive;2046;NSW;Australia;9
76369 Ridge Oak Place;3162;Victoria;Australia;9
51188 Annamark Hill;2037;NSW;Australia;9
00976 Sundown Lane;2428;NSW;Australia;3
87 Stone Corner Park;3141;Victoria;Australia;7
9 Westridge Road;3178;Victoria;Australia;9
4671 Buell Trail;3564;Victoria;Australia;2
3743 Melody Avenue;3550;Victoria;Australia;4
8670 Pine View Street;3070;Victoria;Australia;11
31 Twin Pines Trail;3775;Victoria;Australia;10
11731 3rd Hill;3004;Victoria;Australia;9
411 Lien Place;4226;QLD;Australia;10
431 Ilene Center;2026;NSW;Australia;10
4 Pond Parkway;3185;Victoria;Australia;9
61293 Delladonna Way;2015;NSW;Australia;9
6390 Truax Park;3012;Victoria;Australia;9
470 Bunting Center;2447;NSW;Australia;3
02 Boyd Crossing;3143;Victoria;Australia;7
2639 Brown Road;3910;Victoria;Australia;7
0897 Little Fleur Way;3621;Victoria;Australia;8
353 Stuart Trail;4702;QLD;Australia;3
9 Rowland Road;2133;NSW;Australia;10
830 Summit Center;3075;Victoria;Australia;7
4754 Moulton Alley;2069;NSW;Australia;9
808 Debra Center;3911;Victoria;Australia;10
8739 Service Park;2250;NSW;Australia;8
4 Thackeray Pass;2487;NSW;Australia;9
9 Bayside Hill;4123;QLD;Australia;6
20373 Kensington Pass;2151;NSW;Australia;8
7 Hooker Place;2428;NSW;Australia;3
089 Old Shore Point;3156;Victoria;Australia;8
5723 Raven Drive;3126;Victoria;Australia;12
08501 Kropf Trail;3152;Victoria;Australia;10
12845 Paget Lane;2026;NSW;Australia;12
1 Vidon Pass;2233;NSW;Australia;8
590 Hayes Court;2027;NSW;Australia;11
49503 Sachtjen Circle;4208;QLD;Australia;8
2595 Grover Drive;3124;Victoria;Australia;12
3169 Old Gate Point;2211;NSW;Australia;9
90974 Chinook Parkway;2564;NSW;Australia;8
75790 Towne Avenue;4221;QLD;Australia;9
62 Northport Lane;2049;NSW;Australia;10
84 Calypso Circle;3690;Victoria;Australia;5
81848 Amoth Road;3282;Victoria;Australia;2
27230 7th Place;2068;NSW;Australia;12
1 Cordelia Alley;2261;NSW;Australia;8
80 Lakewood Street;2576;NSW;Australia;10
66834 Melby Way;2160;NSW;Australia;9
35796 Buhler Plaza;3108;Victoria;Australia;10
306 Longview Street;2145;NSW;Australia;7
39632 Michigan Park;4165;QLD;Australia;5
1038 Hayes Point;2021;NSW;Australia;7
46 Eastlawn Lane;2218;NSW;Australia;11
12 Monument Alley;3124;Victoria;Australia;12
64700 2nd Alley;2145;NSW;Australia;7
999 Huxley Hill;2190;NSW;Australia;10
311 Emmet Point;4211;QLD;Australia;7
000 Jana Hill;3170;Victoria;Australia;9
7671 Oak Valley Junction;2170;NSW;Australia;9
8304 Derek Park;3130;Victoria;Australia;10
8635 Cody Crossing;2337;NSW;Australia;6
20 Debs Road;2307;NSW;Australia;4
858 Independence Terrace;2121;NSW;Australia;10
142 Cambridge Place;2761;NSW;Australia;8
20198 Hansons Plaza;2340;NSW;Australia;2
04678 Elka Crossing;2745;NSW;Australia;9
5 Farmco Junction;4127;QLD;Australia;7
2 East Circle;2716;NSW;Australia;1
1949 Pepper Wood Pass;3168;Victoria;Australia;6
7901 Park Meadow Plaza;3076;Victoria;Australia;7
58 Maywood Place;2750;NSW;Australia;9
532 Bartillon Circle;2166;NSW;Australia;7
032 Kenwood Circle;2031;NSW;Australia;9
67 8th Terrace;3564;Victoria;Australia;4
06008 Anthes Pass;2478;NSW;Australia;8
956 Mccormick Place;4127;QLD;Australia;2
6 Eggendart Circle;3016;Victoria;Australia;7
1 Service Alley;2116;NSW;Australia;10
62117 Trailsway Place;3356;Victoria;Australia;1
4 Graedel Parkway;2560;NSW;Australia;8
311 Chive Way;4680;QLD;Australia;3
9161 Hoepker Street;4740;QLD;Australia;5
19 Lakewood Gardens Way;2760;NSW;Australia;9
5861 Browning Park;2065;NSW;Australia;8
396 Butternut Point;2230;NSW;Australia;12
04 Hansons Street;2087;NSW;Australia;11
8601 Cardinal Court;4505;QLD;Australia;8
35631 Colorado Crossing;2630;NSW;Australia;2
446 Dottie Court;2225;NSW;Australia;10
37 Ilene Hill;3121;Victoria;Australia;10
909 Browning Crossing;3013;Victoria;Australia;10
8498 Hoepker Circle;3136;Victoria;Australia;8
7 Claremont Court;2111;NSW;Australia;12
64 Hayes Circle;2209;NSW;Australia;11
44 Bunting Parkway;2106;NSW;Australia;10
8 Pawling Alley;3930;Victoria;Australia;8
4 Carioca Way;3182;Victoria;Australia;10
4559 Stoughton Lane;2097;NSW;Australia;10
7046 Surrey Road;2287;NSW;Australia;7
58821 Warbler Crossing;2291;NSW;Australia;9
95 Delladonna Plaza;2283;NSW;Australia;4
8 Sommers Circle;2305;NSW;Australia;7
3 Lunder Place;2300;NSW;Australia;10
93098 Loftsgordon Pass;4179;QLD;Australia;4
61493 Manufacturers Junction;2539;NSW;Australia;9
1192 Declaration Hill;3207;Victoria;Australia;8
62 Cherokee Terrace;2630;NSW;Australia;1
01736 Saint Paul Way;2154;NSW;Australia;11
9816 Carberry Trail;2036;NSW;Australia;11
36912 Gina Pass;2133;NSW;Australia;11
86857 Hoepker Lane;4300;QLD;Australia;8
8435 Arkansas Terrace;2340;NSW;Australia;4
25 Novick Center;2010;NSW;Australia;9
0278 Elka Place;4305;QLD;Australia;4
067 Cottonwood Park;4340;QLD;Australia;2
60010 Knutson Road;3137;Victoria;Australia;7
945 Hayes Park;2075;NSW;Australia;12
86 Huxley Parkway;3068;Victoria;Australia;8
0 Rigney Way;2148;NSW;Australia;8
71 Meadow Ridge Parkway;2539;NSW;Australia;11
506 Iowa Center;4580;QLD;Australia;3
846 Clove Junction;4300;QLD;Australia;5
07 Pepper Wood Way;2750;NSW;Australia;8
425 Thierer Junction;2761;NSW;Australia;8
876 Ridgeview Circle;2566;NSW;Australia;8
00164 Canary Drive;2041;NSW;Australia;11
61 Talmadge Lane;4504;QLD;Australia;6
55 Birchwood Alley;2176;NSW;Australia;9
3785 Dapin Drive;2036;NSW;Australia;6
83 Ryan Hill;4551;QLD;Australia;8
679 Huxley Trail;2087;NSW;Australia;11
2 Hoffman Way;2212;NSW;Australia;9
786 Rowland Court;2035;NSW;Australia;11
375 Drewry Alley;4120;QLD;Australia;9
608 Basil Alley;2306;NSW;Australia;4
9 Schmedeman Hill;4075;QLD;Australia;7
95022 Roth Terrace;3975;Victoria;Australia;7
66897 Pawling Circle;2066;NSW;Australia;9
1 Thackeray Crossing;4114;QLD;Australia;3
363 Schiller Court;2763;NSW;Australia;7
1923 Fisk Lane;4341;QLD;Australia;3
4 Loeprich Avenue;4022;QLD;Australia;3
575 Prentice Road;2168;NSW;Australia;8
8 Melrose Road;4116;QLD;Australia;7
226 Rowland Street;4178;QLD;Australia;7
6 Springs Junction;4123;QLD;Australia;5
4744 Garrison Drive;4132;QLD;Australia;4
64 Nelson Drive;4820;QLD;Australia;1
87 Linden Park;2153;NSW;Australia;10
329 Glacier Hill Alley;3076;Victoria;Australia;8
725 Cordelia Junction;3028;Victoria;Australia;8
32 Cody Place;4035;QLD;Australia;8
04 Namekagon Pass;2326;NSW;Australia;3
165 Petterle Place;2145;NSW;Australia;8
8 Golf Drive;2747;NSW;Australia;9
9427 Tennyson Plaza;2759;NSW;Australia;8
8300 Vermont Center;3429;Victoria;Australia;6
44 Upham Crossing;2148;NSW;Australia;7
18 Forest Avenue;2204;NSW;Australia;9
049 Michigan Parkway;3337;Victoria;Australia;6
831 Hayes Park;4218;QLD;Australia;8
491 Merry Crossing;3011;Victoria;Australia;4
598 Randy Way;2380;NSW;Australia;1
5873 Hagan Park;3015;Victoria;Australia;10
3 Erie Hill;3564;Victoria;Australia;2
678 Old Gate Pass;3171;Victoria;Australia;9
9 Mayfield Road;4551;QLD;Australia;7
41759 Crowley Circle;2560;NSW;Australia;8
9892 Dennis Alley;2565;NSW;Australia;7
58729 Moland Trail;2035;NSW;Australia;12
36360 Coleman Trail;3850;Victoria;Australia;3
67 Aberg Hill;2519;NSW;Australia;4
88 La Follette Way;2166;NSW;Australia;8
2884 Welch Lane;3807;Victoria;Australia;8
60 Meadow Vale Hill;3032;Victoria;Australia;5
9912 Eagle Crest Lane;4800;QLD;Australia;7
355 Thackeray Circle;3025;Victoria;Australia;9
56 Anniversary Avenue;2121;NSW;Australia;12
14 Autumn Leaf Avenue;2570;NSW;Australia;10
30274 Graedel Way;2577;NSW;Australia;7
74013 Mesta Terrace;3084;Victoria;Australia;9
15 Lindbergh Center;2199;NSW;Australia;9
3 Corscot Hill;4870;QLD;Australia;5
77006 Nelson Point;4171;QLD;Australia;10
25 Mesta Plaza;3975;Victoria;Australia;8
1349 Namekagon Crossing;2134;NSW;Australia;12
186 Shasta Avenue;2066;NSW;Australia;9
48 Warbler Road;4053;QLD;Australia;7
756 Farragut Place;4740;QLD;Australia;2
197 Mifflin Hill;2260;NSW;Australia;10
618 Independence Pass;2800;NSW;Australia;1
2836 Morning Drive;2304;NSW;Australia;7
8 Lawn Hill;3752;Victoria;Australia;7
99 Cascade Crossing;2048;NSW;Australia;12
4 Sunfield Circle;2194;NSW;Australia;8
5 Lyons Alley;2216;NSW;Australia;10
96910 Sugar Point;4352;QLD;Australia;7
558 Maple Court;2557;NSW;Australia;9
9114 Union Center;2209;NSW;Australia;7
76 Hanson Junction;2147;NSW;Australia;9
3 Sheridan Park;2548;NSW;Australia;8
40545 Forster Point;2262;NSW;Australia;7
8425 Jackson Terrace;2763;NSW;Australia;9
39035 Westerfield Plaza;2463;NSW;Australia;4
8234 Riverside Park;2481;NSW;Australia;9
4535 Daystar Parkway;2072;NSW;Australia;12
95 Fallview Avenue;3155;Victoria;Australia;8
75826 Bellgrove Trail;3095;Victoria;Australia;10
64080 Susan Park;4207;QLD;Australia;7
8179 Veith Pass;2577;NSW;Australia;7
5 Maple Parkway;2160;NSW;Australia;9
0 Carey Drive;4110;QLD;Australia;4
1 Moose Avenue;2017;NSW;Australia;8
02 Bartelt Center;2745;NSW;Australia;8
0650 Sachs Circle;2769;NSW;Australia;10
16420 Veith Crossing;4214;QLD;Australia;7
81310 Charing Cross Plaza;3805;Victoria;Australia;7
37430 Merrick Center;2770;NSW;Australia;6
6046 Sheridan Way;2322;NSW;Australia;3
537 Packers Street;4562;QLD;Australia;5
6 Briar Crest Court;2117;NSW;Australia;12
4 Lillian Plaza;2283;NSW;Australia;6
70836 Colorado Plaza;2571;NSW;Australia;11
15 Emmet Street;2233;NSW;Australia;10
8 Dottie Court;3480;Victoria;Australia;1
520 Stephen Pass;3011;Victoria;Australia;9
18939 Upham Hill;3551;Victoria;Australia;3
4222 Porter Lane;3136;Victoria;Australia;9
1721 Nobel Junction;2753;NSW;Australia;8
30550 Pierstorff Lane;3093;Victoria;Australia;7
6 Morning Drive;2232;NSW;Australia;9
646 Mariners Cove Place;3023;Victoria;Australia;6
51 Londonderry Trail;2153;NSW;Australia;10
4086 Darwin Terrace;2176;NSW;Australia;9
4033 Hermina Road;2304;NSW;Australia;7
37 Banding Avenue;2567;NSW;Australia;9
8080 Victoria Plaza;4217;QLD;Australia;11
14254 Hallows Parkway;4615;QLD;Australia;1
78 Glacier Hill Drive;2026;NSW;Australia;10
6 Fulton Road;3174;Victoria;Australia;8
76 Londonderry Park;2777;NSW;Australia;9
68861 School Hill;2199;NSW;Australia;9
09 Bartelt Lane;2190;NSW;Australia;8
29639 Porter Center;4221;QLD;Australia;8
5811 Moulton Drive;2766;NSW;Australia;8
80027 Ryan Terrace;3551;Victoria;Australia;3
8 Kingsford Hill;3429;Victoria;Australia;6
8044 Emmet Hill;3150;Victoria;Australia;9
2249 Havey Hill;3183;Victoria;Australia;10
1855 Stang Terrace;2145;NSW;Australia;9
2 Riverside Trail;2154;NSW;Australia;11
98 Esker Junction;2192;NSW;Australia;10
9984 Pankratz Road;2145;NSW;Australia;10
324 Mifflin Road;2290;NSW;Australia;7
2726 Cardinal Way;3073;Victoria;Australia;5
3 Talisman Place;4811;QLD;Australia;2
282 West Trail;4005;QLD;Australia;5
08260 Jay Court;3191;Victoria;Australia;11
12 6th Hill;4810;QLD;Australia;2
0297 Merchant Avenue;4121;QLD;Australia;9
1 Monica Street;2100;NSW;Australia;9
0272 Pankratz Hill;2031;NSW;Australia;10
2 North Crossing;3111;Victoria;Australia;11
345 Dovetail Avenue;4305;QLD;Australia;5
2826 Huxley Center;3137;Victoria;Australia;8
61043 Summer Ridge Junction;2229;NSW;Australia;11
56045 Express Avenue;2176;NSW;Australia;9
760 Forest Dale Place;3068;Victoria;Australia;12
99 Wayridge Place;2263;NSW;Australia;8
5 Dahle Trail;2117;NSW;Australia;10
62215 Delaware Plaza;4118;QLD;Australia;3
37 Dorton Street;2594;NSW;Australia;3
00 Evergreen Center;3850;VIC;Australia;4
80 Maple Avenue;2536;NSW;Australia;4
43 Jana Way;3750;VIC;Australia;7
195 Knutson Place;4019;QLD;Australia;8
9 Melby Park;2197;NSW;Australia;10
4 Vahlen Junction;2227;NSW;Australia;10
6330 Monica Way;2540;NSW;Australia;9
7101 Gulseth Hill;2293;NSW;Australia;9
983 2nd Road;2560;NSW;Australia;8
08 Vidon Center;2143;NSW;Australia;5
36 Helena Drive;4305;QLD;Australia;1
20554 Orin Place;3630;VIC;Australia;1
3903 Messerschmidt Park;2164;NSW;Australia;8
64 Muir Lane;2148;NSW;Australia;8
06495 Swallow Terrace;2759;NSW;Australia;9
033 Loftsgordon Center;2150;NSW;Australia;8
80 Scofield Alley;3121;VIC;Australia;10
64 Milwaukee Pass;4350;QLD;Australia;4
50851 Vahlen Avenue;2567;NSW;Australia;7
88 Bay Drive;4305;QLD;Australia;3
0 Thompson Road;3183;VIC;Australia;8
99 Elka Street;4350;QLD;Australia;4
2699 Crest Line Way;4869;QLD;Australia;4
6 Melody Trail;2145;NSW;Australia;9
90 New Castle Trail;2137;NSW;Australia;9
2570 Wayridge Park;2093;NSW;Australia;9
70 Old Gate Street;2354;NSW;Australia;3
3 Magdeline Terrace;2190;NSW;Australia;10
36744 Birchwood Center;4019;QLD;Australia;3
68 Chinook Street;4814;QLD;Australia;2
0 Valley Edge Plaza;3201;VIC;Australia;6
8 Starling Trail;2282;NSW;Australia;8
3 Crest Line Plaza;2223;NSW;Australia;10
0601 Stephen Place;2292;NSW;Australia;7
00 Mockingbird Junction;2141;NSW;Australia;9
37817 Burning Wood Circle;2126;NSW;Australia;11
02353 Kropf Lane;3046;VIC;Australia;9
79 Arkansas Drive;3008;VIC;Australia;10
4085 Jackson Hill;2830;NSW;Australia;7
57 Gulseth Terrace;2099;NSW;Australia;10
52737 Morningstar Crossing;2250;NSW;Australia;3
866 Rockefeller Junction;2171;NSW;Australia;9
414 Kensington Lane;3076;VIC;Australia;8
81 Holy Cross Alley;2077;NSW;Australia;8
1 Loomis Parkway;3156;VIC;Australia;9
572 Brown Circle;2756;NSW;Australia;8
92344 Oakridge Drive;4873;QLD;Australia;4
1626 Dawn Street;4514;QLD;Australia;3
845 Talisman Pass;4210;QLD;Australia;7
1899 Manley Court;4551;QLD;Australia;7
15067 Commercial Pass;4006;QLD;Australia;7
80932 5th Street;2754;NSW;Australia;8
018 Erie Point;2767;NSW;Australia;9
40402 Moulton Park;2282;NSW;Australia;8
246 Norway Maple Trail;3810;VIC;Australia;2
2 Autumn Leaf Plaza;2137;NSW;Australia;8
808 Starling Place;2173;NSW;Australia;9
5409 Mandrake Circle;2152;NSW;Australia;10
786 Bonner Drive;2340;NSW;Australia;4
7175 Orin Junction;2088;NSW;Australia;12
8208 Lotheville Street;3805;VIC;Australia;8
25689 Eastlawn Crossing;2067;NSW;Australia;11
44 Lakewood Gardens Pass;2122;NSW;Australia;10
87 Twin Pines Plaza;3976;VIC;Australia;5
65 Sachtjen Park;2067;NSW;Australia;11
84 Loomis Pass;2000;NSW;Australia;12
58047 Westport Road;2040;NSW;Australia;12
59000 American Center;2530;NSW;Australia;8
659 Scofield Street;3175;VIC;Australia;5
388 Weeping Birch Plaza;2156;NSW;Australia;11
09413 Holmberg Terrace;4127;QLD;Australia;3
8640 Village Junction;2066;NSW;Australia;12
177 Sheridan Trail;2759;NSW;Australia;8
1 Oriole Alley;4171;QLD;Australia;11
8925 Ryan Trail;2073;NSW;Australia;11
77 Nova Junction;3218;VIC;Australia;8
43 Esker Pass;2228;NSW;Australia;8
205 Melody Circle;4207;QLD;Australia;4
44997 Anniversary Way;4114;QLD;Australia;3
4444 Bunting Point;2430;NSW;Australia;7
3 Washington Plaza;3199;VIC;Australia;7
285 Aberg Point;2192;NSW;Australia;10
4 Sachtjen Avenue;4210;QLD;Australia;10
055 Dakota Pass;2290;NSW;Australia;8
6 Green Ridge Circle;4350;QLD;Australia;3
6841 Dawn Drive;2880;NSW;Australia;1
74251 Golden Leaf Lane;4413;QLD;Australia;3
2 Dwight Street;3187;VIC;Australia;11
511 Gulseth Plaza;3028;VIC;Australia;6
71801 Grover Point;2166;NSW;Australia;10
69 Hovde Plaza;2680;NSW;Australia;5
3387 Warrior Court;2527;NSW;Australia;7
7837 Derek Street;2147;NSW;Australia;9
00 Algoma Crossing;2141;NSW;Australia;7
341 Londonderry Point;4215;QLD;Australia;7
2661 Di Loreto Point;4701;QLD;Australia;7
036 Kedzie Terrace;2163;NSW;Australia;9
615 Spenser Drive;4220;QLD;Australia;10
641 Waywood Lane;2336;NSW;Australia;7
49 Buhler Plaza;2650;NSW;Australia;2
56 Graceland Alley;3031;VIC;Australia;7
3 Magdeline Way;4415;QLD;Australia;2
94 Anhalt Way;3139;VIC;Australia;7
18 Parkside Plaza;4122;QLD;Australia;4
681 Transport Pass;4055;QLD;Australia;7
6 Harper Lane;2150;NSW;Australia;10
59041 Independence Point;4020;QLD;Australia;9
55 Hovde Parkway;3975;VIC;Australia;8
36903 Reinke Trail;3147;VIC;Australia;10
938 Nova Junction;3623;VIC;Australia;1
48 Bobwhite Crossing;4122;QLD;Australia;8
7391 Ruskin Parkway;4356;QLD;Australia;5
677 Butternut Crossing;2216;NSW;Australia;7
8360 Washington Avenue;3124;VIC;Australia;12
519 Maywood Pass;2768;NSW;Australia;10
6712 Nova Crossing;2065;NSW;Australia;10
383 Rockefeller Junction;2753;NSW;Australia;9
71039 Packers Street;2034;NSW;Australia;10
5 Hauk Lane;2650;NSW;Australia;3
02377 Maywood Trail;2287;NSW;Australia;7
2 School Street;2010;NSW;Australia;10
9254 Straubel Street;3034;VIC;Australia;9
3 Glacier Hill Parkway;2196;NSW;Australia;10
029 Springview Place;2177;NSW;Australia;8
1 Springview Place;4800;QLD;Australia;5
60 Meadow Valley Avenue;2219;NSW;Australia;10
42 Thompson Hill;2234;NSW;Australia;10
2 Pankratz Street;4812;QLD;Australia;5
65345 Marcy Crossing;2065;NSW;Australia;12
77 Pawling Pass;2537;NSW;Australia;3
06419 Dayton Junction;3191;VIC;Australia;10
5 Hauk Way;4870;QLD;Australia;8
923 Westerfield Junction;2065;NSW;Australia;10
707 Spaight Place;2830;NSW;Australia;4
89 Monument Place;4720;QLD;Australia;1
583 Coleman Parkway;4213;QLD;Australia;9
376 Buena Vista Street;2026;NSW;Australia;11
91457 Anderson Avenue;3124;VIC;Australia;12
39 Ronald Regan Alley;3765;VIC;Australia;8
1 5th Parkway;2148;NSW;Australia;8
7 Meadow Ridge Center;2165;NSW;Australia;9
41821 Sheridan Center;2756;NSW;Australia;9
7 Reindahl Center;2767;NSW;Australia;8
6382 Bayside Street;2153;NSW;Australia;10
850 Manitowish Avenue;2148;NSW;Australia;8
88 Comanche Point;2486;NSW;Australia;7
13845 Hayes Center;3228;VIC;Australia;8
88022 South Road;4511;QLD;Australia;5
9 Northridge Lane;2340;NSW;Australia;3
95530 Hallows Circle;4110;QLD;Australia;5
97 Karstens Place;4226;QLD;Australia;7
237 Summit Pass;4506;QLD;Australia;3
1 Cottonwood Street;3150;VIC;Australia;9
8642 Forest Run Avenue;2026;NSW;Australia;9
352 Bonner Crossing;3084;VIC;Australia;8
52726 High Crossing Junction;3802;VIC;Australia;7
60086 Summit Lane;2116;NSW;Australia;10
5 Farmco Way;2747;NSW;Australia;8
33 Kropf Hill;2211;NSW;Australia;10
2 Derek Pass;2222;NSW;Australia;7
87140 Mandrake Lane;3124;VIC;Australia;8
69278 High Crossing Place;2795;NSW;Australia;5
42 Cordelia Park;2567;NSW;Australia;8
50 2nd Center;3188;VIC;Australia;9
8 Colorado Circle;3730;VIC;Australia;4
55 Daystar Court;2234;NSW;Australia;10
21 Dwight Crossing;2062;NSW;Australia;10
3828 Norway Maple Avenue;2027;NSW;Australia;11
3044 Summer Ridge Center;3060;VIC;Australia;8
43455 Carey Center;4131;QLD;Australia;4
57953 Drewry Street;2518;NSW;Australia;10
3 Luster Junction;2323;NSW;Australia;4
9987 Stuart Alley;2766;NSW;Australia;8
2309 Gulseth Way;3199;VIC;Australia;8
730 Dixon Place;3158;VIC;Australia;8
10421 Cordelia Parkway;3188;VIC;Australia;12
35454 Welch Hill;2477;NSW;Australia;6
3403 Spenser Terrace;3143;VIC;Australia;8
06 Oneill Parkway;2770;NSW;Australia;7
243 Ridge Oak Center;2195;NSW;Australia;9
4 Eastlawn Crossing;2036;NSW;Australia;12
33 Farwell Crossing;2575;NSW;Australia;10
5 Reindahl Point;3400;VIC;Australia;2
8882 Valley Edge Junction;2145;NSW;Australia;8
633 Cordelia Alley;3037;VIC;Australia;7
32 Dennis Hill;2233;NSW;Australia;9
54905 Anniversary Pass;4570;QLD;Australia;2
5 Gale Street;4507;QLD;Australia;8
5413 Burning Wood Plaza;4220;QLD;Australia;8
6183 Morrow Court;2113;NSW;Australia;11
9 Colorado Trail;3799;VIC;Australia;3
627 Ronald Regan Alley;4505;QLD;Australia;6
93446 Eagle Crest Plaza;2229;NSW;Australia;10
9 Clyde Gallagher Plaza;3021;VIC;Australia;7
56709 Petterle Street;2443;NSW;Australia;6
221 Coolidge Parkway;2010;NSW;Australia;9
33564 Jana Court;4218;QLD;Australia;5
7 Starling Crossing;2570;NSW;Australia;9
283 Ryan Street;3752;VIC;Australia;7
97 Aberg Pass;4720;QLD;Australia;1
0 Menomonie Avenue;3177;VIC;Australia;6
20 Carpenter Parkway;2192;NSW;Australia;9
14796 Ramsey Street;2069;NSW;Australia;12
1346 Forest Dale Point;3111;VIC;Australia;10
217 Meadow Vale Point;2023;NSW;Australia;12
341 Saint Paul Lane;2033;NSW;Australia;9
7823 Village Green Park;3030;VIC;Australia;8
382 Dayton Lane;2148;NSW;Australia;8
4 Kennedy Trail;3147;VIC;Australia;8
4364 Gale Park;2196;NSW;Australia;10
2379 Dorton Pass;2089;NSW;Australia;12
5 Hintze Hill;2641;NSW;Australia;1
58 High Crossing Place;4212;QLD;Australia;10
1 Ridgeway Court;3241;VIC;Australia;5
00 Park Meadow Terrace;2450;NSW;Australia;6
29419 Harper Circle;4209;QLD;Australia;5
1601 Judy Drive;2026;NSW;Australia;10
7628 Larry Trail;3428;VIC;Australia;7
004 Lawn Trail;4227;QLD;Australia;5
42 Dahle Parkway;3806;VIC;Australia;7
1472 Meadow Vale Lane;4034;QLD;Australia;7
95 Old Gate Junction;2760;NSW;Australia;8
55 Fairfield Court;3175;VIC;Australia;8
92 Bunker Hill Trail;2558;NSW;Australia;7
1 Boyd Junction;2460;NSW;Australia;1
938 Monica Park;3173;VIC;Australia;9
26204 Monument Alley;2289;NSW;Australia;8
36 Grayhawk Plaza;2031;NSW;Australia;9
8276 Hudson Trail;2250;NSW;Australia;6
3638 Starling Alley;2027;NSW;Australia;11
7380 Canary Pass;3111;VIC;Australia;7
9 Debs Trail;4500;QLD;Australia;4
82 Shasta Drive;4825;QLD;Australia;3
9 Goodland Center;4213;QLD;Australia;9
4 Amoth Trail;4161;QLD;Australia;6
730 Butternut Trail;4018;QLD;Australia;4
21780 Service Park;2560;NSW;Australia;7
00745 Huxley Center;3757;VIC;Australia;9
45 Hazelcrest Junction;3073;VIC;Australia;9
84019 Porter Trail;2871;NSW;Australia;3
64211 Laurel Alley;3141;VIC;Australia;10
31369 Meadow Valley Road;4034;QLD;Australia;5
8298 Texas Alley;2194;NSW;Australia;10
1 Continental Center;2146;NSW;Australia;9
0465 Melrose Alley;2768;NSW;Australia;9
5357 Mcguire Plaza;3073;VIC;Australia;9
4757 Texas Trail;3136;VIC;Australia;9
27 Sunfield Center;4869;QLD;Australia;3
656 Bartelt Parkway;3127;VIC;Australia;12
610 Lakewood Gardens Point;4078;QLD;Australia;7
61 Lukken Plaza;3182;VIC;Australia;6
67 Holmberg Way;2165;NSW;Australia;9
3383 Fair Oaks Circle;3046;VIC;Australia;8
2 Vermont Avenue;2066;NSW;Australia;12
486 Atwood Pass;2065;NSW;Australia;12
05 Loftsgordon Pass;4380;QLD;Australia;9
570 Butternut Pass;2340;NSW;Australia;4
63 Grayhawk Pass;2769;NSW;Australia;9
44594 5th Street;4220;QLD;Australia;9
495 Elmside Drive;2179;NSW;Australia;8
9 Macpherson Avenue;2527;NSW;Australia;8
738 Division Street;3024;VIC;Australia;8
5 Sheridan Circle;3934;VIC;Australia;11
42 Lunder Drive;2027;NSW;Australia;11
3 Hayes Court;3109;VIC;Australia;10
711 Sachtjen Point;2540;NSW;Australia;8
16395 Nevada Lane;2145;NSW;Australia;10
0996 Cody Terrace;2761;NSW;Australia;8
80424 Corben Alley;2136;NSW;Australia;10
37208 Golf View Terrace;2145;NSW;Australia;8
1128 Golden Leaf Center;3124;VIC;Australia;9
4885 Stone Corner Alley;3046;VIC;Australia;8
66 Hudson Crossing;2153;NSW;Australia;10
5287 Wayridge Alley;2069;NSW;Australia;12
15393 Cody Lane;2046;NSW;Australia;9
1 Mcbride Center;2484;NSW;Australia;6
4870 Shelley Alley;3225;VIC;Australia;7
65634 Del Mar Crossing;4053;QLD;Australia;7
8572 Melvin Drive;3145;VIC;Australia;11
5549 Bay Point;4068;QLD;Australia;9
9 Forest Circle;2324;NSW;Australia;3
6 Kedzie Hill;2214;NSW;Australia;9
60601 Hoffman Court;2041;NSW;Australia;12
1715 Scoville Drive;2031;NSW;Australia;11
85 Laurel Trail;3809;VIC;Australia;6
3082 Almo Center;2454;NSW;Australia;4
27135 Melvin Plaza;4556;QLD;Australia;8
40 Kinsman Pass;2065;NSW;Australia;10
094 Green Road;2216;NSW;Australia;11
91 Spohn Plaza;4573;QLD;Australia;7
5 Jana Drive;4570;QLD;Australia;1
201 Pepper Wood Avenue;2154;NSW;Australia;11
4408 Haas Way;2171;NSW;Australia;9
6 Pawling Trail;2871;NSW;Australia;7
31111 Hoepker Road;3034;VIC;Australia;9
79 Lighthouse Bay Lane;3082;VIC;Australia;8
2354 Forster Road;2131;NSW;Australia;11
5271 Vernon Court;3207;VIC;Australia;10
06 Declaration Hill;3184;VIC;Australia;11
07716 5th Alley;2250;NSW;Australia;5
10 Pennsylvania Hill;2118;NSW;Australia;11
2330 Huxley Crossing;2570;NSW;Australia;10
5811 Hanson Lane;2260;NSW;Australia;7
7 Main Crossing;2065;NSW;Australia;12
682 Spenser Plaza;3977;VIC;Australia;6
1149 Riverside Parkway;2016;NSW;Australia;11
1176 Pine View Lane;2112;NSW;Australia;11
22 Sachtjen Avenue;2137;NSW;Australia;12
6 Pankratz Crossing;2228;NSW;Australia;11
6988 Acker Crossing;2217;NSW;Australia;10
9993 Mccormick Street;2223;NSW;Australia;8
7 Holmberg Circle;2018;NSW;Australia;9
7 Village Green Circle;3109;VIC;Australia;10
4044 Tennessee Parkway;2315;NSW;Australia;9
4297 Emmet Lane;2170;NSW;Australia;8
6 Sycamore Drive;4053;QLD;Australia;7
6 Barby Road;4300;QLD;Australia;4
37495 Summerview Park;2619;NSW;Australia;7
3 Center Crossing;2452;NSW;Australia;3
19386 Burrows Way;2229;NSW;Australia;10
4 Quincy Trail;2800;NSW;Australia;3
69881 Westport Parkway;2880;NSW;Australia;1
44 Ramsey Road;2515;NSW;Australia;9
12764 Raven Plaza;4020;QLD;Australia;7
356 Petterle Way;2193;NSW;Australia;9
2827 Fallview Lane;2064;NSW;Australia;9
7 Del Sol Road;4220;QLD;Australia;9
05415 Basil Junction;2450;NSW;Australia;8
09 Warbler Court;4152;QLD;Australia;9
847 David Hill;4035;QLD;Australia;8
24596 Hoepker Avenue;2322;NSW;Australia;4
75 Mesta Hill;4509;QLD;Australia;7
7258 Mandrake Terrace;3138;VIC;Australia;9
84741 Scoville Terrace;3029;VIC;Australia;5
04328 Rowland Plaza;3441;VIC;Australia;9
332 Maywood Crossing;3136;VIC;Australia;9
6026 Graceland Crossing;2121;NSW;Australia;11
0 Fremont Court;3023;VIC;Australia;7
5515 Artisan Center;3337;VIC;Australia;3
0 Nevada Pass;2216;NSW;Australia;10
06 Heffernan Junction;4074;QLD;Australia;7
04 Onsgard Center;2101;NSW;Australia;9
37 Division Way;2153;NSW;Australia;9
9623 Fisk Plaza;2164;NSW;Australia;8
9419 Homewood Way;2160;NSW;Australia;9
26349 Spaight Junction;2756;NSW;Australia;8
1063 Forest Avenue;4510;QLD;Australia;3
548 Dahle Lane;2075;NSW;Australia;11
4 Barby Road;2647;NSW;Australia;3
258 Luster Court;2154;NSW;Australia;10
22669 Lien Center;2565;NSW;Australia;6
9 Autumn Leaf Court;2731;NSW;Australia;4
9 Superior Plaza;3185;VIC;Australia;11
86603 Dexter Road;2164;NSW;Australia;9
8 Ridgeview Park;2323;NSW;Australia;5
4754 Ramsey Junction;3130;VIC;Australia;9
9 Dayton Alley;3757;VIC;Australia;7
08 Carey Center;3284;VIC;Australia;6
915 Thackeray Junction;2204;NSW;Australia;11
515 3rd Road;2037;NSW;Australia;12
184 Roth Pass;4211;QLD;Australia;7
84 Porter Alley;2153;NSW;Australia;10
79494 Ruskin Circle;2527;NSW;Australia;9
98 Schiller Junction;2747;NSW;Australia;9
20519 Katie Circle;2152;NSW;Australia;8
2273 Oneill Place;2118;NSW;Australia;11
03 6th Alley;2168;NSW;Australia;9
8548 Hanover Park;2067;NSW;Australia;11
4079 Lindbergh Center;3021;VIC;Australia;8
338 Grasskamp Lane;2573;NSW;Australia;7
0355 3rd Drive;2118;NSW;Australia;11
0182 Esker Center;2759;NSW;Australia;9
48 Sheridan Road;3185;VIC;Australia;11
1879 Mitchell Center;2206;NSW;Australia;10
81114 7th Place;4869;QLD;Australia;4
1 Nevada Park;4226;QLD;Australia;8
6 Buell Point;2062;NSW;Australia;12
4284 Debra Drive;4814;QLD;Australia;3
8 Hansons Street;3076;VIC;Australia;7
7674 Roxbury Junction;4815;QLD;Australia;4
771 Sugar Way;2076;NSW;Australia;11
1792 Judy Road;2539;NSW;Australia;6
92 Melvin Hill;2147;NSW;Australia;9
592 Merry Lane;3184;VIC;Australia;3
6 Dapin Park;4503;QLD;Australia;6
03 Holmberg Park;4127;QLD;Australia;2
8587 Graceland Way;2206;NSW;Australia;10
91 Messerschmidt Trail;3162;VIC;Australia;11
5998 Bayside Terrace;2526;NSW;Australia;9
107 Moland Court;2579;NSW;Australia;5
4439 7th Terrace;2177;NSW;Australia;9
2272 Dennis Alley;3165;VIC;Australia;10
0 Scofield Plaza;3201;VIC;Australia;4
51152 Brickson Park Crossing;2768;NSW;Australia;9
4668 Coleman Street;2160;NSW;Australia;5
8 Moland Junction;2148;NSW;Australia;7
1 Raven Junction;4502;QLD;Australia;4
40570 Acker Alley;2166;NSW;Australia;9
893 Petterle Trail;4551;QLD;Australia;10
84 Monument Terrace;4127;QLD;Australia;4
0103 Bay Junction;2222;NSW;Australia;11
9618 Havey Place;2710;NSW;Australia;1
098 Veith Hill;4510;QLD;Australia;3
03058 Shoshone Lane;2090;NSW;Australia;12
7975 Browning Plaza;3038;VIC;Australia;4
154 Cambridge Point;3551;VIC;Australia;8
3 Sachs Point;2250;NSW;Australia;7
0386 Mayfield Way;4122;QLD;Australia;7
24 Merchant Plaza;3031;VIC;Australia;10
353 Oneill Park;3145;VIC;Australia;9
92867 Lukken Lane;3142;VIC;Australia;9
11 Corscot Plaza;2710;NSW;Australia;1
13 Buhler Plaza;2576;NSW;Australia;8
72673 Mayfield Trail;4209;QLD;Australia;6
42739 Moose Pass;3442;VIC;Australia;8
3 Atwood Lane;2153;NSW;Australia;10
378 Prentice Point;4064;QLD;Australia;9
95 Forest Run Drive;4152;QLD;Australia;8
20 Main Road;2230;NSW;Australia;9
71 Cherokee Hill;2127;NSW;Australia;7
698 Summer Ridge Way;2529;NSW;Australia;7
79 Grasskamp Center;2170;NSW;Australia;9
6541 Dahle Junction;2212;NSW;Australia;9
858 Swallow Parkway;2150;NSW;Australia;8
0005 Independence Drive;2118;NSW;Australia;9
525 Kedzie Street;4012;QLD;Australia;8
03890 Logan Court;2747;NSW;Australia;8
8 Clyde Gallagher Court;4217;QLD;Australia;8
62 Elka Terrace;2430;NSW;Australia;3
85931 Johnson Alley;3039;VIC;Australia;6
63588 Clove Court;2017;NSW;Australia;9
86 Stang Way;2213;NSW;Australia;10
84 Westridge Hill;2061;NSW;Australia;10
53740 Vera Parkway;3644;VIC;Australia;1
2 Ramsey Parkway;2104;NSW;Australia;11
651 Mesta Drive;3173;VIC;Australia;9
1 Merrick Parkway;2830;NSW;Australia;2
135 Crest Line Drive;2044;NSW;Australia;10
63576 Anzinger Trail;2168;NSW;Australia;9
05 Charing Cross Plaza;2320;NSW;Australia;5
261 Farmco Drive;4118;QLD;Australia;4
0 Northport Hill;3043;VIC;Australia;8
894 Maple Wood Drive;2251;NSW;Australia;10
05 Daystar Lane;2560;NSW;Australia;8
81167 Division Hill;2873;NSW;Australia;1
761 Bellgrove Lane;2541;NSW;Australia;7
614 Shopko Trail;4350;QLD;Australia;3
1911 Waxwing Point;2761;NSW;Australia;9
0 Kedzie Junction;2155;NSW;Australia;10
0108 Forster Parkway;4017;QLD;Australia;6
466 Briar Crest Junction;2222;NSW;Australia;10
6072 Ridge Oak Junction;2222;NSW;Australia;10
31445 Morningstar Drive;3429;VIC;Australia;5
22619 Schurz Street;2321;NSW;Australia;4
61 Kim Avenue;2079;NSW;Australia;10
12103 Merchant Circle;3072;VIC;Australia;9
3 Porter Center;2230;NSW;Australia;9
7 Luster Trail;2007;NSW;Australia;8
7 Dahle Avenue;2620;NSW;Australia;9
7 Magdeline Trail;3034;VIC;Australia;10
275 Lindbergh Parkway;2086;NSW;Australia;11
592 Tennessee Alley;2231;NSW;Australia;10
0 American Ash Parkway;3175;VIC;Australia;7
387 Pawling Drive;2580;NSW;Australia;4
0 Evergreen Road;3037;VIC;Australia;7
51529 Cascade Place;3550;VIC;Australia;4
457 Ryan Road;3218;VIC;Australia;7
94219 Buell Circle;2020;NSW;Australia;9
267 Lukken Park;3930;VIC;Australia;9
54 Harbort Road;2480;NSW;Australia;7
81 American Place;2259;NSW;Australia;6
2388 Thackeray Place;3130;VIC;Australia;10
85957 Basil Way;3029;VIC;Australia;7
01 Cottonwood Junction;2285;NSW;Australia;7
37 Sutherland Terrace;2830;NSW;Australia;4
7929 Grasskamp Trail;2119;NSW;Australia;11
4 Hoard Pass;2153;NSW;Australia;9
2 Dunning Alley;2120;NSW;Australia;10
61949 7th Road;4573;QLD;Australia;8
26 Lotheville Court;2085;NSW;Australia;11
3765 Mandrake Alley;2763;NSW;Australia;9
67348 Lakewood Gardens Road;2852;NSW;Australia;2
014 Birchwood Parkway;3030;VIC;Australia;7
17357 Katie Center;3677;VIC;Australia;4
5772 Kennedy Junction;3030;VIC;Australia;5
560 Melody Alley;4122;QLD;Australia;7
92 Waubesa Center;2760;NSW;Australia;8
359 Kropf Point;2750;NSW;Australia;9
75 Scott Place;3806;VIC;Australia;7
2 Eliot Lane;2155;NSW;Australia;11
3466 Truax Terrace;2127;NSW;Australia;8
9 7th Terrace;2155;NSW;Australia;10
65209 Merrick Avenue;4873;QLD;Australia;2
90351 Duke Junction;4820;QLD;Australia;1
47 Glacier Hill Junction;4873;QLD;Australia;2
7978 Carberry Way;4817;QLD;Australia;2
795 Arapahoe Hill;4818;QLD;Australia;7
6 Lerdahl Plaza;4519;QLD;Australia;6
60320 Emmet Road;4806;QLD;Australia;4
11 Golf Pass;4805;QLD;Australia;2
563 Northport Drive;4701;QLD;Australia;1
8 Eggendart Court;2478;NSW;Australia;9
91336 Spenser Street;4560;QLD;Australia;6
33 Rockefeller Avenue;4740;QLD;Australia;2
71 Sundown Circle;4720;QLD;Australia;1
33 Bayside Way;4702;QLD;Australia;1
23 Hollow Ridge Avenue;4702;QLD;Australia;2
16623 Mariners Cove Plaza;4127;QLD;Australia;2
884 Shoshone Lane;4670;QLD;Australia;3
12 Prentice Point;4670;QLD;Australia;1
7008 Warner Park;4670;QLD;Australia;2
51673 Heffernan Park;4655;QLD;Australia;3
32 Meadow Ridge Alley;4610;QLD;Australia;1
37 Clarendon Lane;4655;QLD;Australia;3
7 Onsgard Court;4551;QLD;Australia;9
543 Victoria Park;4702;QLD;Australia;6
640 Toban Hill;4702;QLD;Australia;6
93 Corben Crossing;4506;QLD;Australia;4
26 Portage Junction;4503;QLD;Australia;5
7928 Mendota Circle;4503;QLD;Australia;2
1075 Raven Place;4512;QLD;Australia;7
0 Summerview Pass;4511;QLD;Australia;2
7310 Shopko Trail;4500;QLD;Australia;8
6659 Kenwood Plaza;4380;QLD;Australia;1
41 Knutson Alley;4370;QLD;Australia;4
67396 Roxbury Court;4817;QLD;Australia;3
55 Hauk Court;4350;QLD;Australia;7
131 Tony Road;4213;QLD;Australia;8
791 Elgar Trail;4340;QLD;Australia;5
617 Welch Street;4122;QLD;Australia;7
1 Namekagon Plaza;4306;QLD;Australia;8
3 Blaine Road;4306;QLD;Australia;6
77 Pankratz Plaza;4306;QLD;Australia;8
4081 Veith Lane;4306;QLD;Australia;4
55 Elgar Park;4306;QLD;Australia;7
9821 Fair Oaks Trail;4306;QLD;Australia;1
19679 Buell Pass;4305;QLD;Australia;5
8 Kinsman Alley;4304;QLD;Australia;2
9989 Toban Way;4301;QLD;Australia;3
378 Butterfield Pass;4300;QLD;Australia;6
7 Schurz Parkway;4212;QLD;Australia;7
07780 Autumn Leaf Drive;4209;QLD;Australia;7
87 Reinke Drive;4211;QLD;Australia;6
3 Gina Center;4210;QLD;Australia;7
029 Scott Center;4205;QLD;Australia;5
36072 Lakewood Gardens Court;4051;QLD;Australia;8
408 Grover Place;4165;QLD;Australia;9
392 Ridge Oak Road;4165;QLD;Australia;7
9 Sugar Junction;4053;QLD;Australia;7
0917 Golf View Parkway;4217;QLD;Australia;1
16039 Warrior Parkway;4130;QLD;Australia;7
3 School Place;4124;QLD;Australia;4
9120 Corry Avenue;4208;QLD;Australia;7
2 Shoshone Way;4123;QLD;Australia;6
32 Vidon Point;4118;QLD;Australia;7
515 Bunting Point;4115;QLD;Australia;8
67727 Westerfield Hill;4164;QLD;Australia;9
0 Moland Parkway;4127;QLD;Australia;7
764 Dahle Alley;4115;QLD;Australia;8
72 Shasta Plaza;4152;QLD;Australia;4
210 Esch Park;2452;NSW;Australia;8
55326 Fulton Hill;3931;VIC;Australia;10
482 Bartelt Junction;4280;QLD;Australia;7
58563 Monterey Hill;4300;QLD;Australia;2
889 Straubel Way;4055;QLD;Australia;6
9 Dawn Court;4128;QLD;Australia;2
1988 Bartillon Terrace;4500;QLD;Australia;3
57384 Sycamore Park;4370;QLD;Australia;6
276 Hoffman Road;4017;QLD;Australia;8
98791 Johnson Way;4053;QLD;Australia;7
7 John Wall Parkway;4020;QLD;Australia;5
0693 Eagan Court;4019;QLD;Australia;4
38 Main Park;3188;VIC;Australia;8
2 Shasta Street;3977;VIC;Australia;8
27 Farmco Pass;3806;VIC;Australia;8
9985 Barnett Circle;3940;VIC;Australia;7
60855 Fieldstone Avenue;3939;VIC;Australia;6
2 Dixon Crossing;3910;VIC;Australia;7
7 Canary Trail;3977;VIC;Australia;10
09653 Golf View Way;3840;VIC;Australia;2
433 Mockingbird Center;3840;VIC;Australia;2
4 Sycamore Pass;3977;VIC;Australia;5
833 Sherman Court;3810;VIC;Australia;6
0 Fulton Drive;3806;VIC;Australia;8
02885 Buhler Court;3804;VIC;Australia;9
8766 Onsgard Plaza;3805;VIC;Australia;8
5061 Cottonwood Trail;3765;VIC;Australia;7
05 Dahle Drive;3757;VIC;Australia;7
5063 Shopko Pass;2582;NSW;Australia;8
09 Hagan Pass;3196;VIC;Australia;8
87897 Lighthouse Bay Pass;3747;VIC;Australia;4
294 Lawn Junction;3677;VIC;Australia;1
5 Springview Terrace;3620;VIC;Australia;4
9 Logan Drive;3620;VIC;Australia;2
6002 Del Sol Trail;3630;VIC;Australia;2
77 Acker Alley;3151;VIC;Australia;10
38 Hansons Place;3023;VIC;Australia;7
30 Crescent Oaks Point;3564;VIC;Australia;2
0784 Utah Plaza;3199;VIC;Australia;7
5298 Nevada Circle;3500;VIC;Australia;1
0 Ramsey Place;3444;VIC;Australia;4
7006 Miller Avenue;3444;VIC;Australia;4
1 Bayside Pass;3076;VIC;Australia;8
43811 Golf View Road;3380;VIC;Australia;1
19 Green Ridge Avenue;3340;VIC;Australia;3
91079 Lukken Way;3338;VIC;Australia;5
1450 Gulseth Park;3337;VIC;Australia;5
1 Boyd Terrace;3280;VIC;Australia;4
9 Almo Alley;3224;VIC;Australia;5
016 Tony Street;3222;VIC;Australia;5
02505 Mariners Cove Street;3222;VIC;Australia;6
970 Sundown Place;3222;VIC;Australia;5
0261 Roxbury Crossing;4164;QLD;Australia;9
5413 Harbort Terrace;3226;VIC;Australia;7
03444 Scott Lane;3204;VIC;Australia;10
3 Schlimgen Alley;3201;VIC;Australia;6
0162 Darwin Alley;3201;VIC;Australia;6
66 Division Pass;3840;VIC;Australia;1
6 Forster Crossing;3198;VIC;Australia;8
939 Hermina Drive;3198;VIC;Australia;8
393 Warrior Crossing;3190;VIC;Australia;10
3962 Rigney Center;3156;VIC;Australia;8
64201 Bonner Point;3169;VIC;Australia;5
0 Grasskamp Pass;3170;VIC;Australia;10
3831 Paget Road;3163;VIC;Australia;6
46523 Mcbride Circle;3161;VIC;Australia;9
29 Mallory Circle;3791;VIC;Australia;9
6229 Amoth Place;3156;VIC;Australia;8
952 Fairview Hill;3155;VIC;Australia;8
6 La Follette Lane;3977;VIC;Australia;6
6837 West Pass;4119;QLD;Australia;7
28 Menomonie Street;3140;VIC;Australia;10
94 Sheridan Parkway;3136;VIC;Australia;9
50 Claremont Junction;3818;VIC;Australia;6
70676 Eggendart Trail;3028;VIC;Australia;8
5586 Buena Vista Avenue;3106;VIC;Australia;10
02701 Talmadge Junction;3082;VIC;Australia;7
220 Mitchell Place;3099;VIC;Australia;9
02570 Tony Way;3752;VIC;Australia;6
12 Alpine Lane;3754;VIC;Australia;8
6 Northfield Point;3140;VIC;Australia;9
7709 Bluestem Place;3068;VIC;Australia;5
8108 Clyde Gallagher Crossing;3756;VIC;Australia;4
79206 Independence Drive;3061;VIC;Australia;5
60447 Ridgeway Plaza;3048;VIC;Australia;6
4 Milwaukee Park;3046;VIC;Australia;9
73506 Cordelia Lane;4217;QLD;Australia;4
0 Rowland Road;3036;VIC;Australia;9
42829 Charing Cross Road;3107;VIC;Australia;8
7530 Sutteridge Hill;3030;VIC;Australia;7
88545 Milwaukee Center;3022;VIC;Australia;8
070 Shelley Terrace;3020;VIC;Australia;4
12439 Kropf Way;3049;VIC;Australia;6
931 Rigney Terrace;3015;VIC;Australia;10
6 Anderson Court;2880;NSW;Australia;1
11207 Lukken Center;3500;VIC;Australia;2
4370 Haas Trail;2870;NSW;Australia;5
45 Tony Trail;2259;NSW;Australia;7
46 Dovetail Avenue;2830;NSW;Australia;4
967 Farmco Road;2880;NSW;Australia;1
623 Talisman Way;2763;NSW;Australia;8
837 Evergreen Junction;2774;NSW;Australia;8
21 West Avenue;2155;NSW;Australia;10
83758 Kings Hill;2770;NSW;Australia;7
8 Veith Alley;2750;NSW;Australia;5
9 Pond Avenue;2767;NSW;Australia;9
255 Doe Crossing Terrace;2767;NSW;Australia;8
2 Alpine Circle;2765;NSW;Australia;10
0 Talisman Trail;2769;NSW;Australia;10
5700 Banding Lane;2762;NSW;Australia;9
94079 Eggendart Point;2745;NSW;Australia;9
87038 Sauthoff Road;2761;NSW;Australia;7
4817 Fulton Junction;2761;NSW;Australia;8
22 Transport Alley;2761;NSW;Australia;9
1231 Grim Road;2760;NSW;Australia;8
3 Rigney Center;2794;NSW;Australia;2
7847 Buell Trail;2759;NSW;Australia;8
42946 Fieldstone Pass;2750;NSW;Australia;9
1617 Beilfuss Street;2759;NSW;Australia;8
64 Everett Circle;2756;NSW;Australia;8
184 Melrose Pass;2756;NSW;Australia;11
8934 Park Meadow Street;2756;NSW;Australia;8
14155 Evergreen Way;2756;NSW;Australia;8
26607 West Hill;2777;NSW;Australia;9
53649 Mandrake Place;2749;NSW;Australia;8
223 Trailsway Parkway;2154;NSW;Australia;10
8999 Elmside Pass;2749;NSW;Australia;9
53 Steensland Parkway;2773;NSW;Australia;10
8 Prairie Rose Circle;2745;NSW;Australia;9
3416 Texas Pass;2747;NSW;Australia;7
8088 Macpherson Hill;2323;NSW;Australia;5
6418 Jenna Trail;2640;NSW;Australia;4
70262 Hermina Court;3690;VIC;Australia;2
89684 Coolidge Hill;2630;NSW;Australia;1
00 International Junction;2260;NSW;Australia;8
5 Carioca Pass;2594;NSW;Australia;3
6386 Raven Road;2579;NSW;Australia;2
8 Mendota Plaza;2567;NSW;Australia;9
913 Londonderry Trail;2567;NSW;Australia;8
58516 Tony Plaza;2567;NSW;Australia;8
583 Jenna Pass;2567;NSW;Australia;9
77729 Kim Plaza;2560;NSW;Australia;7
1253 Ridge Oak Center;2560;NSW;Australia;4
975 Melby Street;2564;NSW;Australia;8
6279 Lien Junction;2560;NSW;Australia;6
1435 Lukken Trail;2570;NSW;Australia;8
25 Darwin Terrace;2207;NSW;Australia;9
3 Independence Hill;2560;NSW;Australia;9
4 Stone Corner Avenue;4503;QLD;Australia;6
14179 Springs Drive;2557;NSW;Australia;9
8 Green Ridge Place;2565;NSW;Australia;9
55 Red Cloud Pass;2536;NSW;Australia;5
21 Spohn Drive;2530;NSW;Australia;8
11606 Myrtle Street;2207;NSW;Australia;8
45725 Hagan Pass;2519;NSW;Australia;9
93482 Jenifer Alley;2439;NSW;Australia;10
04 Gulseth Plaza;2528;NSW;Australia;8
0 Canary Parkway;2506;NSW;Australia;9
2 Dayton Center;2487;NSW;Australia;9
25607 Summer Ridge Way;2448;NSW;Australia;5
828 Schlimgen Circle;2450;NSW;Australia;5
558 Thompson Junction;2440;NSW;Australia;6
589 Main Plaza;2290;NSW;Australia;4
472 Blaine Junction;2440;NSW;Australia;3
12 Express Pass;2340;NSW;Australia;2
76 Norway Maple Drive;4509;QLD;Australia;6
4 Oriole Hill;2340;NSW;Australia;7
038 North Court;2333;NSW;Australia;3
7231 Pepper Wood Point;2428;NSW;Australia;8
941 La Follette Hill;2263;NSW;Australia;10
2 Barby Trail;2769;NSW;Australia;10
29133 Canary Circle;2282;NSW;Australia;8
12 Redwing Street;2325;NSW;Australia;4
57835 Ruskin Lane;2325;NSW;Australia;5
7 Mifflin Terrace;2323;NSW;Australia;3
7509 Prairieview Center;2289;NSW;Australia;9
7 Delaware Hill;2320;NSW;Australia;6
15012 Oneill Plaza;2285;NSW;Australia;5
4861 School Park;2290;NSW;Australia;3
9 Sycamore Pass;2287;NSW;Australia;5
005 Prentice Circle;2307;NSW;Australia;5
81 Artisan Park;2259;NSW;Australia;5
7764 Declaration Hill;2261;NSW;Australia;9
7049 Sutteridge Lane;2251;NSW;Australia;8
40 Dexter Crossing;2250;NSW;Australia;9
543 Morrow Terrace;2261;NSW;Australia;8
36 Marquette Center;2250;NSW;Australia;7
8 Arizona Way;2233;NSW;Australia;9
78960 Schiller Lane;2450;NSW;Australia;4
75 Hoepker Street;2232;NSW;Australia;10
39677 Emmet Terrace;2211;NSW;Australia;10
30 Bay Hill;2229;NSW;Australia;12
6 Canary Plaza;2223;NSW;Australia;8
4 Maywood Court;2228;NSW;Australia;10
04489 Corscot Hill;2232;NSW;Australia;10
00941 7th Place;2227;NSW;Australia;10
09 Bayside Place;2223;NSW;Australia;10
8802 Fisk Street;2234;NSW;Australia;10
81 Darwin Court;2210;NSW;Australia;10
54295 Dorton Hill;2219;NSW;Australia;10
29 Spohn Drive;2212;NSW;Australia;10
87746 Bellgrove Park;2211;NSW;Australia;10
4517 Colorado Place;2210;NSW;Australia;10
91433 Hollow Ridge Crossing;2210;NSW;Australia;10
237 Garrison Way;2207;NSW;Australia;8
7 Bartillon Circle;2260;NSW;Australia;8
22 Nelson Terrace;2190;NSW;Australia;10
96 Pepper Wood Drive;2567;NSW;Australia;10
79055 Moose Terrace;2176;NSW;Australia;9
520 Mesta Alley;2200;NSW;Australia;8
0534 Bartelt Trail;2760;NSW;Australia;8
3009 Duke Crossing;2200;NSW;Australia;8
484 Lindbergh Street;2161;NSW;Australia;6
83 Luster Drive;2848;NSW;Australia;1
28 Mcguire Junction;2171;NSW;Australia;10
6750 Truax Trail;2145;NSW;Australia;8
84749 Holy Cross Terrace;2767;NSW;Australia;8
486 Clyde Gallagher Road;2170;NSW;Australia;9
305 Vera Lane;2165;NSW;Australia;8
2 Moulton Drive;2567;NSW;Australia;10
213 Alpine Avenue;2168;NSW;Australia;9
2 Saint Paul Parkway;2040;NSW;Australia;12
7921 Trailsway Center;2759;NSW;Australia;9
90323 Pine View Hill;2148;NSW;Australia;8
27 Hooker Plaza;2177;NSW;Australia;8
193 Bluejay Hill;2160;NSW;Australia;9
8 Monument Junction;2154;NSW;Australia;11
22 Portage Road;2155;NSW;Australia;9
243 Mosinee Place;2155;NSW;Australia;10
65 Southridge Alley;2745;NSW;Australia;10
16 Maple Wood Center;2155;NSW;Australia;10
8595 Ruskin Plaza;3196;VIC;Australia;10
2 Eastwood Street;2153;NSW;Australia;10
68 Delaware Avenue;2768;NSW;Australia;10
08167 Buhler Avenue;2153;NSW;Australia;10
0046 Grim Pass;2148;NSW;Australia;7
4 Sutteridge Trail;2153;NSW;Australia;10
8 Boyd Road;2075;NSW;Australia;12
8 Bobwhite Park;2768;NSW;Australia;10
62047 Ludington Terrace;2148;NSW;Australia;8
277 Maple Circle;2768;NSW;Australia;8
845 Mendota Center;2148;NSW;Australia;8
13795 Corscot Drive;2147;NSW;Australia;9
08 Twin Pines Place;2768;NSW;Australia;9
07236 Jenifer Point;2763;NSW;Australia;10
2 Darwin Parkway;2118;NSW;Australia;9
57878 Northfield Crossing;2144;NSW;Australia;10
61 Donald Crossing;2142;NSW;Australia;9
842 Rutledge Parkway;2145;NSW;Australia;9
8462 Emmet Trail;4878;QLD;Australia;4
6265 Moland Terrace;2076;NSW;Australia;10
4 Rowland Way;2126;NSW;Australia;10
04488 Jenna Alley;2289;NSW;Australia;9
4 Toban Junction;2154;NSW;Australia;8
5 Manley Avenue;2122;NSW;Australia;11
9 Eastlawn Court;2155;NSW;Australia;10
97910 Leroy Junction;2073;NSW;Australia;12
608 Rutledge Drive;2121;NSW;Australia;11
8 Heffernan Crossing;2126;NSW;Australia;12
9 Northfield Circle;2121;NSW;Australia;12
996 Morning Parkway;2119;NSW;Australia;11
7015 Hintze Parkway;2153;NSW;Australia;11
3525 Buena Vista Plaza;2120;NSW;Australia;9
6 Hallows Pass;2118;NSW;Australia;11
7317 Huxley Alley;2112;NSW;Australia;8
82 Hanover Avenue;2101;NSW;Australia;10
3384 Nelson Circle;4227;QLD;Australia;3
45314 Pepper Wood Junction;2251;NSW;Australia;6
85301 John Wall Road;2101;NSW;Australia;11
277 Lindbergh Alley;2100;NSW;Australia;11
6 Logan Junction;2148;NSW;Australia;9
70416 Becker Court;2099;NSW;Australia;10
256 Fordem Street;2119;NSW;Australia;11
7 Laurel Junction;2079;NSW;Australia;10
7032 Hallows Drive;2126;NSW;Australia;11
78000 Arrowood Center;2775;NSW;Australia;9
5 Elgar Place;4132;QLD;Australia;5
54 Veith Drive;2073;NSW;Australia;12
0 Michigan Plaza;2077;NSW;Australia;10
2272 Buena Vista Center;2065;NSW;Australia;12
0 Thackeray Avenue;2100;NSW;Australia;10
8 Warrior Avenue;3197;VIC;Australia;9
5447 Weeping Birch Place;2086;NSW;Australia;12
019 Derek Hill;2224;NSW;Australia;10
4 Florence Street;2032;NSW;Australia;11
2390 Blackbird Point;2035;NSW;Australia;11
96 Sundown Point;4220;QLD;Australia;9
5447 Buell Hill;2567;NSW;Australia;9
978 Valley Edge Park;2777;NSW;Australia;9
46 Dunning Junction;4220;QLD;Australia;9
848 Dawn Drive;4818;QLD;Australia;5
2517 Glacier Hill Point;3219;VIC;Australia;3
658 Northfield Junction;3023;VIC;Australia;7
5 Algoma Point;3809;VIC;Australia;5
1617 Lakewood Gardens Lane;2090;NSW;Australia;11
373 Oak Valley Avenue;2048;NSW;Australia;11
75164 Sherman Crossing;2031;NSW;Australia;11
6491 Gerald Court;2261;NSW;Australia;9
84504 Doe Crossing Road;2441;NSW;Australia;4
55433 Schmedeman Lane;2263;NSW;Australia;8
835 Thackeray Place;2261;NSW;Australia;6
24 Fuller Lane;3183;VIC;Australia;6
5333 Aberg Lane;4877;QLD;Australia;4
6 Melody Plaza;4215;QLD;Australia;8
50 Dahle Crossing;3199;VIC;Australia;9
2 Mayfield Alley;2089;NSW;Australia;10
9020 Anhalt Park;2528;NSW;Australia;7
48 Melby Trail;2131;NSW;Australia;8
1 Eliot Road;3910;VIC;Australia;8
94181 South Park;3264;VIC;Australia;1
718 Colorado Court;2220;NSW;Australia;8
2 Southridge Crossing;2763;NSW;Australia;8
0 Westport Terrace;4570;QLD;Australia;5
0 Namekagon Circle;3150;VIC;Australia;9
76 Roxbury Pass;2528;NSW;Australia;6
10 Hazelcrest Street;4413;QLD;Australia;5
5528 North Hill;2681;NSW;Australia;1
9179 Sunfield Terrace;4510;QLD;Australia;2
18708 Darwin Park;3977;VIC;Australia;7
46310 Raven Trail;4220;QLD;Australia;4
49932 Messerschmidt Point;2138;NSW;Australia;11
6 Monument Circle;3186;VIC;Australia;11
2 Green Ridge Park;2478;NSW;Australia;8
60 Briar Crest Circle;2170;NSW;Australia;9
313 Schiller Trail;3018;VIC;Australia;4
89 Bartillon Plaza;2753;NSW;Australia;10
5 Moland Court;4551;QLD;Australia;6
20 Mcguire Hill;3198;VIC;Australia;4
2 Ridgeway Circle;2090;NSW;Australia;10
78 Bultman Junction;2047;NSW;Australia;10
4 Mariners Cove Street;2043;NSW;Australia;9
38330 Badeau Place;2154;NSW;Australia;11
515 Monterey Terrace;2107;NSW;Australia;12
73363 Butterfield Crossing;4567;QLD;Australia;9
65387 Thackeray Parkway;3197;VIC;Australia;10
06 Hudson Parkway;2250;NSW;Australia;8
5274 Lindbergh Alley;4217;QLD;Australia;1
81942 Scott Street;2066;NSW;Australia;10
3 Fordem Park;4011;QLD;Australia;10
8012 American Parkway;2138;NSW;Australia;11
461 Esker Court;3630;VIC;Australia;1
22 Badeau Avenue;3161;VIC;Australia;11
58 Kipling Avenue;4560;QLD;Australia;8
4 Jay Court;2763;NSW;Australia;9
17974 Kedzie Circle;2795;NSW;Australia;7
82598 Arkansas Hill;2088;NSW;Australia;12
208 Golden Leaf Pass;3195;VIC;Australia;10
4 Pankratz Street;2101;NSW;Australia;11
83 Graceland Avenue;3977;VIC;Australia;3
1041 Center Road;2155;NSW;Australia;10
9161 Macpherson Terrace;4680;QLD;Australia;2
816 Gale Pass;2261;NSW;Australia;7
17485 Tennyson Pass;2221;NSW;Australia;10
9168 Thackeray Place;2026;NSW;Australia;12
4889 Tomscot Park;2093;NSW;Australia;11
709 Schmedeman Street;2155;NSW;Australia;11
59 Steensland Alley;2018;NSW;Australia;11
59643 Reindahl Plaza;3127;VIC;Australia;11
29438 Swallow Crossing;2217;NSW;Australia;11
1 Fallview Street;2155;NSW;Australia;10
54 Bowman Park;2031;NSW;Australia;10
7 Monterey Street;3068;VIC;Australia;12
1 Morning Circle;2250;NSW;Australia;8
41 Vahlen Park;2230;NSW;Australia;12
9175 Ryan Street;2088;NSW;Australia;12
2 Pankratz Place;2063;NSW;Australia;11
018 Superior Plaza;2068;NSW;Australia;10
9737 Vernon Junction;3152;VIC;Australia;9
290 Havey Crossing;3145;VIC;Australia;12
4709 Cardinal Hill;2028;NSW;Australia;12
087 Fallview Plaza;4209;QLD;Australia;5
116 Sullivan Avenue;3941;VIC;Australia;9
309 Oneill Way;2068;NSW;Australia;10
86 Morningstar Junction;2031;NSW;Australia;12
72 Mosinee Court;3146;VIC;Australia;9
16 Saint Paul Street;4670;QLD;Australia;2
8 Northridge Drive;2072;NSW;Australia;10
091 Hoard Street;2229;NSW;Australia;12
36445 Meadow Valley Road;3087;VIC;Australia;9
419 2nd Center;4220;QLD;Australia;9
41 Dwight Way;3585;VIC;Australia;1
1908 Brickson Park Trail;2112;NSW;Australia;8
367 Algoma Lane;2153;NSW;Australia;10
9037 Norway Maple Junction;2087;NSW;Australia;11
1301 Northwestern Place;2117;NSW;Australia;9
3205 Service Park;2158;NSW;Australia;10
906 Pawling Place;4352;QLD;Australia;6
53141 Merrick Street;2064;NSW;Australia;12
51 Hollow Ridge Terrace;2768;NSW;Australia;9
38233 Boyd Alley;3976;VIC;Australia;6
21800 Duke Parkway;3219;VIC;Australia;3
3 Buena Vista Pass;4209;QLD;Australia;5
11 Victoria Place;2036;NSW;Australia;11
78 Colorado Park;4105;QLD;Australia;8
39846 Springs Crossing;2154;NSW;Australia;10
8 Talisman Avenue;2211;NSW;Australia;10
147 Waubesa Point;2094;NSW;Australia;12
2 Dwight Point;4133;QLD;Australia;5
62 Mallard Avenue;3437;VIC;Australia;7
9 Onsgard Court;3170;VIC;Australia;9
20415 Clyde Gallagher Parkway;2333;NSW;Australia;5
32 Hagan Junction;2570;NSW;Australia;9
5 Spohn Alley;2121;NSW;Australia;11
8 Scott Street;3205;VIC;Australia;8
02862 Esker Crossing;2173;NSW;Australia;9
03 Lillian Street;3071;VIC;Australia;8
644 Karstens Place;3040;VIC;Australia;11
0 Graedel Drive;4817;QLD;Australia;4
86 Menomonie Plaza;2290;NSW;Australia;4
7233 Lerdahl Lane;4212;QLD;Australia;7
5676 Golf View Junction;2137;NSW;Australia;12
2 Mcguire Terrace;2323;NSW;Australia;7
773 Tomscot Plaza;2203;NSW;Australia;10
5 Fisk Way;2230;NSW;Australia;12
0 Pierstorff Place;2770;NSW;Australia;8
25253 Straubel Trail;2153;NSW;Australia;10
752 Nevada Circle;2089;NSW;Australia;10
0672 Mitchell Terrace;4161;QLD;Australia;5
78 Parkside Trail;3046;VIC;Australia;8
7962 Dottie Park;2284;NSW;Australia;5
0 Westport Center;4558;QLD;Australia;4
63862 Dawn Park;4655;QLD;Australia;2
2538 Gateway Pass;4152;QLD;Australia;4
33006 Petterle Trail;4121;QLD;Australia;8
0130 Loeprich Lane;3808;VIC;Australia;9
0 Warner Road;2680;NSW;Australia;4
7 Ohio Court;3796;VIC;Australia;8
27 Evergreen Terrace;2261;NSW;Australia;9
17 Ohio Drive;4053;QLD;Australia;7
4912 Lukken Way;4570;QLD;Australia;3
89 Cherokee Road;4211;QLD;Australia;8
4216 Annamark Pass;4300;QLD;Australia;4
6 Forest Dale Parkway;4017;QLD;Australia;4
1 Namekagon Parkway;4075;QLD;Australia;5
09810 Dayton Hill;4035;QLD;Australia;8
85 Magdeline Crossing;3149;VIC;Australia;9
7 Laurel Avenue;2125;NSW;Australia;12
441 Old Shore Circle;2131;NSW;Australia;11
5 Huxley Point;2154;NSW;Australia;10
3483 Burrows Hill;2137;NSW;Australia;11
84707 Harper Circle;3114;VIC;Australia;10
78 Jackson Point;2047;NSW;Australia;11
8 Armistice Circle;3977;VIC;Australia;6
73425 Mitchell Court;4304;QLD;Australia;3
4 5th Circle;2800;NSW;Australia;2
096 Anniversary Point;2030;NSW;Australia;12
7714 Heffernan Circle;3130;VIC;Australia;8
2 Portage Avenue;2170;NSW;Australia;9
636 Debs Circle;3039;VIC;Australia;9
08731 Coleman Lane;3352;VIC;Australia;6
12860 Warner Court;3129;VIC;Australia;8
10 Cambridge Street;4567;QLD;Australia;7
8943 Knutson Point;4154;QLD;Australia;9
3 Nevada Road;4215;QLD;Australia;3
01 Havey Drive;2099;NSW;Australia;12
466 Westport Drive;2263;NSW;Australia;7
40985 Cherokee Junction;2155;NSW;Australia;10
410 Hoepker Pass;4123;QLD;Australia;5
6 Reinke Street;2768;NSW;Australia;10
9097 Superior Drive;2114;NSW;Australia;8
6 Hansons Park;2145;NSW;Australia;7
5394 Dryden Terrace;3149;VIC;Australia;11
56 Bultman Parkway;4721;QLD;Australia;1
835 West Hill;2118;NSW;Australia;11
8 Vermont Pass;3930;VIC;Australia;9
6238 Hanover Crossing;3141;VIC;Australia;7
2 Thierer Plaza;3976;VIC;Australia;3
71776 Express Avenue;2749;NSW;Australia;8
162 Golf View Hill;2011;NSW;Australia;6
7389 Union Place;2745;NSW;Australia;8
07 Miller Pass;2017;NSW;Australia;9
30 Delladonna Plaza;3046;VIC;Australia;8
7395 Blackbird Lane;2134;NSW;Australia;9
79427 Hudson Trail;3677;VIC;Australia;1
67 Hooker Place;2380;NSW;Australia;5
0380 Chinook Avenue;2047;NSW;Australia;12
4092 Brentwood Trail;2147;NSW;Australia;10
613 Mayfield Trail;4012;QLD;Australia;6
2 Spohn Court;2750;NSW;Australia;9
05239 Springs Circle;3030;VIC;Australia;7
59 Old Gate Drive;4878;QLD;Australia;5
31186 Hoard Junction;2015;NSW;Australia;12
2 Crest Line Crossing;2072;NSW;Australia;9
18083 Mallard Drive;3075;VIC;Australia;7
93 Lakeland Court;3810;VIC;Australia;6
023 Thackeray Lane;2070;NSW;Australia;12
79737 Hollow Ridge Trail;2199;NSW;Australia;9
95465 Union Plaza;4055;QLD;Australia;7
66238 Old Gate Circle;4157;QLD;Australia;9
3 Delladonna Street;4799;QLD;Australia;3
3 Mallard Center;2251;NSW;Australia;8
31 Eastwood Circle;2460;NSW;Australia;3
507 Onsgard Place;4701;QLD;Australia;1
69555 Dakota Alley;4211;QLD;Australia;5
21969 Lawn Court;2095;NSW;Australia;9
7 Erie Court;2263;NSW;Australia;7
0724 Oxford Crossing;2146;NSW;Australia;9
1 Monterey Terrace;2011;NSW;Australia;12
75 Duke Plaza;2147;NSW;Australia;9
156 Lakeland Way;4035;QLD;Australia;9
91 Mosinee Point;2166;NSW;Australia;5
1508 Hooker Avenue;2000;NSW;Australia;8
3202 Ridge Oak Alley;4121;QLD;Australia;9
5510 Pepper Wood Street;3429;VIC;Australia;6
42952 Fairfield Center;3012;VIC;Australia;8
1 Garrison Street;3103;VIC;Australia;12
013 Armistice Street;2769;NSW;Australia;10
3201 Canary Center;2540;NSW;Australia;9
4365 Basil Junction;2539;NSW;Australia;7
1164 Toban Road;3806;VIC;Australia;5
2364 Dovetail Way;3048;VIC;Australia;6
738 Sloan Place;3212;VIC;Australia;5
318 Jenifer Alley;2119;NSW;Australia;11
6395 Anthes Hill;4504;QLD;Australia;4
36516 Forster Lane;4034;QLD;Australia;7
107 Garrison Plaza;2200;NSW;Australia;10
717 Oakridge Way;2117;NSW;Australia;8
16405 Doe Crossing Parkway;3630;VIC;Australia;3
16 Monument Place;4701;QLD;Australia;3
99841 Talisman Street;4224;QLD;Australia;3
21 Duke Hill;4344;QLD;Australia;4
891 Anderson Parkway;2009;NSW;Australia;10
9446 Holmberg Court;2133;NSW;Australia;11
46512 Cambridge Avenue;2759;NSW;Australia;8
54250 Welch Pass;3145;VIC;Australia;11
734 South Court;4152;QLD;Australia;8
769 Banding Avenue;2151;NSW;Australia;10
2590 Northport Hill;2070;NSW;Australia;11
9649 Cascade Way;2250;NSW;Australia;8
69 Valley Edge Lane;3144;VIC;Australia;8
327 Monument Street;3201;VIC;Australia;4
4 Sunnyside Crossing;2125;NSW;Australia;12
8 Hoffman Alley;3181;VIC;Australia;10
894 Duke Crossing;2665;NSW;Australia;1
01714 Claremont Center;2474;NSW;Australia;3
6809 Maple Park;3023;VIC;Australia;8
95294 Karstens Park;2155;NSW;Australia;9
8872 Bunker Hill Crossing;2196;NSW;Australia;9
14 Westport Pass;3029;VIC;Australia;6
867 Grim Terrace;3754;VIC;Australia;6
48023 International Way;3630;VIC;Australia;1
0 Prairie Rose Place;3802;VIC;Australia;7
56145 Porter Lane;2010;NSW;Australia;10
509 Ridgeway Junction;3166;VIC;Australia;10
41 Eagan Junction;2570;NSW;Australia;8
5290 Lunder Park;2287;NSW;Australia;7
52425 Prairie Rose Road;4500;QLD;Australia;6
7939 Toban Crossing;2770;NSW;Australia;7
0672 Lyons Pass;2153;NSW;Australia;10
904 Mandrake Parkway;2820;NSW;Australia;1
3007 Summer Ridge Street;4511;QLD;Australia;7
47 Veith Junction;3196;VIC;Australia;9
007 Canary Circle;2047;NSW;Australia;12
1 Saint Paul Terrace;2161;NSW;Australia;6
87705 Hovde Center;4870;QLD;Australia;5
765 6th Plaza;4226;QLD;Australia;7
248 Bartillon Plaza;4059;QLD;Australia;9
66811 Lerdahl Way;4160;QLD;Australia;4
5809 Coolidge Avenue;2747;NSW;Australia;6
2769 Banding Avenue;3189;VIC;Australia;10
3 Monterey Trail;2582;NSW;Australia;9
85549 Sheridan Parkway;4170;QLD;Australia;8
4498 Donald Crossing;2525;NSW;Australia;10
4 Ridgeway Court;4030;QLD;Australia;4
4 Bartelt Hill;4510;QLD;Australia;1
91116 Riverside Plaza;2114;NSW;Australia;8
60911 Almo Point;2066;NSW;Australia;12
0 Superior Pass;2050;NSW;Australia;8
9 Superior Terrace;2199;NSW;Australia;9
57 Marquette Hill;4120;QLD;Australia;6
36 Sommers Place;2096;NSW;Australia;12
83148 Rowland Alley;2530;NSW;Australia;8
34 Arrowood Pass;2567;NSW;Australia;9
72 Mandrake Court;3183;VIC;Australia;9
9 Emmet Hill;2042;NSW;Australia;10
16984 Pankratz Park;2324;NSW;Australia;7
9460 Laurel Crossing;4032;QLD;Australia;7
5786 Kinsman Point;2127;NSW;Australia;8
4 Fairfield Way;2487;NSW;Australia;10
319 Michigan Way;4350;QLD;Australia;4
49 Fulton Park;3156;VIC;Australia;8
0 Corben Court;3121;VIC;Australia;11
8 Drewry Street;4655;QLD;Australia;5
48 Dawn Center;4132;QLD;Australia;3
6244 Forest Point;4103;QLD;Australia;9
0306 Donald Court;3844;VIC;Australia;1
3762 Victoria Alley;4078;QLD;Australia;6
3 Manley Crossing;4074;QLD;Australia;6
36866 Summit Point;3750;VIC;Australia;9
9 Pearson Plaza;3177;VIC;Australia;7
7450 Prairie Rose Drive;2868;NSW;Australia;1
83975 Rowland Place;2166;NSW;Australia;6
01 Weeping Birch Plaza;2640;NSW;Australia;4
738 Dixon Drive;2575;NSW;Australia;8
5766 Pearson Court;2227;NSW;Australia;8
9 Shelley Center;2170;NSW;Australia;7
07273 Sundown Trail;2358;NSW;Australia;2
2 Maryland Drive;4227;QLD;Australia;7
3 Roth Place;2449;NSW;Australia;2
81856 Express Lane;2299;NSW;Australia;6
5 Porter Road;4014;QLD;Australia;6
59 Waywood Road;3163;VIC;Australia;8
6838 Anniversary Junction;2484;NSW;Australia;4
90128 Caliangt Place;2484;NSW;Australia;4
504 Mesta Lane;2261;NSW;Australia;8
9 Utah Road;4179;QLD;Australia;8
00213 Atwood Pass;2340;NSW;Australia;1
7230 Montana Place;2777;NSW;Australia;9
51763 Carey Place;3056;VIC;Australia;7
4 Susan Center;3170;VIC;Australia;9
745 Troy Avenue;2769;NSW;Australia;9
6 Upham Place;4556;QLD;Australia;7
34694 Sugar Place;4740;QLD;Australia;5
26876 Lyons Court;3166;VIC;Australia;10
8308 Linden Place;2570;NSW;Australia;9
32708 Bluestem Alley;3976;VIC;Australia;7
3542 Arkansas Place;3380;VIC;Australia;1
642 Anderson Circle;4132;QLD;Australia;5
8318 Continental Alley;3175;VIC;Australia;7
7202 Prairieview Court;2221;NSW;Australia;11
64610 Sachtjen Center;2575;NSW;Australia;10
53 Muir Terrace;2170;NSW;Australia;8
710 Schiller Plaza;3338;VIC;Australia;1
698 Old Gate Lane;2619;NSW;Australia;3
4 Golden Leaf Road;4670;QLD;Australia;2
1979 Arapahoe Trail;4701;QLD;Australia;3
1 Vernon Terrace;4226;QLD;Australia;6
79862 Darwin Crossing;4215;QLD;Australia;8
184 Hoepker Way;2197;NSW;Australia;9
40 New Castle Avenue;2043;NSW;Australia;11
9525 Johnson Place;3190;VIC;Australia;8
8 Pearson Trail;2166;NSW;Australia;9
53 Dakota Court;2027;NSW;Australia;9
4262 Melvin Avenue;2759;NSW;Australia;8
4415 Dwight Center;2528;NSW;Australia;7
1197 Carey Junction;2280;NSW;Australia;7
227 Havey Trail;2795;NSW;Australia;6
2 Manufacturers Parkway;3199;VIC;Australia;6
9175 Stephen Drive;4035;QLD;Australia;8
299 Pine View Parkway;3121;VIC;Australia;12
71 Orin Crossing;2155;NSW;Australia;9
134 Knutson Street;2281;NSW;Australia;9
37 Mockingbird Street;4017;QLD;Australia;3
00969 Gale Way;3108;VIC;Australia;10
05665 Dottie Circle;2085;NSW;Australia;11
83 Wayridge Circle;4152;QLD;Australia;9
8 Carioca Terrace;4007;QLD;Australia;8
5 Kenwood Road;2075;NSW;Australia;11
29 Hansons Crossing;2318;NSW;Australia;4
493 Buell Point;4500;QLD;Australia;8
7 Del Mar Crossing;4680;QLD;Australia;7
7 Elgar Plaza;2250;NSW;Australia;9
425 Marquette Way;2116;NSW;Australia;10
67104 Bunting Crossing;2043;NSW;Australia;9
243 Raven Drive;4815;QLD;Australia;3
248 School Park;3156;VIC;Australia;8
5 Onsgard Plaza;3134;VIC;Australia;10
38 Havey Place;3049;VIC;Australia;5
38 Armistice Alley;2018;NSW;Australia;8
34953 Oak Circle;2153;NSW;Australia;10
18 Express Street;2165;NSW;Australia;9
04046 Summit Avenue;4217;QLD;Australia;9
986 Hollow Ridge Crossing;3821;VIC;Australia;7
4622 Dixon Junction;2048;NSW;Australia;8
3563 Darwin Avenue;3095;VIC;Australia;9
38759 Butterfield Avenue;4305;QLD;Australia;2
67125 Melody Place;2747;NSW;Australia;8
31 Northwestern Court;2206;NSW;Australia;10
8 Farwell Parkway;2428;NSW;Australia;2
19 Barby Parkway;4127;QLD;Australia;4
681 School Avenue;2077;NSW;Australia;10
27 Dawn Lane;2233;NSW;Australia;10
366 International Way;2170;NSW;Australia;8
427 Rockefeller Drive;2093;NSW;Australia;12
5176 Division Hill;3216;VIC;Australia;5
1 Raven Place;2160;NSW;Australia;6
29 Delaware Pass;2567;NSW;Australia;8
42554 Burrows Court;2117;NSW;Australia;10
726 Warrior Center;2077;NSW;Australia;10
500 Victoria Plaza;2147;NSW;Australia;9
35 Debra Way;3201;VIC;Australia;6
62965 Morningstar Junction;4109;QLD;Australia;9
6698 Melody Crossing;4556;QLD;Australia;8
05919 Morning Parkway;2034;NSW;Australia;11
6 Rockefeller Pass;3075;VIC;Australia;7
7875 Fieldstone Pass;4216;QLD;Australia;10
59170 Westridge Junction;2147;NSW;Australia;8
3 Bonner Point;2800;NSW;Australia;4
113 Lien Place;2560;NSW;Australia;6
064 Fallview Terrace;4500;QLD;Australia;7
32 Sutteridge Trail;2470;NSW;Australia;1
3984 Clove Street;3192;VIC;Australia;10
4 Rowland Plaza;2324;NSW;Australia;4
5157 Maple Wood Circle;2537;NSW;Australia;8
559 Blackbird Street;4580;QLD;Australia;2
6466 Troy Street;2763;NSW;Australia;8
7135 Ruskin Avenue;2563;NSW;Australia;11
5 Loftsgordon Avenue;2068;NSW;Australia;12
33 Del Mar Junction;2264;NSW;Australia;8
06069 Hayes Road;2099;NSW;Australia;8
828 Waubesa Pass;2234;NSW;Australia;10
1 Bobwhite Circle;2230;NSW;Australia;9
3 Memorial Junction;2126;NSW;Australia;11
644 Mcbride Street;2086;NSW;Australia;11
23700 Dennis Way;2075;NSW;Australia;11
5795 Comanche Circle;4825;QLD;Australia;2
31 Scofield Trail;3020;VIC;Australia;8
218 Elka Point;2176;NSW;Australia;10
5468 Moose Lane;2445;NSW;Australia;7
174 Calypso Crossing;2770;NSW;Australia;7
53358 David Circle;4306;QLD;Australia;3
0 3rd Road;4060;QLD;Australia;9
9 Melvin Drive;2144;NSW;Australia;7
9670 4th Point;2065;NSW;Australia;10
2228 Steensland Terrace;2148;NSW;Australia;8
2 Thierer Place;4053;QLD;Australia;8
23 Huxley Road;3064;VIC;Australia;7
34 3rd Place;3030;VIC;Australia;8
63 Golf Crossing;2217;NSW;Australia;8
1 Sloan Avenue;2176;NSW;Australia;10
056 Pierstorff Alley;2040;NSW;Australia;11
177 Anniversary Parkway;2428;NSW;Australia;7
18 Karstens Drive;2233;NSW;Australia;10
6950 Morrow Street;2326;NSW;Australia;3
8492 Autumn Leaf Center;3214;VIC;Australia;2
91749 Portage Park;2528;NSW;Australia;8
45 Waubesa Lane;4213;QLD;Australia;9
51739 Sundown Hill;2009;NSW;Australia;9
95 Butterfield Circle;3352;VIC;Australia;4
9 Porter Pass;4077;QLD;Australia;6
236 Fremont Alley;2156;NSW;Australia;12
46031 Hudson Place;2075;NSW;Australia;11
8 Crowley Terrace;2760;NSW;Australia;8
50532 Hoard Center;4209;QLD;Australia;7
56 Sommers Point;2204;NSW;Australia;8
0 Red Cloud Place;2217;NSW;Australia;8
24951 Michigan Pass;2176;NSW;Australia;10
51960 Gulseth Point;2009;NSW;Australia;12
144 Parkside Parkway;4655;QLD;Australia;3
896 Helena Parkway;4551;QLD;Australia;7
89 Anhalt Park;2106;NSW;Australia;11
1786 Orin Street;2327;NSW;Australia;3
7 Green Ridge Way;2763;NSW;Australia;8
2807 Northwestern Pass;3182;VIC;Australia;8
9362 Grim Plaza;4702;QLD;Australia;1
2 Sommers Drive;3181;VIC;Australia;10
74164 Village Green Parkway;3037;VIC;Australia;9
623 Melody Avenue;4500;QLD;Australia;4
9 Roth Park;4104;QLD;Australia;7
18 Buhler Court;3186;VIC;Australia;12
4 Sachtjen Drive;4701;QLD;Australia;3
130 Hayes Crossing;2170;NSW;Australia;9
9 Logan Court;2570;NSW;Australia;9
8 Superior Hill;2153;NSW;Australia;10
575 Katie Terrace;2835;NSW;Australia;1
9 Old Shore Street;4509;QLD;Australia;7
7949 Waywood Way;2318;NSW;Australia;7
2982 Monterey Way;3182;VIC;Australia;10
692 Leroy Parkway;3043;VIC;Australia;9
9499 Alpine Drive;3175;VIC;Australia;8
0442 Debra Point;2281;NSW;Australia;7
61 Upham Parkway;4558;QLD;Australia;4
63832 Maple Wood Court;3172;VIC;Australia;9
27 Rockefeller Plaza;4556;QLD;Australia;8
95483 Washington Junction;2505;NSW;Australia;9
1396 Sugar Terrace;2145;NSW;Australia;10
8454 Pierstorff Way;2115;NSW;Australia;11
2444 Aberg Hill;2067;NSW;Australia;12
73637 Nancy Street;2469;NSW;Australia;1
9 Beilfuss Crossing;2705;NSW;Australia;3
891 Mendota Junction;4127;QLD;Australia;2
73 Muir Trail;3196;VIC;Australia;7
1 Raven Circle;2450;NSW;Australia;7
6563 Susan Pass;3024;VIC;Australia;7
59 Prentice Lane;4551;QLD;Australia;7
65880 Cascade Drive;2164;NSW;Australia;9
6632 Truax Hill;2230;NSW;Australia;9
68882 Commercial Crossing;2320;NSW;Australia;3
949 Marquette Avenue;3028;VIC;Australia;7
9953 Kim Lane;2330;NSW;Australia;4
09 Pierstorff Point;4514;QLD;Australia;6
158 Lindbergh Crossing;3136;VIC;Australia;9
72 Ilene Point;2575;NSW;Australia;8
4081 Lighthouse Bay Alley;4053;QLD;Australia;9
794 Kennedy Court;4740;QLD;Australia;2
3981 Karstens Place;2570;NSW;Australia;8
88039 Melody Lane;3088;VIC;Australia;9
344 Rockefeller Way;3966;VIC;Australia;2
434 Eggendart Circle;2260;NSW;Australia;12
0 Waubesa Alley;2265;NSW;Australia;6
831 Prairieview Trail;4405;QLD;Australia;1
884 Surrey Pass;3912;VIC;Australia;7
60424 Bultman Terrace;2120;NSW;Australia;10
882 Merry Trail;4701;QLD;Australia;4
47878 Pond Park;4133;QLD;Australia;3
7 Porter Parkway;2261;NSW;Australia;8
984 Waubesa Pass;4034;QLD;Australia;6
91933 Artisan Avenue;2753;NSW;Australia;9
624 Atwood Circle;2164;NSW;Australia;8
15 Mcguire Junction;4128;QLD;Australia;6
21 South Avenue;2076;NSW;Australia;11
4 Macpherson Street;3143;VIC;Australia;4
5965 Glacier Hill Terrace;3025;VIC;Australia;9
556 Esch Street;2090;NSW;Australia;12
25943 Montana Street;2747;NSW;Australia;8
2 Dawn Avenue;4118;QLD;Australia;5
35 Harbort Way;2446;NSW;Australia;8
464 Bonner Place;3012;VIC;Australia;8
0899 Judy Pass;3072;VIC;Australia;10
43 Sunbrook Terrace;4160;QLD;Australia;10
34 Vidon Way;3037;VIC;Australia;8
85 Cody Hill;2770;NSW;Australia;8
8209 Tony Plaza;2810;NSW;Australia;1
65675 Spenser Way;3207;VIC;Australia;12
042 Saint Paul Parkway;2769;NSW;Australia;10
3516 Kensington Lane;2164;NSW;Australia;9
26064 Morningstar Junction;2480;NSW;Australia;2
686 Rusk Parkway;2566;NSW;Australia;8
7518 Canary Parkway;2145;NSW;Australia;9
32 Spenser Crossing;2880;NSW;Australia;1
654 Kim Parkway;3175;VIC;Australia;3
0 Moose Court;2063;NSW;Australia;12
99000 Petterle Drive;2062;NSW;Australia;9
549 Longview Terrace;4030;QLD;Australia;9
1861 Golf Course Circle;2216;NSW;Australia;8
27 Mayer Lane;3756;VIC;Australia;7
47336 Garrison Court;4670;QLD;Australia;1
27 Drewry Road;2102;NSW;Australia;10
75581 Express Center;4503;QLD;Australia;3
5 Fairfield Parkway;2557;NSW;Australia;8
47 Kensington Avenue;2650;NSW;Australia;4
9870 Brickson Park Trail;2216;NSW;Australia;8
3 Memorial Terrace;2234;NSW;Australia;10
4559 Sundown Trail;2148;NSW;Australia;8
45613 Meadow Valley Center;3976;VIC;Australia;6
2 Spaight Road;2210;NSW;Australia;10
59694 1st Crossing;4503;QLD;Australia;7
124 Fulton Crossing;4680;QLD;Australia;3
2800 Dottie Trail;3071;VIC;Australia;10
4 Mosinee Lane;4165;QLD;Australia;5
0799 Florence Street;2089;NSW;Australia;9
5882 American Ash Point;3214;VIC;Australia;3
13852 Burning Wood Terrace;2199;NSW;Australia;1
735 Eastlawn Place;4160;QLD;Australia;8
6 Sauthoff Court;2144;NSW;Australia;9
1788 Columbus Trail;4510;QLD;Australia;4
32705 Shelley Junction;3172;VIC;Australia;8
0 Delladonna Parkway;3189;VIC;Australia;10
79291 3rd Circle;2760;NSW;Australia;8
8 Bunting Hill;2155;NSW;Australia;10
63 School Plaza;2145;NSW;Australia;9
0134 Swallow Pass;3030;VIC;Australia;6
47204 Rigney Street;2770;NSW;Australia;6
9732 Swallow Way;2750;NSW;Australia;8
80 Cordelia Street;4061;QLD;Australia;5
88175 Center Road;2283;NSW;Australia;4
5 Muir Circle;2030;NSW;Australia;12
6 Tennyson Place;2138;NSW;Australia;9
698 Lunder Point;2016;NSW;Australia;10
5 Dixon Junction;2340;NSW;Australia;2
5890 Comanche Trail;3429;VIC;Australia;6
6621 Carberry Crossing;3083;VIC;Australia;8
322 Scott Plaza;2170;NSW;Australia;5
15811 La Follette Park;2770;NSW;Australia;7
67143 Bluejay Court;4214;QLD;Australia;8
966 Emmet Trail;3015;VIC;Australia;10
49530 Evergreen Lane;3163;VIC;Australia;10
9582 Fremont Center;2032;NSW;Australia;11
3 Declaration Circle;4350;QLD;Australia;7
8142 Tomscot Drive;4132;QLD;Australia;4
396 Sachs Road;2147;NSW;Australia;8
1 Melby Way;2527;NSW;Australia;7
53221 Namekagon Parkway;2557;NSW;Australia;9
6 Dovetail Circle;2200;NSW;Australia;9
67 Carioca Road;4211;QLD;Australia;9
63123 Merry Alley;4500;QLD;Australia;8
4478 Banding Way;2830;NSW;Australia;3
28928 Mariners Cove Pass;3040;VIC;Australia;11
3 Thierer Plaza;4815;QLD;Australia;1
9 Hauk Alley;3915;VIC;Australia;4
9045 Kings Avenue;4153;QLD;Australia;11
9 Barnett Street;4179;QLD;Australia;10
6779 Melrose Way;2450;NSW;Australia;7
42473 Sycamore Pass;3355;VIC;Australia;4
6631 Farragut Terrace;2148;NSW;Australia;6
886 Rusk Pass;2321;NSW;Australia;4
3 Bashford Plaza;2267;NSW;Australia;5
11 Sage Place;4055;QLD;Australia;7
26049 Straubel Point;2099;NSW;Australia;11
59929 West Alley;2026;NSW;Australia;10
94 Vernon Parkway;2762;NSW;Australia;9
8312 Dunning Crossing;3101;VIC;Australia;8
7 Novick Parkway;2160;NSW;Australia;5
02 Del Mar Center;4121;QLD;Australia;8
0 Shasta Terrace;2289;NSW;Australia;7
90 East Way;2145;NSW;Australia;8
2 Goodland Lane;3977;VIC;Australia;5
7 Vernon Lane;2232;NSW;Australia;10
9 Killdeer Avenue;4227;QLD;Australia;7
152 Larry Alley;2756;NSW;Australia;9
85 Hudson Street;2505;NSW;Australia;8
6672 Butternut Avenue;3458;VIC;Australia;6
43491 Jenifer Street;2750;NSW;Australia;7
47 Chinook Road;4421;QLD;Australia;2
3468 Rigney Place;3505;VIC;Australia;1
079 Katie Alley;3216;VIC;Australia;9
681 Butterfield Lane;2233;NSW;Australia;9
48 Laurel Parkway;4017;QLD;Australia;5
9115 Mockingbird Crossing;2145;NSW;Australia;6
2 Michigan Parkway;3006;VIC;Australia;5
24 Hermina Alley;2262;NSW;Australia;6
82237 Dapin Court;4570;QLD;Australia;4
1 Basil Street;4037;QLD;Australia;8
60650 Mcbride Point;3918;VIC;Australia;7
81 Lien Drive;3216;VIC;Australia;3
37353 Alpine Circle;2214;NSW;Australia;8
581 Granby Parkway;3025;VIC;Australia;8
3073 Golf View Terrace;4165;QLD;Australia;8
95 Riverside Way;2640;NSW;Australia;1
390 Meadow Vale Circle;2560;NSW;Australia;9
501 Reindahl Alley;2069;NSW;Australia;12
0 Mifflin Alley;4818;QLD;Australia;5
261 Mosinee Avenue;2335;NSW;Australia;5
57 Boyd Avenue;2287;NSW;Australia;7
9 Washington Drive;3079;VIC;Australia;9
48 Straubel Court;2400;NSW;Australia;1
70 Old Gate Avenue;3043;VIC;Australia;7
40062 Steensland Center;3977;VIC;Australia;6
39179 Bayside Terrace;3148;VIC;Australia;9
04488 Amoth Parkway;2036;NSW;Australia;8
259 Homewood Pass;2092;NSW;Australia;10
863 Crescent Oaks Hill;4215;QLD;Australia;1
353 Scott Road;2770;NSW;Australia;7
97 Randy Junction;2040;NSW;Australia;12
047 Northfield Trail;3127;VIC;Australia;12
0132 Merrick Way;2770;NSW;Australia;9
9248 Ludington Circle;2714;NSW;Australia;1
81 Forest Dale Center;3555;VIC;Australia;3
0 Blaine Point;3183;VIC;Australia;7
90 2nd Lane;2768;NSW;Australia;10
8718 Warner Avenue;2148;NSW;Australia;8
4 Mallory Hill;2880;NSW;Australia;1
29180 American Ash Circle;2560;NSW;Australia;9
6471 Meadow Valley Court;2097;NSW;Australia;11
9 Waxwing Pass;2008;NSW;Australia;11
8 Buell Crossing;2320;NSW;Australia;5
40 Rigney Street;2200;NSW;Australia;8
7035 Crest Line Place;3101;VIC;Australia;11
9129 Gale Court;4226;QLD;Australia;8
71109 Vernon Way;3350;VIC;Australia;4
883 Almo Terrace;3977;VIC;Australia;6
987 Victoria Trail;4006;QLD;Australia;8
7037 North Park;2484;NSW;Australia;6
93 Shasta Avenue;4171;QLD;Australia;10
9574 David Lane;3218;VIC;Australia;8
1 Del Sol Center;2323;NSW;Australia;3
38 Valley Edge Plaza;3095;VIC;Australia;10
004 Gulseth Junction;2619;NSW;Australia;8
503 Clove Crossing;4306;QLD;Australia;4
0346 Dayton Hill;2092;NSW;Australia;12
5 Derek Pass;2090;NSW;Australia;10
3417 Huxley Pass;3355;VIC;Australia;2
163 Gale Center;2077;NSW;Australia;10
09 Grim Lane;3752;VIC;Australia;4
31953 Dixon Way;2580;NSW;Australia;4
463 Rowland Drive;2066;NSW;Australia;9
054 Mesta Drive;3620;VIC;Australia;1
33550 Spohn Terrace;3630;VIC;Australia;1
953 Del Sol Point;3630;VIC;Australia;4
369 Milwaukee Court;3630;VIC;Australia;2
10055 Old Shore Lane;3630;VIC;Australia;1
018 Porter Court;3631;VIC;Australia;6
67 Elka Court;3630;VIC;Australia;3
5086 Meadow Ridge Circle;3350;VIC;Australia;7
66 Talmadge Terrace;3630;VIC;Australia;1
09356 Badeau Drive;3630;VIC;Australia;1
1032 Killdeer Place;3631;VIC;Australia;3
91 Ilene Parkway;3630;VIC;Australia;1
5015 Pawling Park;2525;NSW;Australia;9
5701 Sugar Court;2880;NSW;Australia;1
7 Melrose Circle;4017;QLD;Australia;5
33 Novick Parkway;2156;NSW;Australia;12
23 Village Way;4215;QLD;Australia;9
834 Pierstorff Lane;4228;QLD;Australia;10
974 Fisk Alley;3977;VIC;Australia;4
531 Springview Lane;3101;VIC;Australia;10
2 Nova Street;4228;QLD;Australia;8
3242 Arizona Junction;4101;QLD;Australia;10
4 Delaware Terrace;3804;VIC;Australia;8
1913 Magdeline Point;2022;NSW;Australia;12
54 Annamark Place;2565;NSW;Australia;8
84 Main Lane;3149;VIC;Australia;10
9 Lake View Avenue;3178;VIC;Australia;9
015 Fulton Pass;4568;QLD;Australia;8
00 Marcy Crossing;3115;VIC;Australia;9
0991 Commercial Road;4300;QLD;Australia;5
24198 Almo Crossing;2021;NSW;Australia;12
01268 Stuart Hill;2145;NSW;Australia;10
25139 Rockefeller Center;4350;QLD;Australia;2
159 Graceland Terrace;4343;QLD;Australia;1
0522 Nelson Crossing;4304;QLD;Australia;3
90609 Charing Cross Lane;2250;NSW;Australia;7
360 Troy Parkway;3223;VIC;Australia;6
08475 Shoshone Park;3116;VIC;Australia;9
44778 Bellgrove Crossing;3205;VIC;Australia;10
69444 Mccormick Junction;2539;NSW;Australia;9
64 Macpherson Junction;2208;NSW;Australia;11
386 Jay Junction;4218;QLD;Australia;3
496 Summit Road;2120;NSW;Australia;10
54970 Veith Hill;4125;QLD;Australia;7
33477 Trailsway Park;4818;QLD;Australia;5
92 Schlimgen Hill;3023;VIC;Australia;8
3 Talisman Court;3204;VIC;Australia;11
69893 Loomis Junction;2229;NSW;Australia;10
6505 Fieldstone Alley;4037;QLD;Australia;8
5 1st Park;2285;NSW;Australia;6
83 American Ash Drive;2261;NSW;Australia;8
94 Twin Pines Trail;2567;NSW;Australia;8
034 Eagan Avenue;2560;NSW;Australia;6
3 Mariners Cove Terrace;3108;VIC;Australia;10
2 Raven Way;3106;VIC;Australia;10
4527 Butterfield Circle;2076;NSW;Australia;9
366 Hovde Park;2566;NSW;Australia;8
2 Straubel Lane;2477;NSW;Australia;6
0 Butterfield Junction;2340;NSW;Australia;5
7174 Thackeray Point;2153;NSW;Australia;10
29 Portage Street;4070;QLD;Australia;7
35 Lakewood Gardens Junction;3806;VIC;Australia;9
5 Stoughton Parkway;2099;NSW;Australia;9
533 Ramsey Center;4507;QLD;Australia;5
694 Northwestern Court;2155;NSW;Australia;10
4 Huxley Alley;4070;QLD;Australia;8
03961 Sullivan Park;2114;NSW;Australia;12
1081 Laurel Park;2049;NSW;Australia;12
24 Corben Terrace;2164;NSW;Australia;8
99 Eastlawn Way;2360;NSW;Australia;1
6 Anniversary Place;2213;NSW;Australia;10
0866 Pennsylvania Junction;3181;VIC;Australia;10
2 Continental Park;3194;VIC;Australia;10
22774 Pennsylvania Hill;2262;NSW;Australia;6
9 Merrick Plaza;3138;VIC;Australia;8
52593 Iowa Place;2529;NSW;Australia;8
3 School Drive;4173;QLD;Australia;7
9292 Mcguire Plaza;2073;NSW;Australia;12
6 Graceland Court;4301;QLD;Australia;2
24 Lerdahl Street;4825;QLD;Australia;3
801 Kings Parkway;2227;NSW;Australia;10
89 Pawling Court;4020;QLD;Australia;7
89972 Graedel Point;2176;NSW;Australia;9
17123 Northport Circle;4223;QLD;Australia;9
20 Bluestem Way;4152;QLD;Australia;9
743 Stone Corner Parkway;4127;QLD;Australia;6
33 Prentice Street;2300;NSW;Australia;9
5 Columbus Crossing;3040;VIC;Australia;10
29 Basil Point;2284;NSW;Australia;5
1 Bay Pass;3219;VIC;Australia;5
89 Oak Hill;2508;NSW;Australia;10
03 Clarendon Way;2099;NSW;Australia;10
0 Gateway Road;3149;VIC;Australia;12
631 Fuller Parkway;3023;VIC;Australia;7
43898 Prentice Court;3025;VIC;Australia;9
2 Melody Alley;3172;VIC;Australia;8
01 Dunning Drive;2064;NSW;Australia;9
86686 Novick Center;3147;VIC;Australia;11
51 Leroy Place;2065;NSW;Australia;10
5390 Park Meadow Park;2222;NSW;Australia;10
4 Judy Park;2016;NSW;Australia;10
9 American Ash Plaza;2015;NSW;Australia;9
3 Riverside Drive;4034;QLD;Australia;8
25925 Service Crossing;2147;NSW;Australia;9
080 Pond Alley;2065;NSW;Australia;9
1816 Monument Park;3074;VIC;Australia;7
1 Nova Avenue;2200;NSW;Australia;9
98 Mesta Street;2038;NSW;Australia;11
7256 Forster Crossing;2533;NSW;Australia;8
249 Burning Wood Point;2758;NSW;Australia;8
12651 Lake View Point;4209;QLD;Australia;7
9501 Melby Avenue;4178;QLD;Australia;7
69810 Westridge Avenue;2573;NSW;Australia;6
422 Crownhardt Court;4179;QLD;Australia;7
4 Londonderry Junction;4159;QLD;Australia;7
7346 Luster Circle;4131;QLD;Australia;5
43 Commercial Road;4128;QLD;Australia;7
44083 Village Court;2142;NSW;Australia;7
57 Tennessee Alley;4034;QLD;Australia;5
57 Debra Terrace;2259;NSW;Australia;6
846 Carberry Street;4218;QLD;Australia;11
4 Center Park;3807;VIC;Australia;6
1 Coolidge Plaza;2150;NSW;Australia;7
544 Northland Place;2190;NSW;Australia;10
91 Norway Maple Hill;2065;NSW;Australia;11
5 Myrtle Trail;2285;NSW;Australia;5
645 Thackeray Street;4879;QLD;Australia;6
1439 Utah Court;2176;NSW;Australia;9
9 Hollow Ridge Circle;2500;NSW;Australia;8
4177 Bluejay Street;2560;NSW;Australia;8
75351 Ridgeview Lane;3181;VIC;Australia;11
4006 Algoma Crossing;2041;NSW;Australia;12
881 Debs Center;4051;QLD;Australia;8
423 Debra Terrace;3082;VIC;Australia;8
1369 Wayridge Terrace;3802;VIC;Australia;7
6142 Grayhawk Lane;2298;NSW;Australia;8
5 Steensland Hill;2768;NSW;Australia;10
37983 Logan Street;2154;NSW;Australia;11
31168 Messerschmidt Street;3024;VIC;Australia;5
240 Lake View Road;4118;QLD;Australia;5
290 Jay Drive;4210;QLD;Australia;3
1369 Morrow Plaza;3046;VIC;Australia;8
61976 Emmet Junction;2178;NSW;Australia;10
7585 Rutledge Trail;3161;VIC;Australia;9
9 Northwestern Pass;4879;QLD;Australia;6
16 Dwight Court;2154;NSW;Australia;10
4 Becker Center;2145;NSW;Australia;10
96 Hintze Point;2147;NSW;Australia;8
34222 Vera Circle;3240;VIC;Australia;7
338 Little Fleur Avenue;2170;NSW;Australia;9
57769 Gulseth Lane;2040;NSW;Australia;10
309 Shopko Center;4211;QLD;Australia;10
37 Roth Place;2144;NSW;Australia;10
618 Kropf Drive;2261;NSW;Australia;9
1966 Glendale Avenue;4207;QLD;Australia;4
401 Pond Circle;4019;QLD;Australia;7
582 Kropf Avenue;2032;NSW;Australia;11
2 Columbus Park;3075;VIC;Australia;7
99739 Coolidge Crossing;2760;NSW;Australia;7
75 Westerfield Park;4570;QLD;Australia;1
62842 Pearson Point;2508;NSW;Australia;9
78426 Fulton Plaza;4223;QLD;Australia;9
336 Service Pass;2073;NSW;Australia;11
4 Northridge Center;2076;NSW;Australia;11
8 Superior Court;3174;VIC;Australia;5
8147 Dapin Hill;2280;NSW;Australia;8
047 Kedzie Park;2206;NSW;Australia;11
9346 Sunfield Plaza;2671;NSW;Australia;1
11 Dunning Pass;2219;NSW;Australia;10
67 Crowley Drive;3216;VIC;Australia;4
76 Schiller Pass;4455;QLD;Australia;3
71761 Almo Street;4178;QLD;Australia;7
4898 Buell Terrace;3043;VIC;Australia;7
6 Morningstar Way;2165;NSW;Australia;7
15 Shelley Hill;2164;NSW;Australia;8
1556 Sheridan Hill;4165;QLD;Australia;5
6568 Northridge Pass;3029;VIC;Australia;6
4694 Carioca Court;4060;QLD;Australia;10
6 Ryan Drive;2165;NSW;Australia;10
975 Annamark Hill;4034;QLD;Australia;6
40 Ilene Drive;3690;VIC;Australia;1
60 Sycamore Lane;2148;NSW;Australia;9
8439 Katie Crossing;3028;VIC;Australia;8
22 Hayes Center;3156;VIC;Australia;10
3126 Butterfield Pass;2573;NSW;Australia;8
0 Moulton Plaza;2761;NSW;Australia;8
188 Carberry Point;4650;QLD;Australia;1
083 Farragut Avenue;2540;NSW;Australia;7
62052 Loomis Avenue;4014;QLD;Australia;8
49 Talmadge Trail;2036;NSW;Australia;11
6247 Crest Line Terrace;2250;NSW;Australia;8
77 Armistice Alley;2208;NSW;Australia;10
572 Meadow Ridge Drive;3160;VIC;Australia;7
7 Mcguire Terrace;3754;VIC;Australia;6
70 Erie Street;4814;QLD;Australia;2
3 Talisman Place;4017;QLD;Australia;5
567 Scott Park;4118;QLD;Australia;5
9248 Sugar Terrace;2530;NSW;Australia;9
13 Tennyson Point;4370;QLD;Australia;6
88540 Scoville Plaza;3195;VIC;Australia;9
22779 Graedel Road;4655;QLD;Australia;2
51800 Meadow Vale Point;3023;VIC;Australia;7
1 Trailsway Lane;2145;NSW;Australia;9
65662 Haas Trail;2560;NSW;Australia;7
0 Union Plaza;2444;NSW;Australia;7
1 Forster Junction;2880;NSW;Australia;1
24877 3rd Circle;2063;NSW;Australia;12
34797 Londonderry Trail;3806;VIC;Australia;7
24649 Kennedy Street;2114;NSW;Australia;8
9 Spaight Place;2102;NSW;Australia;9
711 Hayes Court;2120;NSW;Australia;10
30624 John Wall Point;3101;VIC;Australia;7
46 Victoria Center;2770;NSW;Australia;9
99 Blackbird Court;2203;NSW;Australia;11
00 Rutledge Alley;2166;NSW;Australia;9
719 Vahlen Way;2560;NSW;Australia;8
02 Declaration Lane;4551;QLD;Australia;7
9366 Judy Alley;4171;QLD;Australia;9
07623 Mandrake Trail;2093;NSW;Australia;11
050 Buell Lane;4055;QLD;Australia;7
556 Gale Road;4165;QLD;Australia;6
24 Helena Alley;2566;NSW;Australia;9
77410 Bluejay Street;3046;VIC;Australia;9
62 Doe Crossing Junction;2760;NSW;Australia;7
7 Lake View Street;4060;QLD;Australia;9
30 Redwing Pass;2112;NSW;Australia;11
99488 Mccormick Terrace;2207;NSW;Australia;11
60 Banding Terrace;2880;NSW;Australia;1
6220 Sugar Court;2300;NSW;Australia;8
53 Anthes Point;4341;QLD;Australia;2
0 Mosinee Lane;3250;VIC;Australia;4
9 Caliangt Park;2087;NSW;Australia;11
0192 Ridgeview Terrace;4655;QLD;Australia;6
6534 New Castle Plaza;2033;NSW;Australia;12
6 Hoard Plaza;3111;VIC;Australia;10
440 Shasta Crossing;2118;NSW;Australia;10
1127 Artisan Parkway;4070;QLD;Australia;5
23478 Ramsey Pass;2760;NSW;Australia;6
5 Warbler Avenue;3071;VIC;Australia;10
685 International Lane;4825;QLD;Australia;2
6188 Anniversary Circle;4551;QLD;Australia;6
3 American Ash Parkway;3342;VIC;Australia;7
9 Trailsway Court;2262;NSW;Australia;9
9 Oak Park;4205;QLD;Australia;4
82 Lukken Lane;2190;NSW;Australia;10
88551 Hollow Ridge Pass;3500;VIC;Australia;2
283 Claremont Hill;2138;NSW;Australia;9
633 Menomonie Junction;3523;VIC;Australia;2
3 Myrtle Terrace;4161;QLD;Australia;7
3 Park Meadow Drive;3023;VIC;Australia;7
2757 Green Ridge Circle;2567;NSW;Australia;8
46 Dawn Way;2340;NSW;Australia;5
53723 Dunning Street;2153;NSW;Australia;11
671 Mallory Pass;2177;NSW;Australia;8
025 Knutson Terrace;2350;NSW;Australia;3
778 Cambridge Street;4209;QLD;Australia;4
601 Dryden Way;2264;NSW;Australia;7
3144 Ruskin Trail;2046;NSW;Australia;11
94554 Derek Trail;2009;NSW;Australia;10
0166 Stephen Drive;2785;NSW;Australia;7
49 Sheridan Circle;2560;NSW;Australia;7
6865 Duke Trail;2234;NSW;Australia;10
2 Larry Trail;2207;NSW;Australia;8
1 Straubel Alley;2117;NSW;Australia;10
440 Ronald Regan Pass;2261;NSW;Australia;7
709 Rieder Terrace;3995;VIC;Australia;2
688 Kropf Circle;3351;VIC;Australia;5
5463 Arapahoe Point;4503;QLD;Australia;4
12 Fairfield Parkway;3029;VIC;Australia;7
01 Burning Wood Terrace;2323;NSW;Australia;9
92427 Norway Maple Street;3000;VIC;Australia;6
35 Shelley Court;3156;VIC;Australia;8
25 Coleman Circle;2214;NSW;Australia;9
463 Atwood Court;4160;QLD;Australia;7
8561 Alpine Center;2380;NSW;Australia;3
48 Lighthouse Bay Point;2430;NSW;Australia;7
0 Dunning Plaza;2462;NSW;Australia;2
255 Bonner Lane;3076;VIC;Australia;8
02485 Bellgrove Road;3015;VIC;Australia;9
3934 Karstens Circle;2650;NSW;Australia;2
583 Eagle Crest Road;2000;NSW;Australia;8
67 Lerdahl Parkway;4670;QLD;Australia;1
0 Truax Trail;3677;VIC;Australia;5
65 Waxwing Drive;2121;NSW;Australia;11
1 Mendota Drive;2107;NSW;Australia;11
4821 Schlimgen Avenue;2007;NSW;Australia;11
54 Miller Parkway;3041;VIC;Australia;8
4 Barby Avenue;2705;NSW;Australia;5
084 Brickson Park Park;3177;VIC;Australia;5
147 Golden Leaf Pass;2061;NSW;Australia;10
457 Merry Pass;4812;QLD;Australia;3
94 Marquette Way;2010;NSW;Australia;11
711 Summerview Junction;2075;NSW;Australia;10
22 Debs Point;2233;NSW;Australia;9
15952 Mockingbird Court;2470;NSW;Australia;3
18 Towne Way;2171;NSW;Australia;9
55501 Sugar Street;2548;NSW;Australia;7
80 Cambridge Plaza;2159;NSW;Australia;11
71725 Goodland Lane;4509;QLD;Australia;7
7282 Prairie Rose Trail;3184;VIC;Australia;9
63785 Anthes Circle;3260;VIC;Australia;1
6 Loomis Trail;2099;NSW;Australia;11
6551 Atwood Road;4216;QLD;Australia;7
258 Bunker Hill Hill;2138;NSW;Australia;8
592 Oak Valley Center;2534;NSW;Australia;9
83441 Donald Pass;4565;QLD;Australia;7
9106 Thompson Hill;2032;NSW;Australia;8
0671 Vera Drive;4812;QLD;Australia;5
50 Londonderry Park;2034;NSW;Australia;10
1817 Bluejay Avenue;4218;QLD;Australia;10
27 Grayhawk Alley;2102;NSW;Australia;11
5342 Hallows Lane;2021;NSW;Australia;12
303 Michigan Avenue;3977;VIC;Australia;5
6 Forest Avenue;2870;NSW;Australia;4
3 Pennsylvania Terrace;2197;NSW;Australia;9
755 Ramsey Terrace;4152;QLD;Australia;6
33782 Doe Crossing Terrace;2280;NSW;Australia;7
97 Waxwing Terrace;4217;QLD;Australia;10
2 Marquette Drive;2204;NSW;Australia;8
357 Elgar Alley;3910;VIC;Australia;9
37258 Stephen Place;4116;QLD;Australia;9
9 Cambridge Junction;2315;NSW;Australia;7
10 American Alley;2066;NSW;Australia;12
84 Stuart Lane;3146;VIC;Australia;11
6 Carioca Avenue;3185;VIC;Australia;9
75688 Maple Court;3618;VIC;Australia;1
906 Toban Lane;2093;NSW;Australia;10
76085 Eagan Crossing;3071;VIC;Australia;10
28634 Nova Circle;3127;VIC;Australia;12
34 Colorado Pass;2287;NSW;Australia;6
1031 Kennedy Way;4507;QLD;Australia;7
23426 Transport Center;2218;NSW;Australia;10
20 Del Mar Circle;2450;NSW;Australia;9
3024 Butternut Crossing;2087;NSW;Australia;11
93124 Monterey Plaza;3000;VIC;Australia;7
51313 Fulton Junction;2580;NSW;Australia;7
889 Sundown Trail;2162;NSW;Australia;9
55590 Ridgeview Court;2147;NSW;Australia;9
2271 Fordem Plaza;2780;NSW;Australia;8
25 Parkside Terrace;4570;QLD;Australia;3
61 Northfield Pass;2190;NSW;Australia;10
536 Crowley Crossing;2167;NSW;Australia;7
0 Erie Lane;4405;QLD;Australia;1
9837 Granby Alley;2445;NSW;Australia;7
8 Lake View Way;3977;VIC;Australia;7
1567 Schiller Street;3810;VIC;Australia;6
6 Warbler Road;2462;NSW;Australia;5
383 Little Fleur Circle;2753;NSW;Australia;7
804 Shelley Junction;2567;NSW;Australia;7
2 Beilfuss Plaza;2000;NSW;Australia;9
78019 Manley Center;2304;NSW;Australia;5
34 Warrior Trail;2759;NSW;Australia;8
688 Straubel Junction;2113;NSW;Australia;9
1945 Loomis Alley;2871;NSW;Australia;1
87 Elka Terrace;2034;NSW;Australia;12
13 Dexter Lane;3279;VIC;Australia;8
701 Talisman Crossing;2000;NSW;Australia;10
518 Colorado Trail;2100;NSW;Australia;10
3 Forest Dale Lane;2100;NSW;Australia;11
9 Huxley Hill;4503;QLD;Australia;6
55 Fordem Street;3147;VIC;Australia;10
52753 Logan Hill;2031;NSW;Australia;12
3 Old Gate Hill;4106;QLD;Australia;5
42 Manitowish Hill;4352;QLD;Australia;5
008 6th Center;3141;VIC;Australia;7
78 Shasta Place;2135;NSW;Australia;12
40 Veith Circle;4701;QLD;Australia;1
10 Kedzie Pass;2770;NSW;Australia;7
736 Tomscot Center;4503;QLD;Australia;5
9521 Old Shore Trail;2769;NSW;Australia;10
99 Homewood Place;4213;QLD;Australia;8
6876 Mandrake Avenue;2298;NSW;Australia;6
16 Hudson Alley;2234;NSW;Australia;10
7163 2nd Point;3931;VIC;Australia;8
30 Parkside Terrace;2210;NSW;Australia;10
19 Fairview Road;4012;QLD;Australia;3
444 Spaight Crossing;3070;VIC;Australia;10
447 Delaware Park;3911;VIC;Australia;5
96 Dayton Park;2190;NSW;Australia;9
882 Mitchell Place;4151;QLD;Australia;4
68128 Leroy Street;4213;QLD;Australia;8
17 South Crossing;2770;NSW;Australia;7
648 Rigney Pass;2460;NSW;Australia;2
1 Ronald Regan Hill;2756;NSW;Australia;8
359 Briar Crest Road;2155;NSW;Australia;10
4543 Service Terrace;2566;NSW;Australia;8
0 Knutson Crossing;2151;NSW;Australia;8
28156 School Park;3188;VIC;Australia;10
920 Manley Crossing;4226;QLD;Australia;8
38 Armistice Lane;3250;VIC;Australia;2
6988 Waxwing Hill;4700;QLD;Australia;3
84 Southridge Lane;2799;NSW;Australia;2
8 Eagle Crest Circle;2137;NSW;Australia;12
571 Golf Alley;2650;NSW;Australia;5
52408 Autumn Leaf Road;3030;VIC;Australia;7
4 Loomis Hill;2527;NSW;Australia;7
1411 Jenifer Center;4670;QLD;Australia;3
336 Fordem Trail;2088;NSW;Australia;12
59 Hoepker Lane;3191;VIC;Australia;11
2864 Corscot Parkway;2756;NSW;Australia;8
4658 Tennessee Street;3121;VIC;Australia;11
53485 Sycamore Junction;3192;VIC;Australia;8
446 Warrior Pass;4740;QLD;Australia;5
25567 Linden Court;4564;QLD;Australia;8
111 Hooker Avenue;4860;QLD;Australia;2
51 Dixon Court;2570;NSW;Australia;8
16639 Bunting Circle;3174;VIC;Australia;8
40923 Truax Drive;2208;NSW;Australia;10
22 Moulton Place;4878;QLD;Australia;4
52541 Lakewood Gardens Court;3922;VIC;Australia;2
39746 Eliot Center;2177;NSW;Australia;9
7 Springview Lane;2256;NSW;Australia;6
8658 Maple Wood Plaza;3020;VIC;Australia;7
03 Old Shore Terrace;4078;QLD;Australia;7
99565 Warrior Alley;4510;QLD;Australia;3
718 Fair Oaks Point;2068;NSW;Australia;12
0 Little Fleur Avenue;4031;QLD;Australia;8
541 Southridge Trail;2067;NSW;Australia;12
77196 West Crossing;2166;NSW;Australia;8
7 Fordem Point;3057;VIC;Australia;7
58 Shelley Crossing;2570;NSW;Australia;8
41 Westport Center;3280;VIC;Australia;4
8598 Nova Parkway;2758;NSW;Australia;9
4826 Crowley Park;2779;NSW;Australia;7
3 Vermont Alley;2261;NSW;Australia;5
7107 Manitowish Road;4815;QLD;Australia;2
9304 Birchwood Junction;2070;NSW;Australia;12
91655 Rowland Point;4123;QLD;Australia;8
76 Aberg Hill;3028;VIC;Australia;6
6418 Sachs Trail;2810;NSW;Australia;1
86445 Bonner Junction;4660;QLD;Australia;3
9235 Walton Park;2095;NSW;Australia;11
18652 Springs Plaza;2259;NSW;Australia;7
29895 Crest Line Point;2049;NSW;Australia;11
65 Sunbrook Road;2284;NSW;Australia;4
75 Loftsgordon Hill;3147;VIC;Australia;11
122 Chinook Center;2112;NSW;Australia;11
6994 Hanson Place;2580;NSW;Australia;5
00662 Ludington Court;3228;VIC;Australia;9
62 Linden Drive;4209;QLD;Australia;4
831 Daystar Circle;2038;NSW;Australia;12
1 Forest Junction;2620;NSW;Australia;10
8 Bobwhite Court;3127;VIC;Australia;10
8941 Harbort Point;2148;NSW;Australia;9
3 Independence Street;4073;QLD;Australia;6
8 Holmberg Street;2444;NSW;Australia;7
15776 Thackeray Alley;2261;NSW;Australia;7
05 Lerdahl Place;4215;QLD;Australia;6
512 Forest Run Center;3188;VIC;Australia;11
304 Moland Street;3810;VIC;Australia;5
63 International Drive;4165;QLD;Australia;7
04 Schmedeman Court;2196;NSW;Australia;10
5705 Spaight Place;3067;VIC;Australia;9
81254 Buhler Trail;4740;QLD;Australia;2
27 Fuller Trail;2233;NSW;Australia;8
313 Mifflin Center;4504;QLD;Australia;5
18 Logan Alley;2159;NSW;Australia;11
86 Hansons Parkway;2211;NSW;Australia;8
8476 Village Green Park;2774;NSW;Australia;9
45454 Spenser Center;3149;VIC;Australia;12
28820 Monica Circle;2226;NSW;Australia;7
259 Summerview Center;4740;QLD;Australia;2
82206 Dennis Place;4124;QLD;Australia;8
5837 Hayes Court;2113;NSW;Australia;11
33297 Hoepker Way;2843;NSW;Australia;1
198 Garrison Pass;2767;NSW;Australia;8
77 Golf Course Junction;3027;VIC;Australia;8
5 Lakewood Gardens Court;2118;NSW;Australia;9
4320 Toban Avenue;2260;NSW;Australia;11
129 Mallory Junction;2196;NSW;Australia;10
68730 Hermina Place;3130;VIC;Australia;10
25 Ronald Regan Point;4035;QLD;Australia;7
79 Eggendart Trail;3977;VIC;Australia;8
744 Hazelcrest Way;2155;NSW;Australia;9
91973 Boyd Street;2287;NSW;Australia;7
2241 Pearson Plaza;4503;QLD;Australia;6
244 Burrows Center;3088;VIC;Australia;9
2992 Scott Hill;3046;VIC;Australia;8
5565 Park Meadow Trail;2155;NSW;Australia;9
68111 Bartillon Court;3995;VIC;Australia;3
18 School Alley;4655;QLD;Australia;3
8 Anderson Lane;2214;NSW;Australia;9
2121 Dapin Center;3977;VIC;Australia;7
5772 Ridgeway Place;3066;VIC;Australia;10
1 Wayridge Park;4301;QLD;Australia;1
10369 Sunbrook Way;4051;QLD;Australia;8
95 Meadow Valley Plaza;2203;NSW;Australia;9
14 Pennsylvania Alley;2225;NSW;Australia;10
9 Cascade Junction;2016;NSW;Australia;12
077 Clemons Road;2203;NSW;Australia;11
3 Buena Vista Crossing;2444;NSW;Australia;6
83007 Bartillon Lane;2830;NSW;Australia;4
542 Hayes Plaza;2750;NSW;Australia;9
0 Debs Lane;3204;VIC;Australia;7
23 Clyde Gallagher Alley;3840;VIC;Australia;1
75642 Kinsman Terrace;4014;QLD;Australia;8
9 Swallow Way;4115;QLD;Australia;7
39 Badeau Court;2572;NSW;Australia;8
0 Summit Trail;2287;NSW;Australia;5
5108 Springview Circle;2128;NSW;Australia;7
4362 Morningstar Place;4869;QLD;Australia;2
99 Alpine Lane;3064;VIC;Australia;7
39 Lindbergh Drive;2170;NSW;Australia;8
13392 Emmet Parkway;2171;NSW;Australia;9
526 Schiller Road;4157;QLD;Australia;7
677 Golden Leaf Junction;4054;QLD;Australia;6
59901 Bartelt Terrace;4069;QLD;Australia;9
3 Cordelia Place;3018;VIC;Australia;9
282 Esker Crossing;3150;VIC;Australia;10
724 West Park;2112;NSW;Australia;11
942 Elmside Street;2763;NSW;Australia;8
11 Manufacturers Junction;2170;NSW;Australia;8
03 Ohio Lane;3081;VIC;Australia;9
19 Del Mar Avenue;3058;VIC;Australia;8
01209 Southridge Hill;2216;NSW;Australia;8
4903 Hoepker Terrace;3500;VIC;Australia;3
149 Browning Terrace;2343;NSW;Australia;2
48948 Little Fleur Alley;3134;VIC;Australia;7
4 Rieder Drive;3064;VIC;Australia;5
7 Sunbrook Terrace;2200;NSW;Australia;9
28905 Hallows Avenue;2320;NSW;Australia;5
9677 Hagan Lane;3212;VIC;Australia;3
07526 Union Lane;3377;VIC;Australia;1
53245 Mesta Street;3207;VIC;Australia;6
2 Elka Trail;2770;NSW;Australia;8
4672 Morningstar Circle;2760;NSW;Australia;7
3140 Hudson Road;3130;VIC;Australia;5
441 Superior Junction;2320;NSW;Australia;6
1 Elgar Street;2010;NSW;Australia;9
46 Independence Parkway;3065;VIC;Australia;12
453 Gina Avenue;3141;VIC;Australia;8
32 Banding Center;2141;NSW;Australia;9
5636 Glendale Point;2769;NSW;Australia;10
64 Village Green Pass;2048;NSW;Australia;9
46100 Jay Place;4075;QLD;Australia;6
69490 Orin Trail;3029;VIC;Australia;5
515 Warrior Pass;4226;QLD;Australia;9
6137 Scoville Center;2120;NSW;Australia;10
01 Vernon Court;4500;QLD;Australia;4
4 American Ash Circle;2211;NSW;Australia;10
68 Roth Crossing;2295;NSW;Australia;8
859 Harbort Alley;2099;NSW;Australia;11
99216 Oakridge Hill;3124;VIC;Australia;12
82010 Lakewood Center;2770;NSW;Australia;6
643 Clyde Gallagher Road;3107;VIC;Australia;10
6970 Almo Court;2049;NSW;Australia;9
9 Springview Terrace;3121;VIC;Australia;10
46631 School Road;2099;NSW;Australia;11
54 Green Point;3015;VIC;Australia;10
28014 Kings Park;2300;NSW;Australia;8
8612 Kennedy Alley;3149;VIC;Australia;10
82 Vermont Street;2021;NSW;Australia;12
92610 Sutherland Place;3140;VIC;Australia;8
2038 Esker Road;2650;NSW;Australia;4
33 Norway Maple Street;2760;NSW;Australia;7
72297 Sutherland Junction;2560;NSW;Australia;8
7827 Spohn Court;2093;NSW;Australia;9
77 Gulseth Lane;3181;VIC;Australia;8
50469 Shelley Avenue;4350;QLD;Australia;8
9695 Northland Pass;2450;NSW;Australia;7
3619 Elgar Terrace;3337;VIC;Australia;3
7 Buhler Drive;2142;NSW;Australia;7
4589 Lien Terrace;2068;NSW;Australia;12
37 Darwin Circle;2282;NSW;Australia;8
20 Carberry Circle;2165;NSW;Australia;7
082 Twin Pines Avenue;4270;QLD;Australia;7
1946 Golf Course Hill;3156;VIC;Australia;10
48418 Crescent Oaks Court;2770;NSW;Australia;9
9 Steensland Center;3103;VIC;Australia;12
5 Golf Course Street;2300;NSW;Australia;8
70 Shopko Drive;2487;NSW;Australia;9
11035 Toban Lane;2770;NSW;Australia;8
35 Eastwood Plaza;3163;VIC;Australia;9
52 Ruskin Pass;2089;NSW;Australia;10
3306 Bartelt Alley;2323;NSW;Australia;4
9179 Esker Park;2155;NSW;Australia;10
57 Village Green Center;2077;NSW;Australia;10
352 Roth Street;4300;QLD;Australia;6
0555 Tomscot Plaza;2044;NSW;Australia;10
3519 Schurz Alley;4034;QLD;Australia;7
221 Autumn Leaf Trail;2564;NSW;Australia;7
12689 Logan Terrace;4154;QLD;Australia;9
4623 Anniversary Terrace;2031;NSW;Australia;10
69 Dexter Parkway;2460;NSW;Australia;3
3 Vermont Junction;3757;VIC;Australia;6
6804 Red Cloud Parkway;2099;NSW;Australia;9
6 Haas Park;2750;NSW;Australia;7
72 Ludington Circle;2770;NSW;Australia;6
558 Grayhawk Circle;2086;NSW;Australia;10
04470 Mcguire Trail;2070;NSW;Australia;9
10434 Melby Pass;2200;NSW;Australia;7
60717 Farmco Center;2047;NSW;Australia;12
78814 Sundown Drive;4810;QLD;Australia;8
62293 Raven Parkway;2486;NSW;Australia;8
08 Monterey Avenue;3043;VIC;Australia;7
2241 Bonner Trail;4221;QLD;Australia;9
7 Bartillon Junction;2044;NSW;Australia;10
463 Bultman Crossing;4211;QLD;Australia;5
12574 Truax Alley;2316;NSW;Australia;6
77433 Sunfield Court;3179;VIC;Australia;9
8647 La Follette Court;2067;NSW;Australia;9
8750 Corben Trail;2089;NSW;Australia;11
8250 Johnson Point;4115;QLD;Australia;3
4 Vahlen Alley;2756;NSW;Australia;8
8369 Golf Court;2777;NSW;Australia;9
17 Sachs Street;2761;NSW;Australia;8
53683 Arapahoe Parkway;2121;NSW;Australia;11
177 Forest Run Crossing;2046;NSW;Australia;10
5674 Superior Point;2528;NSW;Australia;7
37595 Packers Terrace;3064;VIC;Australia;5
63 Bayside Center;2018;NSW;Australia;11
32 Calypso Park;2481;NSW;Australia;11
4 Ilene Street;2145;NSW;Australia;7
289 Lerdahl Terrace;2763;NSW;Australia;8
666 Holy Cross Parkway;4818;QLD;Australia;4
5 Forster Center;2075;NSW;Australia;9
2072 Fremont Parkway;3082;VIC;Australia;4
17 Dapin Avenue;3189;VIC;Australia;10
552 Talisman Circle;2250;NSW;Australia;7
75717 Bartillon Road;2880;NSW;Australia;1
0 Caliangt Pass;2530;NSW;Australia;7
848 Cascade Alley;4301;QLD;Australia;3
59231 Claremont Place;2170;NSW;Australia;9
493 Calypso Center;2170;NSW;Australia;8
25 Schlimgen Terrace;2211;NSW;Australia;9
38 Thompson Plaza;2452;NSW;Australia;5
72850 Lotheville Junction;2480;NSW;Australia;4
0 Lakeland Pass;3195;VIC;Australia;10
8188 Fuller Hill;3175;VIC;Australia;8
6815 South Junction;3198;VIC;Australia;9
46418 Hauk Pass;3184;VIC;Australia;10
3 Nancy Circle;3106;VIC;Australia;10
7916 Clyde Gallagher Place;2075;NSW;Australia;11
24913 Twin Pines Terrace;3350;VIC;Australia;5
3 Barnett Way;2763;NSW;Australia;9
928 Laurel Circle;4868;QLD;Australia;4
2 Blue Bill Park Lane;4220;QLD;Australia;8
937 Sloan Center;4118;QLD;Australia;6
66 Arrowood Court;4551;QLD;Australia;8
11 Glendale Court;4121;QLD;Australia;9
7066 Sunbrook Terrace;2299;NSW;Australia;8
210 Prairie Rose Hill;4060;QLD;Australia;9
2 Jackson Way;4210;QLD;Australia;4
3957 American Ash Plaza;2440;NSW;Australia;2
90 Nobel Way;3166;VIC;Australia;10
00 Heath Road;2259;NSW;Australia;8
970 Randy Crossing;4005;QLD;Australia;12
723 Center Court;3933;VIC;Australia;11
423 Golf Point;2044;NSW;Australia;10
415 Walton Lane;4883;QLD;Australia;3
51 Bay Junction;2081;NSW;Australia;10
16673 Pawling Point;4702;QLD;Australia;5
2875 Anhalt Court;4570;QLD;Australia;3
7561 Donald Center;3810;VIC;Australia;5
13282 Pond Circle;2471;NSW;Australia;2
1 Farwell Center;2199;NSW;Australia;9
7 New Castle Terrace;2223;NSW;Australia;10
572 Spohn Drive;3046;VIC;Australia;8
53 Hintze Circle;4005;QLD;Australia;7
72 Buell Pass;2200;NSW;Australia;9
5748 Walton Court;4114;QLD;Australia;3
692 Anniversary Junction;4207;QLD;Australia;1
5060 Donald Park;2539;NSW;Australia;5
7 Debs Park;4157;QLD;Australia;3
797 Orin Terrace;2119;NSW;Australia;10
978 Dennis Way;2233;NSW;Australia;9
4 Glendale Crossing;3148;VIC;Australia;10
64107 Little Fleur Trail;4211;QLD;Australia;3
68473 Leroy Avenue;4105;QLD;Australia;9
321 Muir Crossing;3175;VIC;Australia;5
984 Hoepker Court;3064;VIC;Australia;6
24 Green Parkway;3437;VIC;Australia;8
10 Kensington Avenue;2117;NSW;Australia;10
75848 Ohio Lane;3037;VIC;Australia;7
3 New Castle Terrace;3032;VIC;Australia;8
7 Blue Bill Park Lane;2765;NSW;Australia;9
8007 Dawn Terrace;2166;NSW;Australia;9
02555 Sloan Way;2259;NSW;Australia;8
337 Brentwood Pass;2529;NSW;Australia;8
4052 Katie Court;4300;QLD;Australia;5
3 Comanche Court;2537;NSW;Australia;4
8 Roxbury Way;3031;VIC;Australia;8
860 Banding Terrace;2029;NSW;Australia;11
5 Knutson Crossing;2114;NSW;Australia;10
9217 Bashford Parkway;2023;NSW;Australia;10
197 Goodland Crossing;2320;NSW;Australia;5
373 Hayes Terrace;2010;NSW;Australia;9
3673 Jenna Center;4301;QLD;Australia;3
8 Glendale Terrace;4014;QLD;Australia;8
22239 Waubesa Way;2763;NSW;Australia;9
6604 Hansons Court;2760;NSW;Australia;8
6 Weeping Birch Pass;2064;NSW;Australia;12
2126 Debra Point;2127;NSW;Australia;9
726 Erie Center;3106;VIC;Australia;11
98 Tomscot Center;3442;VIC;Australia;7
26223 Warrior Terrace;2204;NSW;Australia;9
85 Kim Way;3140;VIC;Australia;9
0338 Oakridge Crossing;3030;VIC;Australia;4
3 Hudson Circle;2250;NSW;Australia;9
8594 Warner Park;3053;VIC;Australia;6
6136 Farragut Plaza;3181;VIC;Australia;6
9 7th Pass;2760;NSW;Australia;9
1 Graceland Trail;3195;VIC;Australia;9
64 Northview Pass;3163;VIC;Australia;9
0 Hayes Hill;2106;NSW;Australia;11
3 Mariners Cove Terrace;2216;NSW;Australia;10
130 Thompson Plaza;2199;NSW;Australia;9
23812 Tony Lane;2036;NSW;Australia;8
3206 Debs Point;3071;VIC;Australia;10
60 Fulton Trail;2234;NSW;Australia;10
3 Lukken Road;2066;NSW;Australia;12
424 Almo Junction;2830;NSW;Australia;4
9610 Gateway Trail;3429;VIC;Australia;5
00 Cordelia Trail;2138;NSW;Australia;9
5 Shelley Pass;2763;NSW;Australia;8
24 Old Shore Crossing;2250;NSW;Australia;7
93 Lawn Road;4212;QLD;Australia;7
09 Texas Plaza;4285;QLD;Australia;3
99 Lawn Court;4556;QLD;Australia;7
4 Loftsgordon Avenue;3023;VIC;Australia;8
0 Lakewood Street;2144;NSW;Australia;10
2 Hagan Hill;2155;NSW;Australia;10
673 Comanche Parkway;2470;NSW;Australia;2
78 Algoma Circle;2166;NSW;Australia;8
9 Swallow Avenue;3179;VIC;Australia;9
90 Loftsgordon Plaza;2216;NSW;Australia;10
921 Reinke Road;2529;NSW;Australia;7
5913 Ramsey Road;2478;NSW;Australia;10
91 Jay Drive;2560;NSW;Australia;7
72 Dennis Road;3805;VIC;Australia;7
90 Darwin Crossing;2767;NSW;Australia;8
54 Nevada Plaza;2096;NSW;Australia;12
8003 Pepper Wood Way;3250;VIC;Australia;2
399 Butterfield Crossing;4115;QLD;Australia;7
26378 Esch Junction;2065;NSW;Australia;10
2942 Swallow Trail;4214;QLD;Australia;9
7 Anzinger Drive;2745;NSW;Australia;10
885 Larry Park;3140;VIC;Australia;9
95 Sutteridge Crossing;2567;NSW;Australia;9
13 Alpine Lane;2228;NSW;Australia;9
2 Scott Pass;4870;QLD;Australia;1
7 Debra Point;3175;VIC;Australia;4
27 Schlimgen Way;4116;QLD;Australia;8
238 New Castle Alley;2166;NSW;Australia;9
010 Stuart Way;3056;VIC;Australia;6
7609 Jackson Terrace;2155;NSW;Australia;11
520 Parkside Lane;2164;NSW;Australia;9
7046 Fairview Place;4510;QLD;Australia;3
7 Scoville Trail;4304;QLD;Australia;2
31435 Eagle Crest Drive;2230;NSW;Australia;10
4 Crescent Oaks Alley;2541;NSW;Australia;5
50 7th Circle;4305;QLD;Australia;1
7 Lerdahl Court;4207;QLD;Australia;6
677 Eagan Trail;3183;VIC;Australia;7
638 Browning Terrace;3079;VIC;Australia;6
731 Haas Trail;2125;NSW;Australia;11
2 Grim Court;2168;NSW;Australia;8
01654 Milwaukee Plaza;2000;NSW;Australia;11
42 Arizona Pass;4510;QLD;Australia;5
94611 Cascade Parkway;2763;NSW;Australia;8
1 Melrose Lane;2010;NSW;Australia;9
88537 Erie Court;4211;QLD;Australia;7
5649 Crest Line Place;4455;QLD;Australia;2
05 2nd Point;2217;NSW;Australia;8
4 Jenifer Hill;3147;VIC;Australia;12
5999 Waxwing Lane;4511;QLD;Australia;1
5444 Corry Pass;2761;NSW;Australia;8
85 Northland Circle;2077;NSW;Australia;10
80302 Stang Parkway;3677;VIC;Australia;1
529 Monterey Street;3338;VIC;Australia;3
6 Westend Center;2546;NSW;Australia;6
9357 Dennis Park;2010;NSW;Australia;11
75 Hansons Alley;2260;NSW;Australia;9
274 Ludington Trail;2428;NSW;Australia;5
6 Service Parkway;4275;QLD;Australia;3
99142 Eastwood Way;4870;QLD;Australia;6
0264 Birchwood Plaza;3802;VIC;Australia;8
40 Bowman Crossing;2031;NSW;Australia;10
6354 Briar Crest Road;2022;NSW;Australia;12
83 Sunfield Hill;3216;VIC;Australia;7
44 Northridge Plaza;2166;NSW;Australia;8
11 Farragut Junction;2530;NSW;Australia;8
6 Westport Road;4350;QLD;Australia;2
922 Mccormick Circle;4509;QLD;Australia;6
9317 Mendota Parkway;3064;VIC;Australia;8
8303 Mallard Center;2234;NSW;Australia;11
4 Gateway Court;3107;VIC;Australia;10
2178 Washington Hill;3806;VIC;Australia;6
0330 Vahlen Trail;3072;VIC;Australia;7
4351 Maywood Hill;3551;VIC;Australia;4
537 Amoth Center;2220;NSW;Australia;9
23384 Kings Drive;2261;NSW;Australia;9
6269 Oak Valley Avenue;2323;NSW;Australia;5
74910 Burning Wood Junction;3132;VIC;Australia;10
6278 Old Shore Parkway;2250;NSW;Australia;9
08180 Golf Park;3068;VIC;Australia;8
1944 Charing Cross Junction;2126;NSW;Australia;10
25578 Mayfield Drive;2099;NSW;Australia;10
9 Rieder Avenue;2798;NSW;Australia;6
45201 Atwood Place;2176;NSW;Australia;9
0680 Veith Court;3939;VIC;Australia;8
53 Dunning Lane;3024;VIC;Australia;6
837 Elmside Center;2761;NSW;Australia;8
57863 Pond Avenue;2773;NSW;Australia;9
41205 Straubel Place;4305;QLD;Australia;4
52 Steensland Place;3910;VIC;Australia;8
00183 Arapahoe Pass;4116;QLD;Australia;7
233 Toban Alley;2567;NSW;Australia;8
5 Lotheville Parkway;2760;NSW;Australia;8
7 Westridge Terrace;4504;QLD;Australia;7
98978 Nevada Circle;3020;VIC;Australia;8
9503 Aberg Drive;3021;VIC;Australia;7
4 Bayside Place;4508;QLD;Australia;4
06 Lighthouse Bay Pass;3042;VIC;Australia;9
67241 Heath Way;2151;NSW;Australia;8
65620 Michigan Way;3141;VIC;Australia;10
3075 Victoria Drive;2290;NSW;Australia;7
0 Stephen Lane;2170;NSW;Australia;5
148 Marcy Pass;4301;QLD;Australia;4
5406 Mockingbird Center;4870;QLD;Australia;7
07 Loeprich Junction;2101;NSW;Australia;11
6 Kings Avenue;2135;NSW;Australia;12
9 John Wall Parkway;2323;NSW;Australia;6
32304 Larry Road;4014;QLD;Australia;7
9 Dryden Crossing;4118;QLD;Australia;3
146 Dakota Pass;4017;QLD;Australia;7
11171 Rigney Court;2770;NSW;Australia;6
2 Vidon Center;4818;QLD;Australia;3
1742 Scott Center;4670;QLD;Australia;2
451 Luster Hill;2170;NSW;Australia;9
03287 Hallows Center;4305;QLD;Australia;3
7208 Old Gate Avenue;2112;NSW;Australia;11
944 Becker Road;3162;VIC;Australia;11
904 Doe Crossing Terrace;2194;NSW;Australia;7
7285 Waxwing Pass;2620;NSW;Australia;5
3538 Bunting Hill;3805;VIC;Australia;7
979 Victoria Junction;3156;VIC;Australia;8
073 Fremont Alley;3805;VIC;Australia;7
81183 Maple Wood Plaza;4152;QLD;Australia;8
6620 Elmside Drive;4118;QLD;Australia;9
4 Shopko Circle;2196;NSW;Australia;5
969 Sycamore Point;2304;NSW;Australia;7
96073 Erie Place;2763;NSW;Australia;9
6915 Nobel Crossing;2195;NSW;Australia;6
32 Elmside Point;2560;NSW;Australia;6
54294 Hovde Court;2500;NSW;Australia;8
98 Grover Street;3048;VIC;Australia;5
4753 Sheridan Center;3048;VIC;Australia;6
6958 Knutson Pass;3620;VIC;Australia;1
0 Stephen Park;4702;QLD;Australia;2
3126 Bayside Hill;4503;QLD;Australia;4
98202 Holmberg Way;3149;VIC;Australia;10
33794 Sommers Crossing;2502;NSW;Australia;6
21 2nd Pass;2566;NSW;Australia;8
981 Kinsman Crossing;2880;NSW;Australia;1
1617 Harper Parkway;2096;NSW;Australia;10
73907 Fallview Point;2250;NSW;Australia;7
99 Linden Trail;3195;VIC;Australia;8
409 Bobwhite Road;2226;NSW;Australia;10
24712 Hazelcrest Lane;3024;VIC;Australia;7
3 Canary Center;2040;NSW;Australia;10
5310 Mosinee Crossing;4151;QLD;Australia;9
13 Basil Lane;2036;NSW;Australia;9
332 Summerview Park;3000;VIC;Australia;8
7435 Monument Road;3807;VIC;Australia;9
3 Cody Trail;2010;NSW;Australia;7
07084 Mallory Center;2428;NSW;Australia;5
502 John Wall Pass;3199;VIC;Australia;7
90880 Donald Lane;2519;NSW;Australia;9
48007 Lakewood Hill;3141;VIC;Australia;10
039 Havey Alley;2220;NSW;Australia;9
32798 Melby Center;4055;QLD;Australia;8
0250 Onsgard Center;4034;QLD;Australia;7
121 Anniversary Lane;2200;NSW;Australia;9
0 Warrior Alley;2021;NSW;Australia;10
5323 Chive Avenue;2486;NSW;Australia;7
63663 Darwin Crossing;2565;NSW;Australia;10
16 Hansons Hill;2454;NSW;Australia;7
64 Quincy Alley;4170;QLD;Australia;9
541 Ramsey Alley;3201;VIC;Australia;7
9890 Macpherson Drive;2224;NSW;Australia;10
40 Erie Plaza;3138;VIC;Australia;9
8 Clarendon Circle;2121;NSW;Australia;11
55152 Delaware Park;2151;NSW;Australia;10
09 Mitchell Terrace;2166;NSW;Australia;9
49956 Hovde Crossing;2745;NSW;Australia;9
1 Glacier Hill Parkway;2017;NSW;Australia;8
4527 Farmco Place;3155;VIC;Australia;8
88 Rutledge Crossing;4215;QLD;Australia;7
398 Butternut Place;3027;VIC;Australia;7
13 Marcy Alley;3138;VIC;Australia;8
62 John Wall Lane;2326;NSW;Australia;1
2346 Dawn Terrace;4655;QLD;Australia;3
8 Erie Center;3690;VIC;Australia;2
040 Brown Trail;2040;NSW;Australia;12
94850 Moland Street;3072;VIC;Australia;9
3 Tomscot Place;3756;VIC;Australia;4
06 Kipling Circle;2085;NSW;Australia;10
9632 Katie Avenue;4161;QLD;Australia;7
390 Wayridge Plaza;2756;NSW;Australia;9
55 Gateway Trail;2147;NSW;Australia;9
26 Randy Road;2642;NSW;Australia;2
31435 Surrey Court;2074;NSW;Australia;11
9200 Continental Center;3165;VIC;Australia;10
696 Harbort Junction;2196;NSW;Australia;10
71 Hayes Circle;2320;NSW;Australia;7
6 Michigan Park;3173;VIC;Australia;9
6735 Katie Way;2150;NSW;Australia;7
7 Kingsford Parkway;3085;VIC;Australia;9
69 Huxley Lane;4205;QLD;Australia;3
10 Hauk Point;3936;VIC;Australia;9
1 Jenifer Court;4280;QLD;Australia;4
2 Gateway Drive;3995;VIC;Australia;2
081 Oakridge Street;2519;NSW;Australia;10
40252 Springs Park;4870;QLD;Australia;9
6590 Fremont Avenue;2077;NSW;Australia;8
972 Lake View Terrace;3977;VIC;Australia;7
8 Havey Alley;2031;NSW;Australia;8
05600 Lien Plaza;3796;VIC;Australia;8
08 Roth Hill;4208;QLD;Australia;7
842 Texas Crossing;4130;QLD;Australia;7
020 Bartillon Park;2767;NSW;Australia;8
778 7th Parkway;2071;NSW;Australia;9
60595 Northport Court;4122;QLD;Australia;8
220 American Ash Road;4022;QLD;Australia;6
378 Maple Pass;2153;NSW;Australia;10
41141 Cascade Hill;2075;NSW;Australia;9
66 Sunfield Road;2821;NSW;Australia;1
43 South Pass;3620;VIC;Australia;2
182 Homewood Plaza;4053;QLD;Australia;7
96 Hermina Terrace;3024;VIC;Australia;5
68486 Anderson Alley;3083;VIC;Australia;8
4 Farragut Center;2065;NSW;Australia;12
7858 Sauthoff Crossing;3079;VIC;Australia;11
050 Monterey Street;4869;QLD;Australia;3
743 Karstens Point;2122;NSW;Australia;11
26710 Express Trail;4390;QLD;Australia;7
17 Nevada Drive;2122;NSW;Australia;11
8200 Dapin Drive;4503;QLD;Australia;4
423 Mcbride Place;2477;NSW;Australia;7
580 Blaine Center;2029;NSW;Australia;10
11 Crescent Oaks Junction;4055;QLD;Australia;8
7198 Rowland Street;4030;QLD;Australia;9
93723 Old Gate Hill;2021;NSW;Australia;9
50506 Buhler Terrace;3083;VIC;Australia;8
5 Iowa Road;2154;NSW;Australia;11
97 Sunnyside Junction;3977;VIC;Australia;7
37363 Morning Park;3108;VIC;Australia;7
751 Cordelia Terrace;2880;NSW;Australia;1
2 Del Sol Circle;3012;VIC;Australia;1
864 Scoville Plaza;3029;VIC;Australia;5
7 Bayside Point;3085;VIC;Australia;8
78258 Hanover Plaza;3070;VIC;Australia;10
44 Service Alley;3023;VIC;Australia;7
12 Quincy Lane;3141;VIC;Australia;8
322 Garrison Way;3169;VIC;Australia;9
1 Roth Pass;3199;VIC;Australia;4
225 Dexter Crossing;2527;NSW;Australia;8
8 Rockefeller Lane;2306;NSW;Australia;4
9 Dixon Crossing;3793;VIC;Australia;7
3 Pepper Wood Point;2760;NSW;Australia;8
7574 Onsgard Drive;4011;QLD;Australia;7
683 Scoville Park;3168;VIC;Australia;8
11 Erie Hill;3915;VIC;Australia;7
655 Chive Pass;3083;VIC;Australia;9
623 Carberry Way;2145;NSW;Australia;8
9 Nevada Pass;4007;QLD;Australia;12
3897 Oxford Pass;3350;VIC;Australia;5
9468 Vidon Way;3029;VIC;Australia;7
49 Surrey Pass;2325;NSW;Australia;4
7 Holy Cross Lane;4300;QLD;Australia;5
11 Mifflin Junction;2193;NSW;Australia;10
21498 Springs Point;2089;NSW;Australia;12
888 Warrior Avenue;2170;NSW;Australia;8
50602 Katie Lane;4701;QLD;Australia;6
463 Merry Center;3128;VIC;Australia;10
7798 Westport Trail;4031;QLD;Australia;9
6416 Grover Street;2322;NSW;Australia;7
5 Stone Corner Parkway;2093;NSW;Australia;9
12357 Arapahoe Parkway;4740;QLD;Australia;3
056 Petterle Drive;4075;QLD;Australia;4
4591 Del Sol Court;2745;NSW;Australia;8
2558 Morningstar Center;4221;QLD;Australia;8
15566 Waxwing Place;2135;NSW;Australia;9
8 Marquette Court;2204;NSW;Australia;11
7 Pepper Wood Crossing;3038;VIC;Australia;8
3 Myrtle Pass;2095;NSW;Australia;12
04449 Drewry Junction;2869;NSW;Australia;4
14860 Clove Drive;3175;VIC;Australia;5
65973 Morrow Alley;2170;NSW;Australia;9
54 Bonner Drive;3068;VIC;Australia;10
563 Sundown Point;2226;NSW;Australia;10
1 Toban Crossing;3616;VIC;Australia;3
8551 Mayfield Court;3175;VIC;Australia;12
6030 South Drive;2120;NSW;Australia;10
7917 Norway Maple Way;2074;NSW;Australia;11
5 Coolidge Avenue;4750;QLD;Australia;2
9398 Declaration Circle;2021;NSW;Australia;7
31601 Birchwood Court;4105;QLD;Australia;8
07803 Dexter Pass;2170;NSW;Australia;9
9 Hallows Circle;2113;NSW;Australia;11
5718 John Wall Plaza;4350;QLD;Australia;1
011 Lotheville Junction;2099;NSW;Australia;10
60 Cordelia Parkway;2759;NSW;Australia;8
34748 Charing Cross Point;3057;VIC;Australia;10
2094 Bunting Junction;3059;VIC;Australia;9
1 Fairview Park;3977;VIC;Australia;7
4380 Rusk Terrace;2086;NSW;Australia;11
6 Cascade Trail;2770;NSW;Australia;9
8107 Coolidge Pass;2075;NSW;Australia;12
4171 Beilfuss Street;3153;VIC;Australia;8
48333 Waywood Road;2113;NSW;Australia;11
6 Golf Center;2042;NSW;Australia;10
5847 Bunting Alley;2130;NSW;Australia;11
9 Fisk Point;3350;VIC;Australia;4
133 Quincy Avenue;3810;VIC;Australia;4
85 Carioca Drive;2154;NSW;Australia;11
50 Declaration Junction;3213;VIC;Australia;6
3 Maple Place;3064;VIC;Australia;7
402 Clyde Gallagher Terrace;3153;VIC;Australia;6
08 Upham Place;2176;NSW;Australia;9
6039 Columbus Court;2280;NSW;Australia;8
6406 Parkside Hill;2017;NSW;Australia;9
5 Larry Terrace;3130;VIC;Australia;10
0 Sachs Circle;4122;QLD;Australia;8
873 Ludington Plaza;2204;NSW;Australia;10
518 Donald Street;2170;NSW;Australia;9
1172 Mesta Center;4740;QLD;Australia;2
7216 American Ash Place;2062;NSW;Australia;12
24965 Mitchell Center;4124;QLD;Australia;6
43 Eagle Crest Parkway;2295;NSW;Australia;8
4 Tomscot Alley;4343;QLD;Australia;7
83 Graedel Court;4505;QLD;Australia;2
81 Westerfield Point;2768;NSW;Australia;10
257 Ruskin Crossing;2200;NSW;Australia;10
6 North Court;3862;VIC;Australia;7
59 Coolidge Hill;2010;NSW;Australia;9
64 Nancy Plaza;3137;VIC;Australia;7
2 Donald Crossing;2880;NSW;Australia;1
88389 Schiller Drive;3029;VIC;Australia;7
88 Michigan Junction;3109;VIC;Australia;10
6 Ludington Place;2042;NSW;Australia;11
624 Harper Way;2094;NSW;Australia;10
15991 Saint Paul Road;4213;QLD;Australia;7
4 Mayfield Center;3155;VIC;Australia;9
0421 Anthes Court;2870;NSW;Australia;2
18118 Maple Wood Crossing;2763;NSW;Australia;9
973 Menomonie Hill;3337;VIC;Australia;4
282 Monterey Circle;4300;QLD;Australia;6
14 Warbler Hill;2770;NSW;Australia;8
75106 Oriole Junction;2030;NSW;Australia;12
11 Hermina Junction;3219;VIC;Australia;3
42 Oxford Circle;2220;NSW;Australia;11
1520 Summerview Road;2020;NSW;Australia;10
54 Hermina Road;2000;NSW;Australia;12
3732 Linden Avenue;4820;QLD;Australia;1
6043 Badeau Place;4820;QLD;Australia;1
6933 Leroy Parkway;4209;QLD;Australia;4
2 Homewood Center;2775;NSW;Australia;6
38 Jackson Lane;3610;VIC;Australia;3
322 Namekagon Trail;2107;NSW;Australia;11
411 Anthes Circle;2030;NSW;Australia;12
6956 Clyde Gallagher Park;2281;NSW;Australia;9
12061 Rowland Alley;3228;VIC;Australia;8
21230 Tomscot Lane;2093;NSW;Australia;12
7 Clemons Drive;4370;QLD;Australia;2
7353 Thierer Road;4300;QLD;Australia;2
75 Logan Place;3071;VIC;Australia;10
8530 Darwin Street;2880;NSW;Australia;1
9 Brown Pass;3196;VIC;Australia;9
736 Ohio Court;2200;NSW;Australia;10
17 Springs Center;4214;QLD;Australia;7
29863 Waxwing Court;3056;VIC;Australia;5
9229 Division Park;2205;NSW;Australia;8
88 Morningstar Pass;3161;VIC;Australia;10
45 Talisman Pass;4102;QLD;Australia;4
73 Burrows Court;3121;VIC;Australia;8
5 Sachs Terrace;4207;QLD;Australia;4
2170 Schiller Alley;2160;NSW;Australia;9
20 Alpine Circle;3181;VIC;Australia;7
435 Kennedy Circle;2173;NSW;Australia;10
7330 Helena Pass;2176;NSW;Australia;9
2 Lillian Alley;4154;QLD;Australia;9
8 Village Street;4825;QLD;Australia;5
62551 Del Mar Avenue;2300;NSW;Australia;6
297 Kinsman Park;2766;NSW;Australia;9
63493 Erie Place;2144;NSW;Australia;7
3 Weeping Birch Plaza;3677;VIC;Australia;2
2 Roxbury Place;2564;NSW;Australia;8
7234 Dawn Alley;4670;QLD;Australia;1
01 Nevada Alley;2076;NSW;Australia;12
805 Division Plaza;4165;QLD;Australia;4
42554 Randy Road;2047;NSW;Australia;12
25460 Buell Avenue;2060;NSW;Australia;10
000 Boyd Center;2160;NSW;Australia;8
2782 Stephen Trail;2216;NSW;Australia;10
7 Charing Cross Hill;2121;NSW;Australia;9
08 Arapahoe Alley;4213;QLD;Australia;9
158 Utah Court;3082;VIC;Australia;8
00 Magdeline Way;3146;VIC;Australia;11
2 Roxbury Pass;3977;VIC;Australia;5
602 Haas Drive;3799;VIC;Australia;3
40 Sauthoff Circle;3129;VIC;Australia;10
48 Rockefeller Court;3786;VIC;Australia;8
59504 Drewry Park;4061;QLD;Australia;8
31 Dovetail Trail;2088;NSW;Australia;9
367 Talmadge Way;2705;NSW;Australia;1
513 Hauk Street;2261;NSW;Australia;9
72728 Ruskin Way;2291;NSW;Australia;6
024 Onsgard Alley;3134;VIC;Australia;9
10097 Hooker Way;3196;VIC;Australia;8
312 Swallow Place;3021;VIC;Australia;7
28 Superior Center;2131;NSW;Australia;11
0 Weeping Birch Plaza;2093;NSW;Australia;12
06 Northwestern Center;2019;NSW;Australia;10
01716 2nd Terrace;3174;VIC;Australia;8
0162 Grim Circle;2191;NSW;Australia;10
7 Eggendart Hill;4055;QLD;Australia;8
375 Luster Parkway;2147;NSW;Australia;9
2 Monterey Terrace;2120;NSW;Australia;9
851 Meadow Valley Place;3205;VIC;Australia;10
6851 Orin Parkway;2142;NSW;Australia;10
73 Glacier Hill Drive;2880;NSW;Australia;1
59364 Huxley Drive;3028;VIC;Australia;5
91 Charing Cross Way;2100;NSW;Australia;11
80269 Southridge Park;4014;QLD;Australia;6
5 Northland Plaza;2096;NSW;Australia;9
02181 Starling Trail;3015;VIC;Australia;10
097 Gulseth Lane;4178;QLD;Australia;8
0 Ronald Regan Way;4870;QLD;Australia;1
1351 Lunder Road;2049;NSW;Australia;10
7181 Dakota Trail;3029;VIC;Australia;5
5767 Thierer Road;2217;NSW;Australia;8
687 Almo Crossing;2160;NSW;Australia;10
31414 Superior Park;2539;NSW;Australia;7
1 Village Green Circle;2285;NSW;Australia;7
2 Starling Pass;3155;VIC;Australia;7
182 Thierer Pass;3131;VIC;Australia;12
7 Barnett Road;2713;NSW;Australia;1
33792 Burrows Plaza;4125;QLD;Australia;7
00283 Loftsgordon Center;4118;QLD;Australia;5
8 Garrison Trail;2226;NSW;Australia;10
618 Chinook Way;2155;NSW;Australia;10
9 Ronald Regan Center;3094;VIC;Australia;9
40047 Twin Pines Parkway;3806;VIC;Australia;8
5 Anhalt Court;3122;VIC;Australia;7
3047 Spenser Pass;2750;NSW;Australia;8
0 Walton Court;2226;NSW;Australia;9
5356 Ruskin Place;2850;NSW;Australia;3
321 Glendale Center;2820;NSW;Australia;1
6414 Hanover Avenue;2060;NSW;Australia;12
373 Cordelia Trail;3500;VIC;Australia;1
31 International Pass;4173;QLD;Australia;7
82 Warrior Hill;3174;VIC;Australia;8
989 Waubesa Circle;3149;VIC;Australia;11
400 Petterle Crossing;4301;QLD;Australia;3
34 Calypso Court;2153;NSW;Australia;10
7 Summerview Parkway;3073;VIC;Australia;6
9479 Tony Junction;2830;NSW;Australia;7
05988 Sundown Parkway;3037;VIC;Australia;8
04036 Kennedy Trail;2221;NSW;Australia;12
0 Reinke Lane;3034;VIC;Australia;9
1 Rigney Circle;2295;NSW;Australia;8
0063 Walton Junction;2380;NSW;Australia;3
672 Crowley Place;3043;VIC;Australia;8
59531 Barnett Pass;3352;VIC;Australia;4
8 Becker Drive;4868;QLD;Australia;4
82591 Fallview Hill;3021;VIC;Australia;8
6691 Lindbergh Drive;2147;NSW;Australia;9
29279 Hazelcrest Junction;2120;NSW;Australia;10
21 Sugar Place;4207;QLD;Australia;3
4233 Service Avenue;2340;NSW;Australia;5
46 Stone Corner Avenue;2210;NSW;Australia;10
12 Kings Hill;4272;QLD;Australia;9
393 Dexter Junction;4151;QLD;Australia;9
757 Debs Avenue;4670;QLD;Australia;4
613 Emmet Junction;2154;NSW;Australia;11
8828 North Crossing;3226;VIC;Australia;8
7 Center Circle;2096;NSW;Australia;9
654 Logan Plaza;4113;QLD;Australia;10
33 Almo Terrace;3051;VIC;Australia;10
6 Reindahl Hill;2196;NSW;Australia;9
785 Crest Line Hill;3634;VIC;Australia;1
78 Bowman Court;2027;NSW;Australia;11
7 Jackson Court;2076;NSW;Australia;10
6221 Monica Plaza;2095;NSW;Australia;12
6 4th Lane;3079;VIC;Australia;11
682 Claremont Circle;4350;QLD;Australia;6
7 Weeping Birch Alley;2230;NSW;Australia;12
9 Maywood Point;4304;QLD;Australia;3
176 Sutteridge Alley;3121;VIC;Australia;11
6814 Haas Place;2230;NSW;Australia;7
75 Longview Terrace;2640;NSW;Australia;3
7279 Steensland Circle;3803;VIC;Australia;7
06 Lake View Plaza;4515;QLD;Australia;1
1 Michigan Way;2153;NSW;Australia;10
8863 Maywood Court;2101;NSW;Australia;11
3 Roxbury Street;2261;NSW;Australia;7
90 Westerfield Street;2880;NSW;Australia;1
416 Hayes Trail;3095;VIC;Australia;9
70980 Washington Parkway;2300;NSW;Australia;10
00 1st Trail;3223;VIC;Australia;7
54613 Service Court;4069;QLD;Australia;8
93 Vera Parkway;4216;QLD;Australia;5
3 Butterfield Trail;4519;QLD;Australia;6
22976 Moose Place;2620;NSW;Australia;8
8934 Havey Plaza;2548;NSW;Australia;8
30011 Manufacturers Hill;3146;VIC;Australia;9
42293 Banding Plaza;2136;NSW;Australia;10
62 Tennyson Way;2099;NSW;Australia;11
3609 Shelley Road;2126;NSW;Australia;10
82 Dahle Crossing;3195;VIC;Australia;10
2986 Holmberg Circle;3021;VIC;Australia;9
3 Monument Crossing;2090;NSW;Australia;10
35 Chive Alley;2033;NSW;Australia;10
1 Dayton Park;2767;NSW;Australia;9
2565 Caliangt Point;2171;NSW;Australia;9
96 Delladonna Trail;3976;VIC;Australia;5
3 Nova Point;3012;VIC;Australia;4
310 Stephen Terrace;4073;QLD;Australia;9
9491 Green Ridge Terrace;2100;NSW;Australia;10
16 Carberry Pass;2119;NSW;Australia;11
12 Elgar Place;2155;NSW;Australia;10
8749 Menomonie Point;2122;NSW;Australia;11
18072 American Parkway;3195;VIC;Australia;10
5854 Weeping Birch Avenue;2022;NSW;Australia;10
2 Clarendon Point;2194;NSW;Australia;7
88979 Hazelcrest Way;3555;VIC;Australia;3
7555 Springview Crossing;3195;VIC;Australia;10
04240 Prentice Plaza;3031;VIC;Australia;9
35280 Harper Junction;2700;NSW;Australia;2
08479 Hazelcrest Street;3340;VIC;Australia;4
70 Oakridge Pass;2019;NSW;Australia;10
56873 Buena Vista Crossing;2035;NSW;Australia;9
7 Rieder Street;3155;VIC;Australia;7
3528 Granby Circle;4825;QLD;Australia;5
16 Vahlen Trail;2152;NSW;Australia;10
977 Arapahoe Trail;4121;QLD;Australia;8
31331 Old Shore Crossing;2211;NSW;Australia;8
51757 Weeping Birch Center;2470;NSW;Australia;5
25 Schurz Avenue;2071;NSW;Australia;12
92045 Magdeline Street;2101;NSW;Australia;11
0129 Hollow Ridge Crossing;2095;NSW;Australia;11
56 Anderson Alley;2194;NSW;Australia;10
528 Golf View Plaza;2471;NSW;Australia;2
474 Farragut Way;4812;QLD;Australia;3
1 Schiller Place;2774;NSW;Australia;9
55497 Warrior Alley;3123;VIC;Australia;9
6 Moulton Point;2145;NSW;Australia;10
6 Rockefeller Lane;2294;NSW;Australia;7
05759 Ridge Oak Trail;2007;NSW;Australia;8
75 Grim Circle;2147;NSW;Australia;10
88 Bunting Hill;3978;VIC;Australia;6
7547 Garrison Alley;2705;NSW;Australia;5
3605 Vidon Hill;3305;VIC;Australia;1
0485 Petterle Terrace;2575;NSW;Australia;6
97461 Drewry Trail;3072;VIC;Australia;10
6736 Anthes Junction;2250;NSW;Australia;7
9 Tennyson Center;2198;NSW;Australia;9
9594 Brown Junction;4509;QLD;Australia;7
64 Macpherson Junction;4061;QLD;Australia;8
0 Heath Point;2136;NSW;Australia;9
1 Chive Trail;4670;QLD;Australia;2
34976 Lindbergh Hill;4304;QLD;Australia;4
266 Little Fleur Street;4350;QLD;Australia;4
005 Bunker Hill Lane;3046;VIC;Australia;9
792 Maple Trail;2097;NSW;Australia;12
71 Moulton Drive;3065;VIC;Australia;10
033 Maryland Plaza;3023;VIC;Australia;8
360 Green Ridge Junction;2508;NSW;Australia;9
870 Bluestem Hill;2745;NSW;Australia;8
392 Grim Pass;4680;QLD;Australia;6
38792 Calypso Crossing;2778;NSW;Australia;7
92 Mallard Court;3125;VIC;Australia;10
37 Summerview Park;2101;NSW;Australia;11
3 Shasta Way;2076;NSW;Australia;12
45 Redwing Road;3182;VIC;Australia;12
41 Northridge Road;4730;QLD;Australia;4
459 Meadow Valley Junction;4155;QLD;Australia;10
276 Coolidge Plaza;4215;QLD;Australia;7
4 Dexter Park;4505;QLD;Australia;2
0800 Donald Hill;4000;QLD;Australia;7
4301 Haas Junction;2204;NSW;Australia;9
0185 Fremont Alley;4074;QLD;Australia;7
85476 Shasta Park;2065;NSW;Australia;12
4888 Hoepker Plaza;2072;NSW;Australia;12
77 Green Court;2570;NSW;Australia;9
22344 Reinke Pass;4225;QLD;Australia;5
588 Menomonie Way;4179;QLD;Australia;9
3 Becker Drive;2566;NSW;Australia;8
663 Sunfield Court;3564;VIC;Australia;2
010 Maryland Court;3556;VIC;Australia;2
53504 Dakota Terrace;2570;NSW;Australia;8
681 Ridgeway Junction;4208;QLD;Australia;7
225 American Point;4508;QLD;Australia;3
79 Moland Junction;2795;NSW;Australia;4
9004 Wayridge Drive;2799;NSW;Australia;4
505 Village Pass;4007;QLD;Australia;4
57 Thierer Parkway;2177;NSW;Australia;9
91 Roth Pass;2565;NSW;Australia;6
4605 Lakewood Gardens Terrace;3216;VIC;Australia;7
16334 Rutledge Trail;3805;VIC;Australia;9
878 Cody Point;2155;NSW;Australia;10
66028 Randy Terrace;2155;NSW;Australia;10
78478 Pond Road;4128;QLD;Australia;7
062 Dixon Parkway;3103;VIC;Australia;12
344 Delladonna Place;2196;NSW;Australia;10
53 Union Terrace;2763;NSW;Australia;8
33221 Maple Wood Place;2260;NSW;Australia;10
1 Esker Pass;4575;QLD;Australia;8
9 Clyde Gallagher Junction;2065;NSW;Australia;11
5699 Forster Street;2346;NSW;Australia;2
94543 Northwestern Court;4715;QLD;Australia;6
6 Continental Alley;3174;VIC;Australia;8
89 Dapin Terrace;3121;VIC;Australia;10
38834 Manufacturers Hill;2768;NSW;Australia;10
0186 Thackeray Center;3183;VIC;Australia;11
15980 Fairview Drive;2283;NSW;Australia;7
2 Waxwing Terrace;2429;NSW;Australia;2
358 Ronald Regan Point;2065;NSW;Australia;12
4386 Spaight Court;3752;VIC;Australia;8
73 Hallows Circle;2558;NSW;Australia;7
1585 Summer Ridge Alley;2548;NSW;Australia;6
29585 Weeping Birch Avenue;2830;NSW;Australia;2
4 Macpherson Drive;2560;NSW;Australia;8
75132 Portage Point;4555;QLD;Australia;7
90969 Talmadge Place;3199;VIC;Australia;7
88 Ilene Crossing;2049;NSW;Australia;11
154 Heffernan Trail;2038;NSW;Australia;10
4534 Stone Corner Terrace;2233;NSW;Australia;9
9 Declaration Crossing;3133;VIC;Australia;10
2 Homewood Pass;4211;QLD;Australia;8
8279 Golf View Center;3127;VIC;Australia;12
65769 Hoard Plaza;3030;VIC;Australia;7
2 Havey Point;2759;NSW;Australia;8
8582 Morrow Pass;4165;QLD;Australia;7
4643 Cambridge Circle;3064;VIC;Australia;6
2 Armistice Parkway;2193;NSW;Australia;10
23301 Bluestem Drive;3146;VIC;Australia;8
6764 Commercial Avenue;2753;NSW;Australia;8
56747 Monument Avenue;4306;QLD;Australia;8
8 Harper Center;2650;NSW;Australia;3
422 Valley Edge Pass;2000;NSW;Australia;10
8651 Graceland Way;2830;NSW;Australia;1
6 Nobel Way;2322;NSW;Australia;4
3 Burning Wood Pass;2322;NSW;Australia;4
4 Westridge Circle;2763;NSW;Australia;8
9284 Randy Alley;2217;NSW;Australia;9
56 Sullivan Crossing;2768;NSW;Australia;9
3 Westridge Avenue;2810;NSW;Australia;5
3 Florence Drive;2151;NSW;Australia;10
897 Forest Dale Terrace;4035;QLD;Australia;8
91215 Doe Crossing Avenue;3805;VIC;Australia;7
38834 Green Center;2132;NSW;Australia;11
678 Monterey Center;2759;NSW;Australia;8
1 Park Meadow Drive;2145;NSW;Australia;9
58 Hoepker Center;4343;QLD;Australia;2
6415 4th Alley;2766;NSW;Australia;8
5558 Northport Point;2087;NSW;Australia;11
71 Manley Way;2036;NSW;Australia;7
6201 Schiller Drive;2502;NSW;Australia;6
5339 Paget Plaza;2190;NSW;Australia;10
26138 Katie Point;2800;NSW;Australia;4
686 Scoville Drive;3012;VIC;Australia;5
41 Bay Pass;2018;NSW;Australia;10
155 Sunfield Way;3212;VIC;Australia;2
2809 Anderson Lane;3350;VIC;Australia;3
4 Barby Point;4216;QLD;Australia;8
73 Eagan Hill;3040;VIC;Australia;10
11 Ryan Hill;2229;NSW;Australia;9
6 Eliot Parkway;2045;NSW;Australia;12
4962 Wayridge Road;2220;NSW;Australia;12
9 Jenifer Avenue;2480;NSW;Australia;4
7 Macpherson Way;4064;QLD;Australia;9
5437 Oak Alley;2024;NSW;Australia;10
13854 Artisan Avenue;4508;QLD;Australia;3
7415 Schlimgen Drive;2064;NSW;Australia;9
249 Merchant Terrace;4211;QLD;Australia;7
379 Scofield Pass;3101;VIC;Australia;8
6 Michigan Lane;4076;QLD;Australia;3
31 Packers Pass;2205;NSW;Australia;10
772 Superior Street;2759;NSW;Australia;8
15093 Hallows Pass;3930;VIC;Australia;9
954 Reinke Park;3101;VIC;Australia;12
11879 Surrey Court;2768;NSW;Australia;9
7730 Oakridge Trail;3380;VIC;Australia;1
91051 Cordelia Circle;3030;VIC;Australia;7
32 Larry Way;3073;VIC;Australia;10
3173 Park Meadow Park;2261;NSW;Australia;5
427 Talmadge Terrace;2486;NSW;Australia;8
587 Rieder Court;4211;QLD;Australia;8
34775 Melrose Road;2152;NSW;Australia;10
61 Kennedy Park;2745;NSW;Australia;10
1 Upham Crossing;3041;VIC;Australia;3
106 Donald Way;3216;VIC;Australia;4
3397 Ronald Regan Plaza;4511;QLD;Australia;5
2615 Declaration Court;2031;NSW;Australia;12
900 Straubel Hill;2176;NSW;Australia;10
4314 Ridgeview Court;2176;NSW;Australia;9
6001 Calypso Park;2320;NSW;Australia;5
31 Declaration Drive;4500;QLD;Australia;5
8 Grover Parkway;2089;NSW;Australia;10
7 Killdeer Junction;4306;QLD;Australia;3
30122 Union Plaza;2066;NSW;Australia;9
81 Carpenter Terrace;3321;VIC;Australia;3
46 Hollow Ridge Way;2011;NSW;Australia;11
6468 West Park;3161;VIC;Australia;6
2 Barby Court;2133;NSW;Australia;8
4 Rockefeller Plaza;3196;VIC;Australia;5
00732 David Lane;3350;VIC;Australia;6
4 Hagan Hill;2197;NSW;Australia;9
47566 Old Gate Avenue;3064;VIC;Australia;6
9738 Delaware Crossing;2753;NSW;Australia;9
5511 Clove Lane;3153;VIC;Australia;7
526 Kipling Drive;3193;VIC;Australia;11
9585 Lakeland Avenue;2147;NSW;Australia;8
19 Daystar Alley;2761;NSW;Australia;8
2 Union Way;2035;NSW;Australia;12
88 Service Hill;4573;QLD;Australia;8
856 Basil Drive;3064;VIC;Australia;5
00 Esker Point;4207;QLD;Australia;3
792 Clyde Gallagher Trail;2120;NSW;Australia;10
9719 Bobwhite Avenue;2289;NSW;Australia;7
36 Service Lane;2750;NSW;Australia;7
51158 Mitchell Place;3747;VIC;Australia;3
6 3rd Point;2256;NSW;Australia;9
828 Cascade Crossing;3196;VIC;Australia;9
2099 Elmside Parkway;3165;VIC;Australia;10
6407 Pierstorff Center;4209;QLD;Australia;6
18 Stephen Center;3189;VIC;Australia;10
5147 Kensington Pass;2204;NSW;Australia;9
7740 Crescent Oaks Circle;4350;QLD;Australia;5
03742 Granby Parkway;2768;NSW;Australia;9
37 Tennessee Way;4078;QLD;Australia;5
0616 Messerschmidt Place;2350;NSW;Australia;4
25 Melvin Junction;3064;VIC;Australia;6
650 Barby Street;2023;NSW;Australia;12
63795 Logan Junction;3805;VIC;Australia;7
506 Tennyson Avenue;4118;QLD;Australia;9
7 Shasta Terrace;2821;NSW;Australia;2
61 Shoshone Alley;3150;VIC;Australia;10
3241 Rigney Place;3337;VIC;Australia;4
65885 Maple Hill;3072;VIC;Australia;10
310 Cody Street;2125;NSW;Australia;11
7650 Stone Corner Avenue;3201;VIC;Australia;5
6033 Blaine Court;2075;NSW;Australia;12
515 Fallview Way;2484;NSW;Australia;8
757 International Road;3158;VIC;Australia;8
0 Declaration Center;2250;NSW;Australia;10
1 Parkside Avenue;3109;VIC;Australia;10
73128 Pearson Pass;4132;QLD;Australia;4
1940 Morning Circle;2765;NSW;Australia;9
18 Chinook Plaza;2756;NSW;Australia;9
7912 Jana Lane;2194;NSW;Australia;8
534 Arrowood Trail;4212;QLD;Australia;8
79 Butterfield Street;2016;NSW;Australia;11
789 Alpine Lane;2390;NSW;Australia;8
4178 Bartelt Parkway;2505;NSW;Australia;8
44 Londonderry Parkway;2164;NSW;Australia;10
712 Sage Park;3149;VIC;Australia;9
88987 Dexter Park;2806;NSW;Australia;1
52 Helena Lane;2192;NSW;Australia;10
3 High Crossing Parkway;3006;VIC;Australia;7
45 Fordem Court;3191;VIC;Australia;10
82583 North Hill;2528;NSW;Australia;7
79 Crescent Oaks Court;2806;NSW;Australia;1
1 Utah Alley;2232;NSW;Australia;10
353 Donald Street;3199;VIC;Australia;7
86 Fairfield Alley;2558;NSW;Australia;8
33 Sugar Alley;2060;NSW;Australia;12
92 Northridge Park;2450;NSW;Australia;4
1 Algoma Trail;4213;QLD;Australia;6
08261 Aberg Junction;2176;NSW;Australia;9
549 Randy Point;2560;NSW;Australia;7
09295 Judy Terrace;2753;NSW;Australia;8
78 Southridge Parkway;2257;NSW;Australia;9
04 Oakridge Drive;4123;QLD;Australia;9
20101 Prentice Terrace;2074;NSW;Australia;11
498 Golf Parkway;2144;NSW;Australia;10
23 West Crossing;3192;VIC;Australia;7
011 Johnson Park;3121;VIC;Australia;11
5 Atwood Crossing;2321;NSW;Australia;3
28008 Mesta Lane;2767;NSW;Australia;9
1 Dixon Way;3072;VIC;Australia;5
31446 5th Court;3064;VIC;Australia;4
8397 Holy Cross Parkway;2087;NSW;Australia;11
85958 Bartillon Way;3201;VIC;Australia;6
877 Corben Center;2500;NSW;Australia;7
6 Maple Wood Junction;4012;QLD;Australia;7
5304 Oneill Pass;2117;NSW;Australia;10
884 Packers Junction;2034;NSW;Australia;10
95 East Road;2093;NSW;Australia;9
9932 Atwood Center;2011;NSW;Australia;10
1929 Crowley Drive;4034;QLD;Australia;7
70 West Plaza;3020;VIC;Australia;8
7 Norway Maple Avenue;4172;QLD;Australia;5
54285 Annamark Way;3977;VIC;Australia;6
761 Carioca Drive;4226;QLD;Australia;7
69131 Kipling Alley;3351;VIC;Australia;4
3052 Green Drive;3142;VIC;Australia;11
33331 Corry Road;2560;NSW;Australia;8
69 Porter Parkway;4128;QLD;Australia;7
934 Dwight Park;2280;NSW;Australia;7
27784 Hansons Trail;3078;VIC;Australia;11
464 Acker Way;2756;NSW;Australia;9
53533 Dakota Pass;2077;NSW;Australia;10
546 Summerview Center;2074;NSW;Australia;11
1 Carey Crossing;2047;NSW;Australia;10
7524 David Place;2850;NSW;Australia;3
7 Granby Crossing;3083;VIC;Australia;9
8681 Dennis Pass;3215;VIC;Australia;3
1 Pankratz Circle;3083;VIC;Australia;8
9904 Oakridge Parkway;4370;QLD;Australia;3
249 Anderson Street;2153;NSW;Australia;10
3463 Merchant Trail;3152;VIC;Australia;10
699 Hudson Road;2138;NSW;Australia;9
9 Dwight Drive;2710;NSW;Australia;1
13 Colorado Lane;2099;NSW;Australia;9
39946 Kenwood Court;3070;VIC;Australia;9
72204 Springs Way;3104;VIC;Australia;12
365 Jenifer Point;4116;QLD;Australia;7
53 Texas Road;2262;NSW;Australia;7
6 Morningstar Park;2324;NSW;Australia;7
6901 Russell Street;3977;VIC;Australia;6
26 Barby Terrace;2263;NSW;Australia;6
23541 Dayton Drive;2177;NSW;Australia;9
81 Pine View Avenue;4208;QLD;Australia;5
91 Dennis Plaza;4127;QLD;Australia;6
43 Hollow Ridge Center;3215;VIC;Australia;3
045 Debs Pass;3145;VIC;Australia;12
73 Debra Terrace;2141;NSW;Australia;7
96899 Hermina Circle;2062;NSW;Australia;9
38 Trailsway Parkway;2118;NSW;Australia;11
22171 Bayside Parkway;2880;NSW;Australia;1
6011 Knutson Way;3065;VIC;Australia;7
0127 East Court;3199;VIC;Australia;5
1 Fordem Road;2144;NSW;Australia;9
7681 Waywood Alley;3860;VIC;Australia;1
9 Donald Junction;2046;NSW;Australia;12
47855 Tomscot Parkway;2226;NSW;Australia;8
394 Russell Avenue;2209;NSW;Australia;10
86 Claremont Junction;2135;NSW;Australia;7
2 Transport Plaza;2658;NSW;Australia;1
20 Susan Court;3015;VIC;Australia;10
838 Redwing Street;2428;NSW;Australia;8
9 West Crossing;2446;NSW;Australia;7
22105 Arrowood Crossing;3124;VIC;Australia;7
9240 Green Avenue;3810;VIC;Australia;5
0964 Bayside Park;3136;VIC;Australia;9
9717 Main Parkway;3052;VIC;Australia;8
4123 Eliot Alley;4306;QLD;Australia;6
36708 Algoma Junction;2170;NSW;Australia;6
3 Mandrake Parkway;2118;NSW;Australia;9
78 Declaration Center;2209;NSW;Australia;10
57866 Dawn Plaza;3029;VIC;Australia;7
0172 Vidon Place;3183;VIC;Australia;6
89 Delaware Crossing;3754;VIC;Australia;6
34 Packers Trail;3168;VIC;Australia;10
019 Huxley Drive;3807;VIC;Australia;8
862 Ilene Circle;2206;NSW;Australia;11
420 Twin Pines Crossing;3338;VIC;Australia;3
5131 Northview Hill;3177;VIC;Australia;3
713 Redwing Crossing;2121;NSW;Australia;11
9570 Sundown Trail;4073;QLD;Australia;8
72258 Bayside Court;4211;QLD;Australia;7
31 Melvin Park;4163;QLD;Australia;8
9 Duke Alley;4557;QLD;Australia;7
38473 Waubesa Alley;2759;NSW;Australia;8
0056 Corry Center;2220;NSW;Australia;11
99476 Mitchell Street;2508;NSW;Australia;10
37 Hintze Center;4011;QLD;Australia;11
33061 Fremont Lane;4720;QLD;Australia;3
56 Trailsway Street;4575;QLD;Australia;4
5748 Porter Circle;4352;QLD;Australia;8
341 Katie Junction;4817;QLD;Australia;4
20370 Fordem Pass;4825;QLD;Australia;4
30 Prairie Rose Road;2761;NSW;Australia;7
79 Holy Cross Hill;2145;NSW;Australia;7
6489 Pennsylvania Road;2164;NSW;Australia;9
274 Bultman Park;2566;NSW;Australia;7
832 Moulton Trail;2560;NSW;Australia;8
1628 Bonner Hill;2480;NSW;Australia;3
0618 5th Place;3189;VIC;Australia;10
4662 Clemons Road;4270;QLD;Australia;8
0 Arapahoe Court;4305;QLD;Australia;3
3748 Lake View Lane;2590;NSW;Australia;1
3720 Anniversary Court;4812;QLD;Australia;2
85 Trailsway Road;3175;VIC;Australia;9
388 Karstens Drive;2428;NSW;Australia;5
6 Swallow Park;2165;NSW;Australia;7
80070 Mockingbird Center;2289;NSW;Australia;8
6 Veith Road;4118;QLD;Australia;4
1323 Maywood Plaza;2226;NSW;Australia;10
17504 Spohn Center;2756;NSW;Australia;9
02084 Rockefeller Crossing;2150;NSW;Australia;7
16 Montana Way;2478;NSW;Australia;7
2 Victoria Crossing;3280;VIC;Australia;2
0733 Comanche Crossing;2304;NSW;Australia;6
75322 Prentice Court;3046;VIC;Australia;9
2 Gerald Street;2071;NSW;Australia;11
2079 Del Sol Hill;2761;NSW;Australia;8
9 Columbus Pass;2327;NSW;Australia;3
465 Russell Court;2282;NSW;Australia;9
344 Dayton Drive;2148;NSW;Australia;9
7 Beilfuss Center;2550;NSW;Australia;4
78 Barnett Alley;2154;NSW;Australia;11
4 Emmet Avenue;4300;QLD;Australia;1
1728 Springview Lane;4509;QLD;Australia;6
25413 Delaware Pass;3150;VIC;Australia;12
23217 Waubesa Pass;2705;NSW;Australia;1
013 Mendota Parkway;2558;NSW;Australia;9
7482 Hanson Park;2567;NSW;Australia;5
2428 Sloan Circle;2763;NSW;Australia;9
34329 Heffernan Plaza;3178;VIC;Australia;7
15 Duke Plaza;3013;VIC;Australia;8
4368 Dayton Street;2753;NSW;Australia;10
3 Shasta Circle;2165;NSW;Australia;8
6 Calypso Parkway;4161;QLD;Australia;5
2 Cambridge Point;3173;VIC;Australia;9
55876 Knutson Point;3057;VIC;Australia;6
14 Bunting Alley;2073;NSW;Australia;12
8458 Stang Parkway;2671;NSW;Australia;2
60 Towne Pass;2877;NSW;Australia;1
5 Rutledge Center;4311;QLD;Australia;3
9 Blaine Place;3756;VIC;Australia;4
24688 Hollow Ridge Way;3064;VIC;Australia;7
32876 American Ash Avenue;2099;NSW;Australia;11
18 Bay Place;2176;NSW;Australia;9
4 Hanover Junction;3192;VIC;Australia;10
0 Darwin Junction;2747;NSW;Australia;9
5251 Merrick Court;3103;VIC;Australia;8
801 Shasta Crossing;2539;NSW;Australia;8
55 Anzinger Drive;4152;QLD;Australia;9
13768 Commercial Trail;2155;NSW;Australia;10
109 Kipling Road;2156;NSW;Australia;11
47 Spenser Circle;2770;NSW;Australia;7
15051 Monterey Street;2756;NSW;Australia;8
7365 Carioca Hill;4680;QLD;Australia;4
42 Maryland Plaza;2486;NSW;Australia;5
802 Bashford Hill;3150;VIC;Australia;10
12548 Eagan Court;2768;NSW;Australia;9
24167 Montana Place;2065;NSW;Australia;12
0 Southridge Drive;4311;QLD;Australia;1
1 Banding Way;4218;QLD;Australia;8
259 Union Junction;3107;VIC;Australia;10
7727 Merrick Parkway;2099;NSW;Australia;11
3015 Bowman Alley;2777;NSW;Australia;9
2 Annamark Park;2170;NSW;Australia;9
38 Steensland Circle;2234;NSW;Australia;10
80 Northland Place;4178;QLD;Australia;8
104 Kingsford Park;2154;NSW;Australia;9
22 Mifflin Junction;2096;NSW;Australia;9
60272 Montana Drive;2223;NSW;Australia;8
730 Judy Drive;3939;VIC;Australia;2
1269 Esch Parkway;4078;QLD;Australia;6
3 Kedzie Center;3106;VIC;Australia;10
67473 Nova Avenue;3089;VIC;Australia;10
866 Canary Drive;2750;NSW;Australia;8
20 Dwight Junction;2768;NSW;Australia;10
0900 Northport Point;2085;NSW;Australia;11
572 Buena Vista Plaza;2111;NSW;Australia;9
695 Anthes Crossing;4350;QLD;Australia;2
62 Luster Avenue;2036;NSW;Australia;11
819 Basil Plaza;4053;QLD;Australia;8
81 Monument Avenue;2126;NSW;Australia;12
093 Mallard Hill;4034;QLD;Australia;7
903 Sauthoff Plaza;2565;NSW;Australia;8
9796 Pearson Hill;2223;NSW;Australia;4
950 Algoma Circle;3108;VIC;Australia;9
28 Toban Center;3756;VIC;Australia;2
147 Brickson Park Drive;4017;QLD;Australia;7
75251 Marquette Lane;4122;QLD;Australia;7
72 Briar Crest Hill;3148;VIC;Australia;10
201 Valley Edge Park;3030;VIC;Australia;5
6031 Susan Terrace;4118;QLD;Australia;5
724 Erie Way;3500;VIC;Australia;2
86906 Hauk Trail;4163;QLD;Australia;8
85999 Cherokee Street;2086;NSW;Australia;11
50774 Dennis Park;3631;VIC;Australia;3
64 Trailsway Place;3802;VIC;Australia;7
95228 Forster Road;3085;VIC;Australia;9
388 Shoshone Trail;2234;NSW;Australia;10
67 Lakewood Gardens Circle;2506;NSW;Australia;7
98 Transport Plaza;2470;NSW;Australia;2
35 Larry Plaza;2093;NSW;Australia;9
9 Hooker Street;2770;NSW;Australia;7
4 Debra Hill;3106;VIC;Australia;10
41 Superior Crossing;2747;NSW;Australia;8
721 Morrow Plaza;2069;NSW;Australia;12
8578 Mifflin Pass;2170;NSW;Australia;5
02 Fair Oaks Lane;3977;VIC;Australia;7
910 Becker Pass;2526;NSW;Australia;8
08 Dennis Crossing;3184;VIC;Australia;11
4 Express Plaza;2191;NSW;Australia;10
81609 Vernon Terrace;3934;VIC;Australia;8
37 Hintze Court;2168;NSW;Australia;9
07 Morning Court;3805;VIC;Australia;7
327 Loeprich Street;3187;VIC;Australia;11
5106 Northridge Drive;2560;NSW;Australia;7
9754 High Crossing Terrace;2148;NSW;Australia;8
7 Meadow Vale Court;2114;NSW;Australia;10
80260 Morning Road;3178;VIC;Australia;9
38017 Briar Crest Drive;2165;NSW;Australia;9
60 Morningstar Center;2126;NSW;Australia;10
218 Stuart Junction;2223;NSW;Australia;10
9 Butterfield Lane;4077;QLD;Australia;5
614 Burning Wood Way;2148;NSW;Australia;9
9 Grover Point;4218;QLD;Australia;10
565 Bunting Park;2076;NSW;Australia;11
9461 Saint Paul Trail;2428;NSW;Australia;2
5204 Delaware Pass;2560;NSW;Australia;8
24 Scott Pass;4300;QLD;Australia;5
8 Randy Parkway;2209;NSW;Australia;11
681 Elmside Place;3750;VIC;Australia;6
2918 Summer Ridge Hill;3030;VIC;Australia;2
613 Erie Lane;2088;NSW;Australia;12
0 Transport Center;3977;VIC;Australia;6
4 Dovetail Crossing;2350;NSW;Australia;2
736 Roxbury Junction;2540;NSW;Australia;6
1482 Hauk Trail;3064;VIC;Australia;3
57042 Village Green Point;4511;QLD;Australia;6
87 Crescent Oaks Alley;2756;NSW;Australia;10
8194 Lien Street;4032;QLD;Australia;7
320 Acker Drive;2251;NSW;Australia;7
613 Erie Lane;3996;NSW;Australia;10
